HIERARCHY
ROOT Hips
{
	OFFSET 0.00000 0.00000 0.00000
	CHANNELS 6 Xposition Yposition Zposition Zrotation Yrotation Xrotation 
	JOINT LHipJoint
	{
		OFFSET 0 0 0
		CHANNELS 3 Zrotation Yrotation Xrotation
		JOINT LeftUpLeg
		{
			OFFSET 1.65674 -1.80282 0.62477
			CHANNELS 3 Zrotation Yrotation Xrotation
			JOINT LeftLeg
			{
				OFFSET 2.59720 -7.13576 0.00000
				CHANNELS 3 Zrotation Yrotation Xrotation
				JOINT LeftFoot
				{
					OFFSET 2.49236 -6.84770 0.00000
					CHANNELS 3 Zrotation Yrotation Xrotation
					JOINT LeftToeBase
					{
						OFFSET 0.19704 -0.54136 2.14581
						CHANNELS 3 Zrotation Yrotation Xrotation
						End Site
						{
							OFFSET 0.00000 -0.00000 1.11249
						}
					}
				}
			}
		}
	}
	JOINT RHipJoint
	{
		OFFSET 0 0 0
		CHANNELS 3 Zrotation Yrotation Xrotation
		JOINT RightUpLeg
		{
			OFFSET -1.61070 -1.80282 0.62476
			CHANNELS 3 Zrotation Yrotation Xrotation
			JOINT RightLeg
			{
				OFFSET -2.59502 -7.12977 0.00000
				CHANNELS 3 Zrotation Yrotation Xrotation
				JOINT RightFoot
				{
					OFFSET -2.46780 -6.78024 0.00000
					CHANNELS 3 Zrotation Yrotation Xrotation
					JOINT RightToeBase
					{
						OFFSET -0.23024 -0.63258 2.13368
						CHANNELS 3 Zrotation Yrotation Xrotation
						End Site
						{
							OFFSET -0.00000 -0.00000 1.11569
						}
					}
				}
			}
		}
	}
	JOINT LowerBack
	{
		OFFSET 0 0 0
		CHANNELS 3 Zrotation Yrotation Xrotation
		JOINT Spine
		{
			OFFSET 0.01961 2.05450 -0.14112
			CHANNELS 3 Zrotation Yrotation Xrotation
			JOINT Spine1
			{
				OFFSET 0.01021 2.06436 -0.05921
				CHANNELS 3 Zrotation Yrotation Xrotation
				JOINT Neck
				{
					OFFSET 0 0 0
					CHANNELS 3 Zrotation Yrotation Xrotation
					JOINT Neck1
					{
						OFFSET 0.00713 1.56711 0.14968
						CHANNELS 3 Zrotation Yrotation Xrotation
						JOINT Head
						{
							OFFSET 0.03429 1.56041 -0.10006
							CHANNELS 3 Zrotation Yrotation Xrotation
							End Site
							{
								OFFSET 0.01305 1.62560 -0.05265
							}
						}
					}
				}
				JOINT LeftShoulder
				{
					OFFSET 0 0 0
					CHANNELS 3 Zrotation Yrotation Xrotation
					JOINT LeftArm
					{
						OFFSET 3.54205 0.90436 -0.17364
						CHANNELS 3 Zrotation Yrotation Xrotation
						JOINT LeftForeArm
						{
							OFFSET 4.86513 -0.00000 -0.00000
							CHANNELS 3 Zrotation Yrotation Xrotation
							JOINT LeftHand
							{
								OFFSET 3.35554 -0.00000 0.00000
								CHANNELS 3 Zrotation Yrotation Xrotation
								JOINT LeftFingerBase
								{
									OFFSET 0 0 0
									CHANNELS 3 Zrotation Yrotation Xrotation
									JOINT LeftHandIndex1
									{
										OFFSET 0.66117 -0.00000 0.00000
										CHANNELS 3 Zrotation Yrotation Xrotation
										End Site
										{
											OFFSET 0.53306 -0.00000 0.00000
										}
									}
								}
								JOINT LThumb
								{
									OFFSET 0 0 0
									CHANNELS 3 Zrotation Yrotation Xrotation
									End Site
									{
										OFFSET 0.54120 -0.00000 0.54120
									}
								}
							}
						}
					}
				}
				JOINT RightShoulder
				{
					OFFSET 0 0 0
					CHANNELS 3 Zrotation Yrotation Xrotation
					JOINT RightArm
					{
						OFFSET -3.49802 0.75994 -0.32616
						CHANNELS 3 Zrotation Yrotation Xrotation
						JOINT RightForeArm
						{
							OFFSET -5.02649 -0.00000 0.00000
							CHANNELS 3 Zrotation Yrotation Xrotation
							JOINT RightHand
							{
								OFFSET -3.36431 -0.00000 0.00000
								CHANNELS 3 Zrotation Yrotation Xrotation
								JOINT RightFingerBase
								{
									OFFSET 0 0 0
									CHANNELS 3 Zrotation Yrotation Xrotation
									JOINT RightHandIndex1
									{
										OFFSET -0.73041 -0.00000 0.00000
										CHANNELS 3 Zrotation Yrotation Xrotation
										End Site
										{
											OFFSET -0.58887 -0.00000 0.00000
										}
									}
								}
								JOINT RThumb
								{
									OFFSET 0 0 0
									CHANNELS 3 Zrotation Yrotation Xrotation
									End Site
									{
										OFFSET -0.59786 -0.00000 0.59786
									}
								}
							}
						}
					}
				}
			}
		}
	}
}
MOTION
Frames: 121
Frame Time: 0.033333
9.4455 17.861 -0.5 0 0 0 0 0 0 -21 0 0 0 0 0 0 0 0 0 0 0 0 0 0 21 0 0 0 0 0 0 0 0 0 0 0 0 0 0 0 0 0 0 0 0 0 0 -16 0 0 21 0 0 11 0 0 0 -8 0 0 0 0 0 0 0 0 0 0 0 0 0 0 0 0 0 0 0 0 8 0 0 0 0 0 0 0 0 0 0 0 0 0 0 0 0 0
9.4570 17.8445 -0.5267 -0.0553 -3.9244 -3.1882 0.0000 0.0000 0.0000 -23.2700 -3.4607 0.4633 1.0966 6.6545 18.6957 0.3369 9.9137 -18.6672 0.0007 -0.1726 -0.4742 0.0000 0.0000 0.0000 23.2296 7.5623 0.6768 -0.9881 -6.3268 17.7356 -0.5233 -3.9083 -15.6532 -0.0667 -1.6663 4.5842 0.8039 -1.0834 5.4778 0.5644 -1.4082 3.3307 0.1995 -0.6997 0.3484 -3.8790 -4.6601 -12.9325 3.4655 -5.8179 2.8093 1.4270 -2.7868 3.4655 0.0000 -0.0000 0.0000 -90.0097 2.7728 32.0544 24.2582 -35.4361 -7.8557 -0.0000 0.0000 -26.3663 29.1362 17.5949 9.5645 -7.1250 0.0000 -0.0000 1.1538 49.9303 0.1403 0.0000 -0.0000 0.0000 86.7213 -1.8467 34.2168 -24.6983 35.8940 -8.1123 0.0000 -0.0000 -17.0063 -28.6395 16.4178 -8.7745 7.1250 -0.0000 -0.0000 -0.5618 -11.4220 -0.4394
9.4642 17.8591 -0.6213 -0.1511 -3.6158 -1.9626 0.0000 0.0000 0.0000 -23.0073 -4.1954 -1.2579 1.1225 6.7300 18.9179 0.3625 9.5527 -18.5757 0.0027 0.3380 0.9287 0.0000 0.0000 0.0000 23.1905 8.6787 -1.2686 -1.0953 -6.6507 18.6845 -0.4951 -4.7080 -15.8522 -0.0404 -1.2972 3.5668 1.0256 -0.9587 6.5306 0.4570 -1.2140 3.1599 -0.0239 -0.6013 -0.4177 -3.4410 -3.8058 -12.7376 3.2713 -4.7223 1.8510 1.3712 -2.2507 3.0274 0.0000 -0.0000 0.0000 -88.8940 1.8750 36.2761 28.5373 -39.6062 -10.4645 -0.0000 0.0000 -28.5401 27.2377 17.1428 8.6276 -7.1250 0.0000 -0.0000 -0.6574 49.1116 -0.0667 0.0000 -0.0000 0.0000 86.6420 -1.3725 36.9451 -27.8144 38.9448 -10.0068 0.0000 -0.0000 -17.4251 -28.5669 16.0408 -8.5559 7.1250 -0.0000 -0.0000 -0.5541 -11.8535 -0.4285
9.4739 17.8587 -0.7147 -0.3669 -3.2437 -0.8806 0.0000 0.0000 0.0000 -22.5990 -4.8905 -3.4004 1.2748 7.1557 20.1775 0.4381 8.9612 -18.8273 0.0061 0.5031 1.3824 0.0000 0.0000 0.0000 23.2031 9.2060 -2.7616 -1.1057 -6.6810 18.7738 -0.4550 -5.5294 -15.9681 -0.0294 -1.1070 3.0434 1.4739 -0.9702 7.3486 0.2583 -1.1962 3.7717 -0.4726 -0.5828 -0.2524 -2.5345 -2.8960 -13.4252 2.8025 -3.5853 0.5208 1.1281 -1.6951 2.6191 0.0000 -0.0000 0.0000 -87.2867 0.7626 39.9396 34.0067 -44.0897 -14.1177 -0.0000 0.0000 -28.4173 28.4157 14.2477 7.5849 -7.1250 0.0000 -0.0000 0.8875 46.0817 0.0237 0.0000 -0.0000 0.0000 86.3698 0.4984 39.9287 -30.2987 41.1481 -11.6057 0.0000 -0.0000 -17.4642 -27.9179 18.0611 -9.3290 7.1250 -0.0000 -0.0000 0.0922 -9.7233 0.0753
9.4814 17.8559 -0.8229 -0.2966 -3.2022 1.0157 0.0000 0.0000 0.0000 -22.4220 -6.1493 -6.2180 1.3992 7.4829 21.1541 0.4137 8.9532 -18.5465 0.0173 0.8484 2.3318 0.0000 0.0000 0.0000 22.7458 10.4766 -5.5305 -1.2206 -7.0077 19.7381 -0.4593 -5.9231 -16.3371 -0.0097 -0.6359 1.7473 1.3165 -1.0302 8.7982 0.2311 -1.2581 3.5754 -0.3792 -0.6210 -1.2527 -3.7517 -1.8329 -11.4568 4.3654 -2.0322 -2.7266 1.9493 -0.9013 1.1908 -0.0000 -0.0000 0.0000 -84.9790 1.3641 43.1177 39.9472 -48.0386 -18.4000 -0.0000 0.0000 -27.0210 28.2709 11.4561 6.0969 -7.1250 0.0000 -0.0000 1.0203 42.9357 -0.0520 -0.0000 -0.0000 0.0000 84.8467 1.6232 43.8236 -31.1063 41.8229 -12.1406 0.0000 -0.0000 -18.0805 -28.9023 21.0316 -11.2071 7.1250 -0.0000 -0.0000 -0.1722 -6.2687 -0.1523
9.4988 17.8585 -0.9485 -0.3140 -3.0179 3.0673 0.0000 0.0000 0.0000 -22.1014 -7.3233 -9.4339 1.5582 7.8780 22.3440 0.3882 8.9546 -18.2563 0.0038 0.4000 1.0991 0.0000 0.0000 0.0000 22.2071 11.5575 -9.1602 -1.4556 -7.6258 21.5832 -0.4750 -6.0172 -16.6070 -0.0006 0.1641 -0.4510 1.4082 -1.0560 10.3727 0.0900 -1.2587 3.5823 -0.5480 -0.6238 -2.1151 -3.8703 -1.2173 -10.8749 4.8481 -1.1531 -5.1298 2.1603 -0.4669 0.2865 0.0000 0.0000 0.0000 -82.5348 1.6942 44.5861 41.9763 -49.1982 -19.9226 -0.0000 0.0000 -25.3980 28.5389 5.6833 3.0827 -7.1250 0.0000 -0.0000 1.5456 36.4391 -0.3255 0.0000 0.0000 0.0000 83.1791 2.8126 46.3159 -29.5701 40.5221 -11.1293 0.0000 -0.0000 -17.7175 -28.7535 23.3668 -12.2774 7.1250 -0.0000 -0.0000 0.2462 -3.7452 0.2296
9.4911 17.8446 -1.0662 -0.0753 -2.9834 5.0188 0.0000 0.0000 0.0000 -21.9085 -8.2844 -13.2794 1.8684 8.5864 24.5099 0.3888 8.7251 -18.0332 0.0017 -0.2639 -0.7250 0.0000 0.0000 0.0000 21.4459 12.9276 -12.1972 -1.6302 -8.0492 22.8636 -0.4806 -6.2839 -16.8922 -0.0000 0.0446 -0.1226 0.8452 -0.7963 12.0622 0.1478 -0.9517 3.9176 -0.1884 -0.4733 -2.6737 -4.9964 -0.9227 -10.2822 6.0026 -0.5594 -7.6290 2.7787 -0.1549 -0.6279 0.0000 -0.0000 0.0000 -79.6040 2.0785 45.5524 40.0196 -48.0815 -18.4538 -0.0000 0.0000 -25.3247 30.3559 4.3821 2.5622 -7.1250 0.0000 -0.0000 3.0798 35.0414 -0.7541 0.0000 -0.0000 0.0000 80.4057 2.6114 48.1105 -27.9024 39.0263 -10.0622 0.0000 -0.0000 -18.3502 -29.3296 23.2212 -12.4909 7.1250 -0.0000 -0.0000 -0.1289 -3.7771 -0.1201
9.5077 17.7901 -1.2031 -0.5010 -2.4214 7.3659 0.0000 0.0000 0.0000 -20.8949 -9.3260 -17.7694 2.2933 9.4520 27.2196 0.5318 7.3912 -18.4174 0.0001 0.0777 0.2135 0.0000 0.0000 0.0000 21.1569 13.8537 -16.6449 -2.0071 -8.8808 25.4232 -0.4850 -6.3336 -16.9857 -0.0034 0.3762 -1.0337 1.6069 -0.8552 14.2946 0.2310 -0.8928 4.1974 -0.5134 -0.4464 -3.6003 -5.8580 -0.7342 -9.7504 6.6516 -0.1087 -10.7146 3.2028 0.0807 -1.7579 -0.0000 -0.0000 0.0000 -77.1145 4.2184 43.6324 37.1529 -46.2896 -16.3504 -0.0000 0.0000 -26.7136 28.1982 7.2964 3.8954 -7.1250 0.0000 -0.0000 1.2040 38.2434 -0.2004 -0.0000 -0.0000 0.0000 77.4995 0.9461 48.5413 -25.8014 37.0119 -8.7678 0.0000 -0.0000 -17.9558 -30.2156 23.7632 -13.2068 7.1250 -0.0000 -0.0000 -0.5882 -2.9818 -0.5568
9.5176 17.7050 -1.3452 0.2472 -1.6336 9.9565 0.0000 0.0000 0.0000 -21.1163 -10.2036 -23.2153 2.8600 10.4649 30.4957 0.5777 6.1395 -17.8993 0.0157 -0.8082 -2.2213 0.0000 0.0000 0.0000 19.3807 14.4673 -22.3192 -2.6870 -10.1702 29.5296 -0.6436 -5.5971 -18.2173 -0.0003 0.1053 -0.2894 1.3980 -0.9944 16.5664 -0.0637 -1.0813 4.8840 -0.6458 -0.5354 -4.1008 -5.6749 -0.5779 -10.4143 6.2418 0.2043 -13.7834 3.0720 0.2448 -2.7078 -0.0000 -0.0000 0.0000 -74.1713 7.0174 40.2580 33.3191 -43.5739 -13.6415 -0.0000 0.0000 -30.1278 28.9810 8.9072 4.9017 -7.1250 0.0000 -0.0000 1.8167 40.1306 -0.2182 -0.0000 -0.0000 0.0000 75.1077 -1.3408 46.8653 -23.5564 34.6917 -7.4526 0.0000 -0.0000 -18.4622 -32.3937 23.3025 -14.0893 7.1250 -0.0000 -0.0000 -1.9891 -2.9679 -1.8846
9.5031 17.5118 -1.4798 0.4817 -1.0620 13.1486 0.0000 0.0000 0.0000 -20.4456 -11.2534 -29.8263 3.7603 11.8344 35.1485 0.6766 4.5758 -17.8692 0.0519 -1.4702 -4.0436 0.0000 0.0000 0.0000 17.7700 16.4366 -28.9911 -3.6763 -11.7168 34.7372 -0.7975 -5.1953 -19.5367 -0.0025 -0.3217 0.8839 1.2561 -1.1618 18.5463 -0.1551 -1.2958 5.3911 -0.5922 -0.6371 -4.6136 -4.4466 -0.2705 -10.6938 4.7183 0.4817 -16.8427 2.3670 0.3583 -3.7404 0.0000 0.0000 0.0000 -71.4869 11.4628 35.9535 29.2871 -40.2745 -10.9458 -0.0000 0.0000 -31.6341 28.5238 12.8453 6.8896 -7.1250 0.0000 -0.0000 1.1326 44.5257 -0.0133 0.0000 0.0000 0.0000 73.2015 -5.3388 44.3101 -21.6937 32.6291 -6.4199 0.0000 -0.0000 -18.9000 -35.6010 23.0655 -15.6688 7.1250 -0.0000 -0.0000 -3.9743 -2.3962 -3.8139
9.4885 17.2507 -1.6193 0.9011 -0.9056 16.2017 0.0000 0.0000 0.0000 -19.6217 -12.7326 -37.1576 5.0881 13.4824 41.2020 0.9063 2.9535 -19.2814 0.0475 -1.4070 -3.8694 0.0000 0.0000 0.0000 15.6278 18.3191 -36.3701 -5.0094 -13.3943 40.8631 -1.0300 -4.3247 -21.1939 -0.0014 -0.2393 0.6575 0.4398 -1.0863 21.2155 -0.0563 -1.3174 5.6588 0.0248 -0.6409 -5.7005 -3.4356 -0.2357 -10.7106 3.0302 0.2929 -19.1464 1.6360 0.2579 -4.5651 -0.0000 0.0000 0.0000 -69.4720 17.5107 32.6633 25.4906 -36.7013 -8.5814 -0.0000 0.0000 -30.0527 29.3087 14.8715 8.1986 -7.1250 0.0000 -0.0000 1.6713 46.9098 0.0788 -0.0000 0.0000 0.0000 71.3602 -10.8923 40.6867 -19.9369 30.5662 -5.4992 0.0000 -0.0000 -17.5599 -35.2093 22.2243 -14.9442 7.1250 -0.0000 -0.0000 -3.8917 -3.4643 -3.6580
9.4791 16.8747 -1.7488 0.1321 -0.5735 18.3688 0.0000 0.0000 0.0000 -17.4237 -14.1069 -44.1426 6.9275 15.2706 48.5998 1.2472 1.7064 -21.7776 0.0394 -1.2818 -3.5245 0.0000 0.0000 0.0000 14.9522 19.9269 -42.9757 -6.6818 -15.0580 47.6602 -1.3222 -3.4069 -23.1857 -0.0104 -0.6585 1.8096 1.2051 -1.0410 23.9256 0.0407 -1.0519 6.6714 -0.3476 -0.5126 -5.9937 -2.0854 -0.2064 -11.0401 1.5280 0.0630 -21.5307 0.8335 0.1064 -4.7411 0.0000 -0.0000 0.0000 -67.7248 23.4294 29.5828 22.0242 -33.0044 -6.5990 -0.0000 0.0000 -28.5056 30.0829 14.3956 8.1953 -7.1250 0.0000 -0.0000 2.4610 46.4869 0.0904 0.0000 -0.0000 0.0000 70.5110 -16.9861 36.8499 -18.6676 29.0036 -4.8686 0.0000 -0.0000 -17.4912 -33.7638 22.8790 -14.5696 7.1250 -0.0000 -0.0000 -2.8953 -3.0973 -2.7381
9.5006 16.4201 -1.8428 -0.6123 0.0331 20.9727 0.0000 0.0000 0.0000 -14.7106 -16.3667 -51.5385 9.1679 16.9145 56.6689 1.6487 0.9191 -24.6276 0.0245 -1.0114 -2.7803 0.0000 0.0000 0.0000 13.8532 21.0223 -50.4529 -8.8037 -16.6797 55.4089 -1.7591 -1.8514 -25.7899 -0.0010 -0.2051 0.5634 2.3047 -1.2526 25.9419 0.1841 -1.0037 7.4326 -0.8164 -0.4888 -6.1728 -1.2527 -0.1753 -11.7024 0.2522 -0.1439 -22.9069 0.2944 0.0061 -5.0795 0.0000 -0.0000 0.0000 -67.6412 30.3080 26.4224 19.0594 -29.4924 -5.0601 -0.0000 0.0000 -27.6485 29.1419 15.0875 8.2575 -7.1250 0.0000 -0.0000 1.4871 47.1274 0.0781 0.0000 -0.0000 0.0000 70.6741 -23.7790 33.9229 -17.1611 27.0696 -4.1604 0.0000 -0.0000 -15.8047 -32.9604 23.7376 -14.6290 7.1250 -0.0000 -0.0000 -2.2582 -2.3391 -2.1658
9.4988 15.8188 -1.9421 0.0218 -0.0059 23.2135 0.0000 0.0000 0.0000 -13.4085 -18.4187 -58.7777 11.7038 18.2626 65.0469 2.0497 0.4671 -27.2724 0.0369 -1.2393 -3.4076 0.0000 0.0000 0.0000 11.1876 21.8246 -58.7370 -11.5500 -18.1939 64.5553 -2.1150 -1.5050 -28.0761 -0.0267 1.0555 -2.9015 1.8077 -1.2196 27.5031 -0.1521 -1.0817 8.5336 -0.8671 -0.5096 -5.7123 -0.4027 -0.2716 -11.1743 -0.6787 -0.5334 -25.8464 -0.1405 -0.1982 -6.1173 0.0000 -0.0000 0.0000 -68.7075 37.0489 24.2013 17.1241 -27.0211 -4.1436 -0.0000 0.0000 -27.3033 30.2808 15.8186 9.0438 -7.1250 0.0000 -0.0000 2.5137 48.1277 0.1941 0.0000 -0.0000 0.0000 71.5647 -30.4725 31.8085 -16.5703 26.2878 -3.8951 0.0000 -0.0000 -16.2379 -37.8282 22.3021 -16.4183 7.1250 -0.0000 -0.0000 -5.4635 -2.6452 -5.2297
9.5162 15.1798 -1.9919 1.5621 0.0299 25.3528 0.0000 0.0000 0.0000 -12.8869 -21.0265 -65.6239 14.3180 19.2077 73.1733 2.4971 0.2959 -30.0486 0.0015 -0.2511 -0.6899 0.0000 0.0000 0.0000 7.4176 21.4331 -67.1253 -14.6833 -19.3083 74.2808 -2.5967 0.2522 -30.4724 -0.0354 1.2144 -3.3389 0.8417 -1.4153 28.5308 -0.6381 -1.5918 9.3196 -0.6793 -0.7406 -5.3298 -0.4676 -0.2154 -9.9065 -0.9465 -0.5507 -28.5959 -0.2168 -0.1633 -7.2441 0.0000 0.0000 0.0000 -71.3886 43.1885 22.2799 15.3440 -24.6231 -3.3680 -0.0000 0.0000 -26.5975 29.1538 15.5633 8.5121 -7.1250 0.0000 -0.0000 1.4434 47.6629 0.0949 0.0000 0.0000 0.0000 73.2488 -36.4510 30.8078 -15.5467 24.9021 -3.4528 0.0000 -0.0000 -17.4531 -38.9405 22.0757 -16.8933 7.1250 -0.0000 -0.0000 -6.1779 -2.5802 -5.9286
9.5257 14.4806 -2.0386 2.1185 0.9356 27.0493 0.0000 0.0000 0.0000 -11.2430 -23.1824 -72.2768 17.0773 19.7940 81.4265 2.8167 0.6733 -32.0462 0.0198 -0.9095 -2.4999 0.0000 0.0000 0.0000 4.8206 20.9649 -74.7639 -17.8749 -19.8914 83.7758 -3.1030 2.3509 -32.7927 -0.0020 0.2914 -0.8006 1.4934 -2.0068 29.9107 -0.8499 -2.1352 9.7360 -1.0909 -0.9805 -5.5452 -0.4581 -0.0667 -10.2989 -1.3621 -0.4269 -29.1267 -0.3638 -0.0641 -7.3675 -0.0000 -0.0000 0.0000 -75.5518 47.8805 18.8941 14.4806 -23.4176 -3.0165 -0.0000 0.0000 -25.9117 28.2147 15.8433 8.3332 -7.1250 0.0000 -0.0000 0.4966 47.8304 0.0347 -0.0000 -0.0000 0.0000 76.8308 -40.7605 26.1645 -14.1558 22.9570 -2.8886 0.0000 -0.0000 -16.2717 -37.1328 18.2976 -13.3723 7.1250 -0.0000 -0.0000 -5.7791 -7.5471 -4.9962
9.5550 13.8038 -2.0405 3.5697 1.7464 28.1638 0.0000 0.0000 0.0000 -10.6685 -25.5844 -77.8707 19.5977 19.9961 88.8238 3.2821 0.2981 -34.4799 0.0162 -0.8210 -2.2564 0.0000 0.0000 0.0000 1.8411 19.7476 -81.0624 -20.7885 -19.9851 92.3059 -3.4495 2.8431 -34.5303 -0.0362 1.2284 -3.3775 1.5450 -2.6323 30.9174 -1.0962 -2.8706 10.4456 -1.1340 -1.3060 -5.2409 -0.6672 -0.0474 -10.0711 -1.7116 -0.5071 -31.0286 -0.4512 -0.0326 -8.0797 -0.0000 0.0000 0.0000 -82.0976 49.4283 12.7331 15.4441 -24.7612 -3.4098 -0.0000 0.0000 -26.6785 27.8132 14.8587 7.7041 -7.1250 0.0000 -0.0000 0.2409 46.6768 0.0100 -0.0000 0.0000 0.0000 81.7649 -41.5547 17.5070 -12.7075 20.8571 -2.3481 0.0000 -0.0000 -13.4756 -37.0513 21.7391 -15.6222 7.1250 -0.0000 -0.0000 -5.1025 -3.5234 -4.7987
9.5731 13.3008 -1.9798 3.2966 2.3844 28.4215 0.0000 0.0000 0.0000 -9.4669 -26.0325 -81.3681 21.6059 19.9381 94.7000 3.6764 -0.1752 -36.3729 0.0512 -1.4598 -4.0148 0.0000 0.0000 0.0000 1.2066 19.9791 -84.3906 -22.8549 -19.8035 98.3735 -3.9119 2.9884 -36.8374 -0.0407 1.3015 -3.5787 2.2982 -3.0444 32.0227 -0.9225 -3.1064 11.2296 -1.2777 -1.3941 -4.8745 -0.3961 0.2408 -10.1495 -2.5359 -0.3218 -32.1704 -0.7983 0.1104 -8.4824 0.0000 -0.0000 0.0000 -87.3320 46.8684 8.7907 16.3935 -26.0513 -3.8171 -0.0000 0.0000 -27.1389 25.0242 14.3027 6.5786 -7.1250 0.0000 -0.0000 -2.3140 45.6814 -0.0389 0.0000 -0.0000 0.0000 85.2726 -38.2799 11.9420 -11.4375 18.9557 -1.9156 0.0000 -0.0000 -14.3108 -37.7530 21.5764 -15.8952 7.1250 -0.0000 -0.0000 -5.5599 -3.5155 -5.2336
9.6093 12.9995 -1.8566 4.0789 2.0993 28.1819 0.0000 0.0000 0.0000 -10.5149 -26.4902 -82.1047 22.7500 19.8177 98.0640 4.0823 -0.8084 -38.1900 0.0101 -0.6485 -1.7821 0.0000 0.0000 0.0000 0.1885 19.9314 -85.0740 -23.8215 -19.6462 101.2369 -4.3126 2.5138 -38.8658 -0.0436 1.3479 -3.7067 1.7136 -3.0997 33.6414 -1.0205 -3.2936 10.9958 -0.8644 -1.4789 -5.1908 -0.0024 0.4504 -10.0314 -3.6505 -0.3134 -32.0751 -1.2535 0.1643 -8.4630 -0.0000 -0.0000 0.0000 -89.2354 40.7346 9.8171 17.1303 -27.0292 -4.1464 -0.0000 0.0000 -27.3691 21.5684 14.8510 5.7852 -7.1250 0.0000 -0.0000 -5.6354 45.8177 -0.1141 -0.0000 -0.0000 0.0000 87.4164 -30.6571 6.7471 -8.6615 14.6193 -1.1131 0.0000 -0.0000 -6.1888 -39.9001 22.9640 -18.0673 7.1250 -0.0000 -0.0000 -6.5655 -1.2324 -6.4657
9.5815 12.9646 -1.6838 3.3887 3.3390 26.9860 0.0000 0.0000 0.0000 -10.0323 -26.6397 -80.4759 23.1694 19.7574 99.3028 4.1557 -1.5649 -38.3469 0.0444 -1.3593 -3.7380 0.0000 0.0000 0.0000 2.0623 20.5208 -83.1443 -24.0261 -19.6069 101.8460 -4.2741 -2.2502 -40.0112 -0.2780 3.3911 -9.3696 2.8937 -3.4337 34.3108 -0.7475 -3.2795 11.2843 -1.1902 -1.4517 -5.1479 -0.1337 0.4592 -9.2694 -3.7570 -0.3239 -32.3033 -1.2729 0.2011 -8.6708 -0.0000 0.0000 0.0000 -86.3606 29.9146 18.3894 16.5087 -26.2055 -3.8679 -0.0000 0.0000 -27.5491 22.5566 14.4615 5.9222 -7.1250 0.0000 -0.0000 -4.6408 45.5316 -0.0610 -0.0000 0.0000 0.0000 89.2222 -19.6361 2.2755 -6.4399 10.9938 -0.6204 0.0000 0.0000 3.7419 -37.6987 22.9822 -16.7915 7.1250 -0.0000 -0.0000 -5.2507 -1.8915 -5.0962
9.5711 13.1689 -1.4819 3.6140 3.7992 24.6083 0.0000 0.0000 0.0000 -12.1309 -26.3449 -75.1741 22.7107 19.8229 97.9481 4.0296 -0.5395 -38.0090 0.0914 -1.9502 -5.3679 0.0000 0.0000 0.0000 3.2516 20.9747 -77.8595 -23.8062 -19.6491 101.1914 -4.4751 -1.9221 -40.8252 -0.1015 2.0545 -5.6563 2.6889 -3.3020 34.8455 -0.6958 -3.1531 11.5264 -1.0616 -1.3894 -5.0584 0.4620 0.4949 -10.5784 -4.4852 -0.4034 -31.0389 -1.6044 0.1270 -7.9964 0.0000 -0.0000 0.0000 -83.5610 12.3476 23.7786 13.6152 -22.1820 -2.6811 -0.0000 0.0000 -23.6194 25.6697 16.3264 7.6944 -7.1250 0.0000 -0.0000 -2.0410 47.9731 -0.1498 0.0000 -0.0000 0.0000 89.9227 -5.2372 -3.2812 -5.0987 8.7509 -0.3904 0.0000 0.0000 14.8971 -38.6280 26.4504 -19.5923 7.1250 -0.0000 -0.0000 -5.0614 2.3976 -5.2891
9.5542 13.4966 -1.3505 1.9007 4.0108 22.6064 0.0000 0.0000 0.0000 -11.5278 -24.8462 -71.5214 22.0639 19.8976 96.0445 3.7345 -0.7552 -36.5016 0.0659 -1.6564 -4.5570 0.0000 0.0000 0.0000 5.7067 22.4587 -73.3461 -22.6412 -19.8319 97.7431 -4.1035 -1.8482 -39.0807 -0.0556 1.5219 -4.1861 2.9083 -2.5417 33.4517 0.3504 -2.1370 10.4465 -0.4510 -0.9617 -5.6509 -1.1447 -0.0515 -9.1420 -3.4086 -0.8832 -30.3540 -0.9300 -0.0126 -7.9960 0.0000 -0.0000 0.0000 -81.6706 -1.6594 30.5589 16.8198 -26.6197 -4.0063 -0.0000 0.0000 -27.0032 29.9296 16.7832 9.4384 -7.1250 0.0000 -0.0000 2.0564 49.1571 0.2109 0.0000 -0.0000 0.0000 88.8951 7.7446 10.4271 -7.1322 12.1366 -0.7592 0.0000 0.0000 0.8708 -39.2130 28.1940 -21.0819 7.1250 -0.0000 -0.0000 -4.9923 4.5808 -5.3949
9.5390 13.8825 -1.2601 1.5803 3.6754 20.0233 0.0000 0.0000 0.0000 -13.2306 -22.9771 -66.0087 20.8005 19.9846 92.3412 3.5337 -1.9849 -35.1657 0.0155 -0.8036 -2.2086 0.0000 0.0000 0.0000 7.9441 22.1139 -67.6727 -21.2863 -19.9603 93.7632 -3.7184 -2.1771 -37.3301 -0.0615 1.5997 -4.4006 1.6258 -1.9534 30.8043 0.4064 -1.8895 9.9562 0.1604 -0.8728 -5.6577 -1.5242 0.1330 -10.2010 -2.5980 -0.3163 -28.1680 -0.5930 0.1991 -7.0554 -0.0000 0.0000 0.0000 -74.5745 -13.2974 40.3447 27.0802 -38.2556 -9.5487 -0.0000 0.0000 -29.0820 31.5895 16.5794 9.9525 -7.1250 0.0000 -0.0000 3.7329 49.2086 0.3879 -0.0000 0.0000 0.0000 88.9302 20.1124 25.4565 -13.2797 21.6957 -2.5558 0.0000 -0.0000 -9.8887 -40.9300 28.8278 -22.6907 7.1250 -0.0000 -0.0000 -5.7982 5.9286 -6.3975
9.5473 14.3923 -1.1791 0.0487 3.3919 16.8243 0.0000 0.0000 0.0000 -14.0066 -20.3745 -59.5579 19.0097 19.9765 87.1035 3.1696 -1.0409 -33.4883 0.0510 -1.4576 -4.0089 0.0000 0.0000 0.0000 12.2592 20.6280 -60.2317 -19.3236 -19.9890 88.0220 -3.2182 -1.6072 -34.5696 -0.0357 1.2193 -3.3524 2.0304 -1.6144 28.7521 0.4771 -1.4121 8.7145 -0.1787 -0.6627 -6.1031 -2.3746 -0.2987 -11.5302 -0.5784 -0.3656 -24.5639 0.2222 0.0671 -5.6441 -0.0000 -0.0000 0.0000 -63.6419 -26.8982 43.6233 38.8608 -47.3803 -17.5963 -0.0000 0.0000 -31.6858 32.8322 17.8111 11.1649 -7.1250 0.0000 -0.0000 4.8809 50.8409 0.7039 -0.0000 -0.0000 0.0000 86.8335 31.0714 36.7995 -22.4657 33.4994 -6.8411 0.0000 -0.0000 -14.2907 -40.5032 27.1456 -21.2919 7.1250 -0.0000 -0.0000 -5.9710 3.8483 -6.3922
9.5727 15.0903 -1.0135 -0.9800 3.7914 13.0677 0.0000 0.0000 0.0000 -15.2785 -18.6505 -50.8422 16.4656 19.6978 79.6158 2.5270 -0.3341 -30.0306 0.0525 -1.4790 -4.0679 0.0000 0.0000 0.0000 16.4438 16.5831 -51.3056 -16.4766 -19.6997 79.6487 -2.5038 -0.8803 -30.2847 -0.0070 0.5394 -1.4823 2.2963 -1.5364 27.6898 0.6879 -1.2427 7.1744 -0.1516 -0.6034 -7.3145 -2.6651 -0.5404 -14.3699 0.0991 -0.4127 -18.3382 0.4802 -0.0322 -3.6023 -0.0000 0.0000 0.0000 -50.4877 -37.1265 39.6478 50.8338 -53.3263 -26.8415 -0.0000 0.0000 -30.9693 35.0902 16.9829 11.5965 -7.1250 0.0000 -0.0000 7.2611 50.3075 0.9543 -0.0000 0.0000 0.0000 80.4095 38.8175 42.6072 -35.3961 45.0929 -15.0932 0.0000 -0.0000 -14.2567 -40.5034 28.7222 -22.3176 7.1250 -0.0000 -0.0000 -5.5872 5.6482 -6.1379
9.6241 15.9755 -0.7610 -1.3899 2.7438 10.0223 0.0000 0.0000 0.0000 -17.6769 -14.8467 -41.3320 12.8173 18.7152 68.5571 1.6671 1.8142 -25.1112 0.0655 -1.6511 -4.5425 0.0000 0.0000 0.0000 18.8896 12.4756 -42.6935 -12.8739 -18.7361 68.7333 -1.5414 -0.1314 -23.5402 -0.0922 1.9582 -5.3902 1.3995 -1.0151 26.4403 0.6722 -0.8460 5.5317 0.2173 -0.4195 -8.5148 -2.0538 -0.4237 -14.2825 -0.4906 -0.3676 -15.5819 0.1780 -0.0633 -2.6307 0.0000 0.0000 0.0000 -35.5702 -41.7586 32.2502 61.3508 -56.6593 -35.4674 -0.0000 0.0000 -30.0474 33.7643 17.9726 11.6558 -7.1250 0.0000 -0.0000 5.8330 51.2046 0.8941 0.0000 0.0000 0.0000 72.2838 43.3459 43.4554 -51.7595 53.6810 -27.5857 0.0000 -0.0000 -17.8430 -43.9650 27.3904 -23.9280 7.1250 -0.0000 -0.0000 -7.8535 5.4706 -8.6447
9.7050 17.1413 -0.3006 -1.7476 0.9323 6.6981 0.0000 0.0000 0.0000 -19.9169 -8.9488 -29.0093 8.0107 16.1271 52.6013 0.5900 3.9558 -16.4890 0.0635 -1.6261 -4.4734 0.0000 0.0000 0.0000 20.9402 6.8824 -30.6585 -7.9091 -16.0520 52.2345 -0.4693 0.8546 -12.6718 -0.2438 3.1774 -8.7730 1.5650 -0.2836 24.5317 0.3811 0.0819 3.6676 -0.5028 -0.0080 -9.6106 -2.4868 -0.4281 -12.7359 -0.6802 -0.3230 -11.2568 0.1878 -0.0609 -1.4304 -0.0000 0.0000 0.0000 -30.4296 -41.9570 31.3741 64.4726 -57.3885 -38.0864 -0.0000 0.0000 -29.2962 33.8000 14.5655 9.5564 -7.1250 0.0000 -0.0000 6.0480 47.2521 0.3373 -0.0000 0.0000 0.0000 64.6900 43.3379 43.5202 -62.6605 56.9782 -36.5635 0.0000 -0.0000 -21.5515 -45.9200 30.2183 -27.4620 7.1250 -0.0000 -0.0000 -8.1472 9.6008 -9.4802
9.7910 18.5875 0.3206 -1.9080 -0.0840 3.9362 0.0000 0.0000 0.0000 -21.0173 -1.7518 -15.6671 3.1630 10.9543 32.1259 -0.1865 8.3788 0.6252 0.2443 -3.1808 -8.7826 0.0000 0.0000 0.0000 21.4839 -0.1744 -16.3021 -2.6909 -10.1770 29.5520 -0.1111 -2.9198 5.9614 -0.5603 4.7947 -13.3240 2.2569 0.0514 20.5742 0.1494 0.5974 1.6886 -1.2949 0.1912 -9.6705 -2.6373 -0.0848 -11.0510 -0.9316 0.1848 -4.7150 0.1553 0.1200 0.3568 0.0000 0.0000 0.0000 -38.0379 -39.1882 38.5494 60.8232 -56.5253 -35.0269 -0.0000 0.0000 -27.9357 33.9420 12.1246 8.0462 -7.1250 0.0000 -0.0000 6.2331 44.4082 -0.0914 0.0000 0.0000 0.0000 65.8121 38.0596 47.4487 -68.8715 58.2441 -41.8101 0.0000 -0.0000 -21.9635 -44.3227 30.8444 -26.5984 7.1250 -0.0000 -0.0000 -7.1115 9.6006 -8.2565
9.8010 20.1078 0.9880 -2.1509 0.0595 3.0154 0.0000 0.0000 0.0000 -20.1273 -0.1046 -6.3592 0.9910 6.3359 17.7621 -1.8351 26.7927 4.5151 0.0007 0.1719 0.4722 0.0000 0.0000 0.0000 21.5754 -6.6191 -5.8473 -0.4455 -4.2823 11.8721 0.5578 -20.9631 9.8705 -0.2319 3.0994 -8.5557 2.4693 -0.0592 13.7739 0.0709 0.3252 -0.1469 -1.3878 0.0613 -7.8896 -2.9379 0.2555 -12.2767 -0.5944 0.8539 4.6887 0.3869 0.3326 3.7192 0.0000 -0.0000 0.0000 -47.8859 -31.8682 46.3339 58.5332 -55.9062 -33.1235 -0.0000 0.0000 -28.7612 32.2124 10.7060 6.6756 -7.1250 0.0000 -0.0000 4.6524 42.5291 -0.2843 0.0000 -0.0000 0.0000 69.4686 31.0195 53.4125 -71.4992 58.6664 -44.0496 0.0000 -0.0000 -26.1403 -43.2227 30.3394 -25.3945 7.1250 -0.0000 -0.0000 -6.6592 8.5584 -7.6241
9.8375 21.4797 1.4006 -0.7097 0.3229 4.1300 0.0000 0.0000 0.0000 -21.5799 4.6161 -5.5427 1.0079 6.3881 17.9147 -2.7512 30.5155 1.8519 0.0352 1.2112 3.3302 0.0000 0.0000 0.0000 20.3330 -12.0348 -5.7342 -0.7424 -5.5042 15.3525 2.5795 -29.5511 1.5984 -0.0081 -0.5809 1.5962 1.1283 -0.1303 7.3028 -0.4593 -0.0909 -2.5422 -1.1033 -0.1037 -6.7653 -3.0691 0.6326 -8.7552 -0.2063 1.2598 7.8056 0.5581 0.5158 4.1197 -0.0000 0.0000 0.0000 -55.1221 -23.5933 53.0024 54.0500 -54.5038 -29.4410 -0.0000 0.0000 -28.6069 28.3098 9.6028 5.1347 -7.1250 0.0000 -0.0000 1.1856 40.8549 -0.1212 -0.0000 0.0000 0.0000 72.4315 24.2335 58.1163 -70.5847 58.5266 -43.2690 0.0000 -0.0000 -25.6135 -37.1503 30.3688 -20.9595 7.1250 -0.0000 -0.0000 -3.3215 6.2876 -3.6712
9.8452 22.6698 1.5253 -2.6520 -1.0720 1.8680 0.0000 0.0000 0.0000 -18.9048 7.7760 -3.7467 1.8220 8.4851 24.1975 -0.8871 24.4667 10.5260 0.0002 -0.0828 -0.2274 0.0000 0.0000 0.0000 22.0049 -9.1606 0.5128 -1.0079 -6.3879 17.9142 0.6984 -21.7877 9.3477 -0.1861 2.7784 -7.6625 2.1107 0.1367 7.5950 0.4297 0.4380 -3.0378 -0.7959 0.1248 -7.4489 -2.7571 0.8552 -8.4586 -0.4923 1.5586 9.1936 0.4306 0.6410 4.5606 0.0000 0.0000 0.0000 -63.0182 -15.5699 55.3036 48.4983 -52.3716 -24.9798 -0.0000 0.0000 -25.5067 25.5426 8.4129 3.9995 -7.1250 0.0000 -0.0000 -1.1619 39.2862 0.1636 0.0000 0.0000 0.0000 77.1715 18.8637 59.8028 -66.7277 57.8512 -39.9910 0.0000 -0.0000 -20.1683 -32.4684 31.0374 -18.1633 7.1250 -0.0000 -0.0000 -0.5630 5.5167 -0.6146
9.9172 23.6374 1.7068 -1.3683 -2.0524 -1.0148 0.0000 0.0000 0.0000 -20.5773 6.8155 1.5053 2.0536 8.9768 25.7229 -0.2891 19.7590 11.3356 0.2273 -3.0689 -8.4706 0.0000 0.0000 0.0000 21.1560 -4.1899 7.0662 -1.1168 -6.7135 18.8694 0.0908 -13.9248 8.6464 -0.6253 5.0602 -14.0803 1.3604 0.1475 7.4735 -0.1074 0.3312 -2.8283 -0.9223 0.0974 -7.1570 -2.0366 1.3580 -8.0043 -0.3358 2.1293 10.5914 0.3592 0.9467 4.4676 0.0000 0.0000 0.0000 -69.5773 -7.5129 54.4927 42.4538 -49.4583 -20.2848 -0.0000 0.0000 -22.3379 25.5287 9.4026 4.4614 -7.1250 0.0000 -0.0000 -1.2581 40.3753 0.1435 0.0000 0.0000 0.0000 82.6114 12.0893 60.2514 -61.8729 56.7887 -35.9038 0.0000 -0.0000 -20.3635 -33.5850 29.0993 -17.8968 7.1250 -0.0000 -0.0000 -1.6009 3.7555 -1.7030
10.0059 24.4925 1.9966 -1.9359 -2.5998 -0.4453 0.0000 0.0000 0.0000 -20.8159 5.8153 3.2194 1.7512 8.3274 23.7130 -0.7328 19.3178 6.0009 0.3479 -3.7897 -10.4858 0.0000 0.0000 0.0000 22.0937 -4.0724 7.7899 -1.0193 -6.4230 18.0168 0.4777 -14.1185 2.5207 -0.6559 5.1800 -14.4228 2.6029 -0.0015 4.0135 0.1794 0.1779 -3.2721 -1.2893 -0.0120 -5.6410 -1.5566 1.4543 -10.5816 -1.4873 2.4745 14.0005 -0.0119 1.0046 5.9834 0.0000 -0.0000 0.0000 -76.1957 -0.3757 50.6568 36.2977 -45.7168 -15.7352 -0.0000 0.0000 -19.3917 24.6195 8.5068 3.8780 -7.1250 0.0000 -0.0000 -1.9720 39.3156 0.2764 0.0000 -0.0000 0.0000 85.8914 6.4624 59.3079 -54.5599 54.6768 -29.8566 0.0000 -0.0000 -22.6682 -36.6049 26.4000 -18.2771 7.1250 -0.0000 -0.0000 -3.9036 1.6860 -4.0260
10.0570 25.2178 2.1396 -0.2420 -3.8351 1.0222 0.0000 0.0000 0.0000 -23.1295 7.0173 2.0686 1.3800 7.4336 21.0065 -1.1169 20.6424 2.5449 0.1925 -2.8257 -7.7938 0.0000 0.0000 0.0000 20.2813 -5.0447 4.7399 -1.1412 -6.7838 19.0763 0.8041 -16.0962 -1.9210 -0.2364 3.1292 -8.6387 0.4398 -0.1096 2.1926 0.0891 -0.1226 -4.1041 -0.1456 -0.0781 -5.4745 -1.2779 2.2200 -10.3896 -1.2261 3.3832 12.2508 0.0835 1.5057 5.4003 0.0000 -0.0000 0.0000 -82.2158 5.9449 43.4252 32.9985 -43.3289 -13.4211 -0.0000 0.0000 -21.6374 22.4457 10.8714 4.4551 -7.1250 0.0000 -0.0000 -4.1540 41.6824 0.3406 0.0000 -0.0000 0.0000 88.6391 1.0034 55.9284 -47.9713 52.1438 -24.5631 0.0000 -0.0000 -20.6665 -33.9152 26.4237 -16.6573 7.1250 -0.0000 -0.0000 -2.3307 0.9105 -2.3694
10.1004 25.7068 2.1836 0.0052 -5.1725 1.1874 0.0000 0.0000 0.0000 -23.6750 7.8230 1.0427 1.3874 7.4526 21.0633 -1.3144 21.6298 1.2901 0.0802 -1.8271 -5.0280 0.0000 0.0000 0.0000 20.1538 -5.0906 3.0426 -1.2393 -7.0591 19.8906 0.8052 -16.2595 -1.3281 -0.5044 4.5528 -12.6373 -0.1001 0.1527 2.2691 -0.0052 0.1970 -3.9571 0.0372 0.1008 -5.3633 -1.0867 2.2351 -10.9192 -0.7801 3.3000 11.2455 0.1836 1.5138 5.1706 -0.0000 -0.0000 0.0000 -87.2088 10.0846 35.0654 29.9287 -40.8322 -11.3630 -0.0000 0.0000 -24.2955 20.7916 13.9729 5.2384 -7.1250 0.0000 -0.0000 -6.1736 44.7948 0.0314 -0.0000 -0.0000 0.0000 91.1765 -3.9333 49.7373 -43.3260 49.9215 -20.9499 0.0000 -0.0000 -19.0682 -32.7880 26.2401 -15.8972 7.1250 -0.0000 -0.0000 -1.7038 0.3934 -1.7162
10.1712 25.9793 2.1333 -1.8054 -5.1489 0.8361 0.0000 0.0000 0.0000 -21.6133 7.3643 -0.4144 1.7423 8.3074 23.6516 -1.0444 19.2814 0.9304 0.2910 -3.4689 -9.5870 0.0000 0.0000 0.0000 22.3351 -5.4944 2.0977 -1.2390 -7.0583 19.8882 0.8363 -16.8654 -0.3657 -0.5443 4.7265 -13.1301 1.9167 0.0263 4.8378 0.3231 0.2042 -3.8103 -0.7596 0.0184 -6.6833 -1.2035 2.1080 -11.0016 -0.6933 3.1171 10.0668 0.2073 1.4372 4.8154 -0.0000 0.0000 0.0000 -89.8426 12.6715 28.7249 25.3833 -36.5932 -8.5173 -0.0000 0.0000 -23.6859 23.2666 13.9674 5.9252 -7.1250 0.0000 -0.0000 -3.8935 45.0933 -0.0090 -0.0000 0.0000 0.0000 92.3962 -7.5301 44.2351 -37.7616 46.6864 -16.7919 0.0000 -0.0000 -21.0969 -34.7019 24.1407 -15.8127 7.1250 -0.0000 -0.0000 -3.2327 -1.4231 -3.1565
10.2508 26.0346 2.0881 -1.9550 -5.5868 0.7812 0.0000 0.0000 0.0000 -21.4656 6.3458 -1.7911 1.9996 8.8653 25.3750 -0.9083 17.9907 0.7814 0.1536 -2.5257 -6.9610 0.0000 0.0000 0.0000 22.6267 -4.0932 0.2832 -1.4188 -7.5329 21.3040 0.8389 -16.6929 -0.9835 -0.4038 4.0794 -11.3002 2.1971 0.2198 6.5936 0.4332 0.5347 -3.3428 -0.8478 0.1686 -7.1916 -1.5575 2.1737 -11.9852 -1.1760 3.3227 9.1892 0.1351 1.4986 4.7094 0.0000 -0.0000 0.0000 -89.8786 13.3139 25.8318 20.7003 -31.4768 -5.8927 -0.0000 0.0000 -23.1936 23.3954 15.1729 6.4605 -7.1250 0.0000 -0.0000 -3.9921 46.4022 -0.1384 0.0000 -0.0000 0.0000 91.7050 -9.2043 39.9906 -31.6851 42.2947 -12.5284 0.0000 -0.0000 -23.3194 -35.2693 20.9037 -14.1624 7.1250 -0.0000 -0.0000 -4.1629 -4.9658 -3.7972
10.3324 25.8938 2.0747 -1.5869 -5.5690 1.1360 0.0000 0.0000 0.0000 -21.8308 4.8185 -3.0435 2.0240 8.9160 25.5328 -0.8000 18.0196 3.0005 0.0716 -1.7265 -4.7504 0.0000 0.0000 0.0000 22.2394 -2.5184 -1.9144 -1.6086 -7.9981 22.7084 0.8432 -16.4889 -1.8902 -0.2037 2.9064 -8.0182 2.1534 0.1692 7.5710 0.2230 0.4699 -2.9955 -1.0413 0.1336 -7.3868 -1.7109 2.0733 -12.9110 -1.4189 3.2506 8.6452 0.0858 1.4438 4.6952 0.0000 -0.0000 0.0000 -87.4769 16.0993 25.9259 20.0112 -30.6558 -5.5370 -0.0000 0.0000 -23.8886 19.8082 15.0453 5.3415 -7.1250 0.0000 -0.0000 -7.3091 45.7956 -0.1443 0.0000 -0.0000 0.0000 89.8400 -12.2696 38.6324 -29.1873 40.1865 -10.8813 0.0000 -0.0000 -23.2669 -36.9568 20.1774 -14.5482 7.1250 -0.0000 -0.0000 -5.3347 -5.3741 -4.8331
10.4064 25.5454 2.0738 -2.0221 -5.3501 1.5456 0.0000 0.0000 0.0000 -21.1079 2.9572 -4.2681 1.9799 8.8241 25.2465 -0.6311 17.0830 4.3361 0.1691 -2.6489 -7.3026 0.0000 0.0000 0.0000 22.5896 -1.5266 -3.7773 -1.6324 -8.0544 22.8794 0.6532 -14.5608 -1.6884 -0.2813 3.4111 -9.4256 2.8945 0.0192 8.7866 0.1384 0.3771 -2.6105 -1.5408 0.0501 -7.6787 -1.3451 1.9790 -13.8772 -1.5946 3.0883 8.2369 -0.0324 1.3642 4.7346 -0.0000 -0.0000 0.0000 -83.8354 20.3546 27.7066 22.9163 -33.9971 -7.0914 -0.0000 0.0000 -22.0644 21.6277 13.9418 5.4568 -7.1250 0.0000 -0.0000 -5.4000 44.8633 0.0183 -0.0000 -0.0000 0.0000 86.6671 -17.5863 40.1954 -31.9900 42.5392 -12.7341 0.0000 -0.0000 -22.3059 -36.2118 19.7430 -13.8927 7.1250 -0.0000 -0.0000 -4.9501 -6.0747 -4.4154
10.4447 25.0276 2.0703 -1.8771 -5.6422 2.9371 0.0000 0.0000 0.0000 -20.6133 1.5838 -6.8737 1.8525 8.5518 24.4031 -0.5591 16.7589 5.0197 0.4301 -4.2089 -11.6650 0.0000 0.0000 0.0000 22.4634 1.0970 -6.5524 -1.6641 -8.1282 23.1040 0.5276 -13.8981 0.8075 -0.5418 4.7160 -13.1003 2.1129 0.0367 9.1798 0.2358 0.3259 -2.6109 -0.9922 0.0623 -7.9109 -1.1294 2.0794 -13.6728 -2.0347 3.1896 6.7914 -0.2069 1.4139 4.2648 -0.0000 0.0000 0.0000 -78.8865 25.4008 30.4756 28.2900 -39.3819 -10.3072 -0.0000 0.0000 -23.1012 24.4334 13.8438 6.2042 -7.1250 0.0000 -0.0000 -2.7921 45.1071 -0.0074 -0.0000 0.0000 0.0000 82.0182 -22.9852 43.5459 -37.3884 46.4442 -16.5209 0.0000 -0.0000 -23.1056 -34.9096 19.6346 -13.1971 7.1250 -0.0000 -0.0000 -4.1554 -6.5202 -3.6665
10.4830 24.3282 2.0706 -1.8476 -4.8989 3.8630 0.0000 0.0000 0.0000 -19.7583 0.0757 -8.5580 1.6138 8.0104 22.7458 -0.6587 19.0087 6.5570 0.3896 -4.0081 -11.0993 0.0000 0.0000 0.0000 22.1467 2.3760 -8.5463 -1.5123 -7.7664 22.0068 0.3637 -13.7802 4.3398 -0.5673 4.8239 -13.4069 1.6531 -0.1711 9.7779 0.3088 0.0063 -2.3166 -0.6059 -0.0678 -7.9497 -1.0939 2.0733 -14.4729 -1.8177 3.1535 6.2694 -0.1437 1.4119 4.2278 0.0000 -0.0000 0.0000 -72.6337 30.1902 33.3814 35.5569 -45.2057 -15.2072 -0.0000 0.0000 -24.0500 25.1727 14.8174 6.8537 -7.1250 0.0000 -0.0000 -2.2567 46.2607 -0.0703 0.0000 -0.0000 0.0000 76.9857 -28.5109 46.8518 -44.7758 50.6582 -22.0653 0.0000 -0.0000 -25.3013 -34.3691 19.2399 -12.7005 7.1250 -0.0000 -0.0000 -3.8802 -7.1030 -3.3786
10.5152 23.4083 2.0742 -2.2841 -4.2512 4.0733 0.0000 0.0000 0.0000 -18.3324 -0.9075 -9.5365 1.4543 7.6226 21.5735 -0.8879 21.5125 7.0076 0.0621 -1.6080 -4.4236 0.0000 0.0000 0.0000 22.2803 4.0788 -8.5495 -1.1418 -6.7856 19.0818 0.0481 -13.6343 8.9695 -0.5432 4.7221 -13.1176 1.7541 -0.3147 10.6600 0.4162 -0.1499 -1.8899 -0.5222 -0.1438 -8.0035 -0.8230 1.7846 -14.8590 -2.0255 2.7335 5.8799 -0.2824 1.2016 4.1742 0.0000 0.0000 0.0000 -63.7141 34.7400 39.5359 44.7892 -50.6648 -22.0756 -0.0000 0.0000 -23.7371 25.9531 14.6136 7.0008 -7.1250 0.0000 -0.0000 -1.4892 46.1454 -0.0421 0.0000 0.0000 0.0000 72.6190 -34.9475 49.0040 -54.0426 54.5013 -29.4350 0.0000 -0.0000 -25.7130 -33.7402 18.7393 -12.1109 7.1250 -0.0000 -0.0000 -3.5612 -7.8216 -3.0494
10.5543 22.2880 2.0742 -1.8468 -3.2871 3.5132 0.0000 0.0000 0.0000 -18.1129 -1.7866 -9.5469 1.2977 7.2173 20.3609 -0.7555 22.6207 9.7027 0.0741 -1.7561 -4.8319 0.0000 0.0000 0.0000 21.5890 5.3976 -8.4878 -1.0394 -6.4841 18.1956 -0.4315 -12.4629 13.6565 -0.6266 5.0652 -14.0946 0.9537 -0.4805 11.9521 0.3371 -0.4744 -1.1507 -0.0926 -0.2639 -7.9499 -0.5338 1.6610 -14.7146 -1.9981 2.4917 5.1190 -0.3437 1.1010 3.9177 0.0000 -0.0000 0.0000 -55.1177 37.5559 44.9338 55.6435 -55.0327 -30.7427 -0.0000 0.0000 -25.2914 26.3100 14.5620 7.0865 -7.1250 0.0000 -0.0000 -1.1449 46.1378 -0.0322 0.0000 -0.0000 0.0000 68.3099 -40.5935 51.2373 -64.0284 57.2912 -37.7125 0.0000 -0.0000 -27.3965 -33.6722 18.8873 -12.1700 7.1250 -0.0000 -0.0000 -3.4951 -7.6665 -3.0033
10.5782 20.9429 2.0277 -2.0528 -1.8242 2.9180 0.0000 0.0000 0.0000 -17.3801 -2.2007 -12.2597 1.9305 8.7197 24.9225 -0.2393 21.3943 13.1454 0.0166 -0.8312 -2.2845 0.0000 0.0000 0.0000 21.9807 7.0762 -9.8521 -1.4687 -7.6586 21.6820 -0.6079 -14.1225 15.9524 -0.3113 3.5868 -9.9171 1.0570 -0.7611 12.9962 0.1779 -0.8401 0.3180 -0.2514 -0.4417 -6.9763 -0.5748 1.3018 -15.6652 -1.0336 1.9221 3.3908 -0.0854 0.8841 3.9381 -0.0000 0.0000 0.0000 -49.3660 36.7950 47.2243 63.0116 -57.0605 -36.8580 -0.0000 0.0000 -25.5563 26.2743 13.1637 6.4146 -7.1250 0.0000 -0.0000 -0.9894 44.5961 0.0099 -0.0000 0.0000 0.0000 66.4714 -43.4817 52.2393 -71.3239 58.6402 -43.8999 0.0000 -0.0000 -31.9759 -33.0589 17.1835 -10.8844 7.1250 -0.0000 -0.0000 -3.3550 -9.7551 -2.7428
10.6085 19.3893 1.8460 -1.1853 -0.4916 2.2546 0.0000 0.0000 0.0000 -18.0916 -4.4539 -16.2768 3.5324 11.5108 34.0225 0.4088 16.1050 15.1435 0.1060 -2.0996 -5.7809 0.0000 0.0000 0.0000 21.2737 9.3814 -14.3402 -3.0498 -10.7752 31.5255 -0.7566 -12.1383 16.5496 -0.4163 4.1416 -11.4755 -0.1239 -0.8870 15.9404 -0.0249 -1.1960 1.3898 0.3072 -0.5756 -7.4568 -0.7593 1.0021 -15.6526 -0.6844 1.5055 0.8629 0.0210 0.7100 3.0309 0.0000 0.0000 0.0000 -46.0679 32.8151 49.1660 65.1508 -57.5332 -38.6582 -0.0000 0.0000 -25.9381 24.8793 13.2626 6.0728 -7.1250 0.0000 -0.0000 -2.2920 44.5317 0.0265 0.0000 0.0000 0.0000 66.2738 -44.1789 52.4270 -73.3604 58.9275 -45.6415 0.0000 -0.0000 -36.2983 -31.3676 16.0760 -9.5820 7.1250 -0.0000 -0.0000 -2.3998 -11.3424 -1.8827
10.6430 17.6968 1.6467 -1.3480 0.8460 1.4233 0.0000 0.0000 0.0000 -18.0409 -5.2431 -20.3704 6.6301 15.0123 47.4610 0.1251 2.5058 -8.0938 1.8345 -8.5125 -24.2818 0.0000 0.0000 0.0000 21.7912 11.2535 -18.7347 -6.3213 -14.7327 46.2581 -0.0557 -1.6737 -5.4073 -1.2817 7.1745 -20.2333 0.1446 -1.0043 19.1375 -0.0061 -1.2878 2.5521 0.2398 -0.6227 -7.9592 -1.0142 0.5395 -13.8540 -0.2496 0.8666 -3.6929 0.1374 0.4362 1.1571 -0.0000 0.0000 0.0000 -44.6957 24.7192 51.9787 61.2174 -56.6257 -35.3559 -0.0000 0.0000 -25.1938 22.8489 14.1600 5.8852 -7.1250 0.0000 -0.0000 -4.3142 45.2469 -0.0263 -0.0000 0.0000 0.0000 67.7251 -42.2582 52.1569 -70.7929 58.5591 -43.4466 0.0000 -0.0000 -39.7409 -30.0766 13.6255 -7.7689 7.1250 -0.0000 -0.0000 -1.8198 -14.3372 -1.3132
10.6651 16.3696 1.4964 0.3192 2.3642 4.8913 0.0000 0.0000 0.0000 -19.5612 -7.6780 -26.1525 8.7944 16.6736 55.3765 2.6504 -3.3476 -30.0016 0.4772 -4.4304 -12.2907 0.0000 0.0000 0.0000 19.2916 13.3554 -25.2047 -9.2136 -16.9432 56.8260 -2.7243 3.3654 -30.4309 -0.3099 3.5786 -9.8942 -1.4994 -1.1825 19.1927 -0.4649 -1.9034 2.2232 0.8426 -0.8683 -8.3095 0.0095 0.7717 -15.1562 -0.4271 1.0164 -5.9043 -0.0848 0.4994 0.6572 -0.0000 -0.0000 0.0000 -46.6131 13.4792 53.7506 49.6910 -52.8701 -25.9276 -0.0000 0.0000 -22.3885 24.2949 14.6438 6.5104 -7.1250 0.0000 -0.0000 -3.0526 45.9542 -0.0720 -0.0000 -0.0000 0.0000 70.2810 -35.4784 52.9139 -58.9223 56.0158 -33.4459 0.0000 -0.0000 -39.3432 -31.1109 13.5861 -8.0688 7.1250 -0.0000 -0.0000 -2.5237 -14.2279 -1.8278
10.6806 15.3293 1.1816 0.7145 5.3413 9.2389 0.0000 0.0000 0.0000 -18.1251 -15.2801 -40.5652 14.1982 19.1731 72.8090 2.9589 -1.1247 -32.3068 0.2365 -3.1301 -8.6413 0.0000 0.0000 0.0000 16.7648 18.6092 -39.0432 -14.6153 -19.2901 74.0750 -3.4413 -2.3130 -35.9835 -0.5222 4.6314 -12.8603 -1.2179 -2.1422 21.4378 -0.3412 -3.1156 2.0163 1.2298 -1.4231 -9.7403 -1.0228 0.2484 -19.2724 1.3932 0.5548 -9.1808 0.6457 0.3353 0.2385 -0.0000 0.0000 0.0000 -52.2160 3.2377 50.1902 39.0594 -47.5027 -17.7426 -0.0000 0.0000 -19.4802 27.1517 15.4850 7.7969 -7.1250 0.0000 -0.0000 -0.4782 47.2734 -0.0268 -0.0000 0.0000 0.0000 74.5697 -25.3944 49.6051 -44.8172 50.6786 -22.0972 0.0000 -0.0000 -34.3807 -31.6335 15.4744 -9.3335 7.1250 -0.0000 -0.0000 -2.6503 -11.9823 -2.0446
10.6771 14.8576 0.8541 1.2328 5.8815 9.5471 0.0000 0.0000 0.0000 -18.2195 -16.7822 -46.3975 17.0836 19.7948 81.4450 2.9387 0.8113 -32.7788 0.2445 -3.1821 -8.7860 0.0000 0.0000 0.0000 15.1483 20.5373 -47.3731 -18.5896 -19.9522 85.8731 -2.7522 -7.1325 -34.4529 -0.6604 5.1974 -14.4725 -1.9218 -2.2666 26.8754 -0.4237 -3.4917 3.9232 1.8444 -1.5449 -10.4360 -0.0564 0.0128 -18.7648 -0.1120 -0.0065 -18.5190 -0.0274 -0.0005 -2.9812 -0.0000 -0.0000 0.0000 -57.1245 -4.4097 44.6962 35.3326 -45.0482 -15.0483 -0.0000 0.0000 -16.5787 30.8580 13.8204 8.1229 -7.1250 0.0000 -0.0000 3.2478 45.9450 0.0758 -0.0000 -0.0000 0.0000 78.7717 -16.2470 44.8653 -38.0701 46.8840 -17.0168 0.0000 -0.0000 -34.6558 -37.3208 14.8883 -11.0828 7.1250 -0.0000 -0.0000 -6.4711 -11.5848 -5.0730
10.7354 14.3840 0.6716 3.6440 5.2406 11.3801 0.0000 0.0000 0.0000 -19.6457 -19.5112 -50.6519 18.5801 19.9516 85.8451 3.2615 1.0074 -34.5969 0.1555 -2.5405 -7.0020 0.0000 0.0000 0.0000 9.7239 22.5740 -53.2065 -20.8108 -19.9842 92.3712 -3.0570 -6.2269 -35.6282 -0.6473 5.1466 -14.3271 -3.1338 -1.8190 29.3665 -1.3592 -3.4267 4.5629 1.5480 -1.4652 -10.9691 -1.0618 -0.6998 -18.6545 -0.0453 -0.8078 -22.1496 0.1504 -0.3137 -4.3706 -0.0000 0.0000 0.0000 -60.7491 -11.2204 44.0903 34.1544 -44.1988 -14.2206 -0.0000 0.0000 -13.5356 30.3685 12.4823 7.2179 -7.1250 0.0000 -0.0000 2.8776 44.3509 -0.0461 -0.0000 0.0000 0.0000 80.8534 -11.7382 44.2675 -38.1602 46.9413 -17.0826 0.0000 -0.0000 -36.1526 -39.1843 17.0358 -13.4310 7.1250 -0.0000 -0.0000 -7.2978 -8.5521 -6.1831
10.8013 14.0497 0.5638 3.7338 6.3274 13.9507 0.0000 0.0000 0.0000 -18.3200 -21.4583 -56.7958 20.1801 19.9992 90.5266 3.2923 -0.0957 -34.4148 0.1010 -2.0493 -5.6418 0.0000 0.0000 0.0000 7.9040 21.4721 -57.5544 -21.6332 -19.9359 94.7800 -3.8406 -3.4166 -38.3744 -0.1578 2.5593 -7.0541 -2.1201 -2.4100 30.2574 -1.1163 -3.8626 4.2634 1.4521 -1.6702 -11.7990 -2.0426 -0.8006 -19.0422 0.0275 -0.7639 -21.7558 0.3405 -0.2172 -4.1548 0.0000 0.0000 0.0000 -66.0671 -13.4754 43.1989 36.6121 -45.9296 -15.9607 -0.0000 0.0000 -13.9422 30.3618 11.6837 6.7654 -7.1250 0.0000 -0.0000 2.9190 43.4383 -0.1126 0.0000 0.0000 0.0000 80.4011 -8.7492 46.4577 -39.0098 47.4722 -17.7060 0.0000 -0.0000 -30.7843 -34.9080 19.2331 -12.9457 7.1250 -0.0000 -0.0000 -4.2207 -6.9855 -3.6863
10.8471 13.9799 0.4436 4.1245 5.6037 15.6109 0.0000 0.0000 0.0000 -18.1099 -21.3813 -60.3503 20.6383 19.9902 91.8666 2.9573 0.9431 -32.9262 0.2565 -3.2583 -8.9987 0.0000 0.0000 0.0000 6.2167 21.3839 -61.6435 -22.0757 -19.8964 96.0790 -3.5465 -3.5248 -36.9691 -0.1292 2.3169 -6.3824 -2.3914 -2.0666 31.6307 -1.2408 -3.5557 4.1867 1.3118 -1.5159 -11.6952 -2.3209 -1.3959 -16.7312 1.0651 -1.4700 -25.5418 0.7284 -0.5597 -5.1919 -0.0000 -0.0000 0.0000 -70.2292 -14.6289 42.9630 38.4232 -47.1075 -17.2750 -0.0000 0.0000 -15.6705 33.0869 12.9233 8.2909 -7.1250 0.0000 -0.0000 5.4115 45.2265 0.0303 -0.0000 -0.0000 0.0000 81.8685 -6.9850 44.9273 -41.0790 48.6963 -19.2460 0.0000 -0.0000 -30.2502 -35.4080 18.9042 -12.9698 7.1250 -0.0000 -0.0000 -4.5897 -7.2498 -3.9870
10.8905 14.0120 0.3571 4.1942 4.8868 16.7916 0.0000 0.0000 0.0000 -17.7269 -21.6940 -61.8579 20.4401 19.9954 91.2869 2.8289 0.8743 -32.1820 0.2060 -2.9220 -8.0617 0.0000 0.0000 0.0000 4.3696 22.0684 -64.4565 -22.2799 -19.8749 96.6794 -3.0985 -3.2580 -34.5446 -0.1373 2.3879 -6.5789 -2.4520 -1.8308 32.5504 -1.2968 -3.2962 4.4713 1.2037 -1.3921 -11.7613 -1.3237 -0.9846 -16.1053 -0.2861 -1.2775 -25.9660 0.1286 -0.4885 -5.4374 -0.0000 -0.0000 0.0000 -74.4247 -14.9618 41.4650 37.0240 -46.2045 -16.2573 -0.0000 0.0000 -14.2136 33.1135 14.2250 9.1055 -7.1250 0.0000 -0.0000 5.3920 46.7469 0.2331 -0.0000 -0.0000 0.0000 84.1606 -4.8279 42.3420 -40.0798 48.1171 -18.4987 0.0000 -0.0000 -32.8571 -39.3750 19.7173 -15.4764 7.1250 -0.0000 -0.0000 -6.9108 -5.2591 -6.2953
10.9435 14.2182 0.3109 4.2127 4.6188 17.8938 0.0000 0.0000 0.0000 -17.5245 -22.0686 -61.9505 19.5343 19.9948 88.6382 2.7759 0.3301 -31.7013 0.0827 -1.8553 -5.1060 0.0000 0.0000 0.0000 3.1051 22.4395 -64.7801 -21.4785 -19.9475 94.3265 -2.7917 -2.5442 -32.5756 -0.4002 4.0618 -11.2507 -2.3266 -1.9008 32.6147 -1.2843 -3.3326 4.6549 1.1604 -1.4169 -11.5858 -0.8973 -1.1196 -14.9734 -0.4516 -1.5830 -26.4617 0.0112 -0.6719 -5.7629 -0.0000 -0.0000 0.0000 -77.5722 -14.7503 40.5950 32.8849 -43.2414 -13.3432 -0.0000 0.0000 -15.2136 33.3412 14.2530 9.2008 -7.1250 0.0000 -0.0000 5.6118 46.8148 0.2521 -0.0000 -0.0000 0.0000 85.1973 -2.6982 41.2222 -37.0294 46.2081 -16.2613 0.0000 -0.0000 -32.9874 -38.3116 16.0635 -12.3318 7.1250 -0.0000 -0.0000 -6.9152 -9.9443 -5.6596
10.9794 14.5296 0.3064 3.4401 3.9666 18.3297 0.0000 0.0000 0.0000 -16.9459 -21.6254 -60.7915 18.3636 19.9357 85.2105 2.6564 0.0083 -30.9053 0.0324 -1.1611 -3.1922 0.0000 0.0000 0.0000 3.8248 23.1549 -62.9032 -20.0433 -20.0000 90.1266 -2.7704 -2.2874 -32.3558 -0.4608 4.3543 -12.0755 -2.3099 -1.6497 32.6334 -0.7547 -2.9351 4.8757 1.5581 -1.2412 -11.3262 -1.5485 -0.8881 -15.8385 -0.4439 -1.1627 -25.4933 0.1168 -0.4145 -5.3194 -0.0000 -0.0000 0.0000 -79.9013 -13.4308 40.0462 28.8143 -39.8552 -10.6415 -0.0000 0.0000 -16.4112 33.2010 14.0560 9.0308 -7.1250 0.0000 -0.0000 5.4833 46.5637 0.2122 -0.0000 -0.0000 0.0000 85.4987 -1.8311 39.5841 -34.2749 44.2874 -14.3047 0.0000 -0.0000 -30.9759 -36.5402 18.4148 -13.1753 7.1250 -0.0000 -0.0000 -5.3856 -7.5530 -4.6521
11.0045 14.9072 0.3128 2.0397 3.5120 18.8913 0.0000 0.0000 0.0000 -15.6522 -21.1946 -59.5653 16.9251 19.7718 80.9767 2.3236 1.1359 -29.2700 0.0021 -0.2957 -0.8125 0.0000 0.0000 0.0000 5.7713 23.7336 -61.0766 -18.2468 -19.9261 84.8678 -2.2820 -3.9541 -30.1601 -0.3554 3.8300 -10.5990 -1.4279 -1.6665 32.0244 -0.4990 -2.6200 4.8890 1.2242 -1.1358 -11.1010 -1.3593 -0.8742 -16.8390 -0.1382 -1.0893 -24.2989 0.1758 -0.4236 -4.7901 -0.0000 0.0000 0.0000 -80.9893 -11.2095 38.8641 25.7832 -36.9938 -8.7569 -0.0000 0.0000 -17.9371 31.2809 13.4015 8.0154 -7.1250 0.0000 -0.0000 3.6775 45.5253 0.0477 -0.0000 0.0000 0.0000 85.7519 -2.0815 38.7968 -32.5038 42.9451 -13.0828 0.0000 -0.0000 -30.0956 -36.6285 19.5580 -13.9755 7.1250 -0.0000 -0.0000 -5.2422 -6.1859 -4.6668
11.0306 15.3758 0.3335 1.6098 2.8115 19.1368 0.0000 0.0000 0.0000 -15.8415 -20.5956 -56.7786 15.0157 19.3936 75.2841 1.9552 2.2211 -27.2994 0.0095 -0.6289 -1.7283 0.0000 0.0000 0.0000 6.5017 24.0144 -58.7062 -16.4751 -19.6995 79.6442 -1.8222 -4.0098 -27.1969 -0.2225 3.0367 -8.3809 -1.4612 -1.4799 31.8189 -0.4309 -2.4000 4.4492 1.2380 -1.0286 -11.5108 -0.8854 -0.6464 -15.8928 -0.5111 -0.9162 -24.4032 -0.0181 -0.3628 -4.9577 0.0000 -0.0000 0.0000 -81.7506 -7.7372 37.5246 24.4105 -35.5954 -7.9442 -0.0000 0.0000 -18.7908 29.5809 15.8297 8.8018 -7.1250 0.0000 -0.0000 1.8278 48.0285 0.1366 0.0000 -0.0000 0.0000 85.6093 -3.2153 37.9373 -30.6995 41.4854 -11.8703 0.0000 -0.0000 -28.8658 -36.5179 20.5951 -14.5989 7.1250 -0.0000 -0.0000 -4.9882 -5.0010 -4.5520
11.0509 15.8940 0.3874 0.7127 2.1975 19.1304 0.0000 0.0000 0.0000 -15.7420 -19.3388 -53.5586 12.9674 18.7704 69.0242 1.4604 3.6859 -24.4136 0.0396 -1.2841 -3.5308 0.0000 0.0000 0.0000 7.8158 24.1057 -55.1804 -14.1883 -19.1701 72.7787 -1.3878 -3.6858 -23.8495 -0.1166 2.2013 -6.0622 -1.3416 -1.4202 30.7868 -0.2052 -2.2403 4.8732 1.4202 -0.9613 -11.3867 -0.5844 -0.4050 -16.4326 -0.7312 -0.6560 -23.8888 -0.1396 -0.2588 -4.7178 0.0000 0.0000 0.0000 -82.5988 -4.1870 34.7493 23.7310 -34.8785 -7.5522 -0.0000 0.0000 -16.3682 29.5654 14.7939 8.2420 -7.1250 0.0000 -0.0000 1.9262 46.8606 0.0885 0.0000 0.0000 0.0000 85.3642 -3.9924 36.3392 -29.0825 40.0938 -10.8138 0.0000 -0.0000 -26.8664 -37.4256 22.0138 -16.0053 7.1250 -0.0000 -0.0000 -5.2769 -3.0978 -5.0056
11.0553 16.3971 0.4416 0.5018 1.6963 19.2089 0.0000 0.0000 0.0000 -16.3797 -17.8588 -50.3315 10.9379 17.9046 62.5797 1.0627 3.8096 -21.1968 0.0118 -0.7007 -1.9256 0.0000 0.0000 0.0000 8.8273 23.3896 -51.0545 -11.7645 -18.2893 65.2405 -1.1259 -2.8869 -21.2761 -0.0379 1.2570 -3.4562 -1.4302 -1.2274 29.7210 -0.2423 -2.0233 4.6387 1.3208 -0.8673 -11.1301 -0.8487 -0.4727 -18.2649 -0.2008 -0.5896 -21.4728 0.0659 -0.2366 -4.1669 -0.0000 0.0000 0.0000 -83.0203 -0.7920 33.1493 23.2238 -34.3326 -7.2641 -0.0000 0.0000 -15.8274 30.1486 14.7184 8.3944 -7.1250 0.0000 -0.0000 2.4945 46.8623 0.1147 -0.0000 0.0000 0.0000 85.2367 -5.6567 34.1151 -27.9430 39.0637 -10.0877 0.0000 -0.0000 -26.7916 -37.0197 21.5720 -15.4964 7.1250 -0.0000 -0.0000 -5.1150 -3.7267 -4.7912
11.0336 16.9082 0.5028 -0.2068 1.8575 18.6047 0.0000 0.0000 0.0000 -16.7503 -15.7146 -46.4609 8.9392 16.7685 55.8797 0.6685 4.2883 -17.5942 0.0049 0.4527 1.2440 0.0000 0.0000 0.0000 11.2416 21.9703 -46.0273 -9.3419 -17.0228 57.2653 -0.7098 -3.7716 -17.7238 -0.0139 0.7617 -2.0932 -0.9599 -1.2363 28.8862 -0.1104 -1.8705 4.4653 1.1235 -0.8180 -10.9235 -0.3697 -0.2168 -17.7778 -0.3961 -0.3346 -21.1020 -0.0769 -0.1390 -4.1001 0.0000 -0.0000 0.0000 -83.3379 1.6713 30.1038 22.3761 -33.3995 -6.7917 -0.0000 0.0000 -15.9629 27.9460 14.2428 7.4362 -7.1250 0.0000 -0.0000 0.4431 46.0108 0.0111 0.0000 -0.0000 0.0000 85.1596 -7.0302 31.8173 -26.3419 37.5444 -9.0952 0.0000 -0.0000 -26.7458 -35.8967 20.5037 -14.2259 7.1250 -0.0000 -0.0000 -4.6209 -5.2687 -4.1910
10.9999 17.3454 0.5527 -0.9144 1.7061 18.0686 0.0000 0.0000 0.0000 -16.7485 -13.7493 -42.7322 7.1641 15.4685 49.4921 0.3690 4.6090 -14.1040 0.0002 -0.0960 -0.2639 0.0000 0.0000 0.0000 13.3907 21.2239 -41.4389 -7.2490 -15.5380 49.8098 -0.4011 -5.0225 -14.8680 -0.0047 0.4449 -1.2224 -0.7850 -1.0248 27.8211 0.1293 -1.5178 4.2513 1.1438 -0.6640 -10.6308 -0.2217 -0.3991 -18.3272 -0.4832 -0.6034 -19.8132 -0.1376 -0.2877 -3.5255 0.0000 0.0000 0.0000 -83.9690 4.2404 26.3562 22.2274 -33.2330 -6.7100 -0.0000 0.0000 -16.9692 26.5074 14.3833 7.0625 -7.1250 0.0000 -0.0000 -0.9334 45.9685 -0.0223 0.0000 0.0000 0.0000 84.7358 -8.4802 30.3433 -25.2765 36.4853 -8.4538 0.0000 -0.0000 -26.2216 -35.8580 20.1209 -13.9624 7.1250 -0.0000 -0.0000 -4.6641 -5.7233 -4.1900
10.9647 17.7383 0.6217 -0.9434 1.9636 17.7661 0.0000 0.0000 0.0000 -17.3699 -12.6167 -38.6433 5.3728 13.7917 42.4096 0.0953 5.8033 -10.5764 0.0101 -0.6496 -1.7853 0.0000 0.0000 0.0000 14.8494 19.2168 -37.6975 -5.5625 -13.9906 43.1997 -0.1027 -6.2533 -11.2387 -0.0018 0.2721 -0.7475 -0.8742 -1.0320 26.3004 0.2239 -1.5368 3.8404 1.2801 -0.6723 -10.3083 -0.5102 -0.3854 -18.2807 -0.1027 -0.4830 -18.6805 0.0395 -0.2155 -3.1119 -0.0000 0.0000 0.0000 -84.7004 6.2564 21.6554 22.1951 -33.1968 -6.6923 -0.0000 0.0000 -18.2219 26.4331 14.5593 7.1232 -7.1250 0.0000 -0.0000 -1.0283 46.1517 -0.0292 -0.0000 0.0000 0.0000 84.2330 -9.9779 29.1182 -24.3993 35.5837 -7.9377 0.0000 -0.0000 -25.8031 -35.6601 19.7718 -13.6429 7.1250 -0.0000 -0.0000 -4.6013 -6.1787 -4.0929
10.9377 18.0577 0.6905 -0.7585 2.2157 16.9556 0.0000 0.0000 0.0000 -18.2992 -11.2328 -34.4482 4.0256 12.1944 36.4230 -0.0691 6.6198 -7.4216 0.0153 -0.7980 -2.1931 0.0000 0.0000 0.0000 15.6120 17.7029 -33.5877 -4.2162 -12.4427 37.3166 0.0498 -6.8484 -8.4439 -0.0017 -0.2698 0.7413 -0.7701 -1.0250 25.1352 0.1470 -1.5057 3.4447 1.1036 -0.6657 -10.1525 -0.5737 -0.4081 -18.4375 -0.0731 -0.4827 -16.9986 0.0567 -0.2132 -2.4870 0.0000 -0.0000 0.0000 -84.6257 8.4586 19.0744 21.9006 -32.8645 -6.5318 -0.0000 0.0000 -19.0562 27.9722 13.3029 6.9671 -7.1250 0.0000 -0.0000 0.5730 44.9666 -0.0005 0.0000 -0.0000 0.0000 84.2460 -11.3622 27.3593 -23.4600 34.5880 -7.3978 0.0000 -0.0000 -24.7837 -35.3808 19.6949 -13.4596 7.1250 -0.0000 -0.0000 -4.4401 -6.3366 -3.9351
10.9069 18.2859 0.7631 -0.7755 2.2239 15.7326 0.0000 0.0000 0.0000 -18.8686 -9.8862 -30.2472 3.0004 10.6957 31.2605 -0.1547 7.3240 -5.1277 0.0863 -1.8948 -5.2150 0.0000 0.0000 0.0000 16.5829 16.3101 -29.4153 -3.2291 -11.0570 32.4723 0.1264 -6.9668 -5.7385 -0.0039 0.4032 -1.1077 -0.8449 -1.0277 23.9806 0.1697 -1.5254 2.9853 1.1592 -0.6735 -10.0558 -1.3020 -0.4872 -16.3443 0.7384 -0.4188 -16.8577 0.4479 -0.1493 -2.7517 0.0000 -0.0000 0.0000 -84.3348 10.8161 16.9342 21.4457 -32.3449 -6.2867 -0.0000 0.0000 -18.0628 28.7054 13.3597 7.2114 -7.1250 0.0000 -0.0000 1.2532 45.1267 0.0039 0.0000 -0.0000 0.0000 83.7682 -12.9899 26.8539 -23.1228 34.2229 -7.2073 0.0000 -0.0000 -24.6930 -34.8640 19.7404 -13.2413 7.1250 -0.0000 -0.0000 -4.1092 -6.4088 -3.6344
10.8672 18.4220 0.8093 -0.9347 3.2249 13.6759 0.0000 0.0000 0.0000 -19.0789 -9.1287 -25.9354 2.3548 9.5690 27.5921 -0.1936 7.7931 -3.4124 0.1197 -2.2309 -6.1441 0.0000 0.0000 0.0000 18.1404 14.4006 -24.8045 -2.5119 -9.8595 28.5229 0.1883 -7.8440 -4.6305 -0.0333 1.1776 -3.2377 -0.2655 -1.2816 22.9415 0.3083 -1.6890 3.2447 1.0006 -0.7788 -9.2210 -1.6662 -0.6715 -16.4476 1.3379 -0.5564 -15.3190 0.6900 -0.2072 -2.1989 -0.0000 0.0000 0.0000 -83.3955 11.1471 15.9469 20.5130 -31.2554 -5.7952 -0.0000 0.0000 -17.1420 27.6319 14.3460 7.3906 -7.1250 0.0000 -0.0000 0.1334 46.0819 0.0036 -0.0000 0.0000 0.0000 83.7265 -13.2805 25.7119 -22.5801 33.6264 -6.9043 0.0000 -0.0000 -23.8010 -35.1219 18.7279 -12.7261 7.1250 -0.0000 -0.0000 -4.4382 -7.5221 -3.8308
10.8251 18.4705 0.8423 -0.8459 3.2393 11.8417 0.0000 0.0000 0.0000 -19.5009 -8.7860 -22.5597 2.0302 8.9287 25.5726 -0.2867 9.4471 -3.8062 0.0161 -0.8199 -2.2534 0.0000 0.0000 0.0000 18.9254 13.8086 -20.8514 -1.9913 -8.8480 25.3210 0.2646 -9.1113 -4.2018 -0.0281 1.0814 -2.9727 -0.3229 -1.2217 21.9138 0.2251 -1.6365 3.0689 0.9038 -0.7583 -8.8690 -0.3482 -0.3111 -17.3977 0.0995 -0.3597 -12.4914 0.0739 -0.1678 -1.1247 0.0000 -0.0000 0.0000 -82.2828 11.9306 14.9899 19.7821 -30.3789 -5.4207 -0.0000 0.0000 -16.8865 26.9475 13.6100 6.8216 -7.1250 0.0000 -0.0000 -0.4191 45.1743 -0.0018 0.0000 -0.0000 0.0000 83.4481 -13.8708 25.6410 -22.6838 33.7412 -6.9618 0.0000 -0.0000 -24.3992 -34.7711 19.3091 -12.9294 7.1250 -0.0000 -0.0000 -4.1221 -6.9296 -3.6043
10.7878 18.4720 0.8674 -0.9574 3.6252 9.9666 0.0000 0.0000 0.0000 -19.7990 -7.9668 -19.9702 1.8683 8.5861 24.5090 -0.3037 9.7186 -3.3171 0.0274 -1.0685 -2.9373 0.0000 0.0000 0.0000 19.9900 12.6469 -17.5875 -1.6333 -8.0565 22.8858 0.3210 -10.0234 -4.6338 -0.0261 1.0433 -2.8679 -0.0381 -1.1833 20.8153 0.4453 -1.5041 2.9756 0.9188 -0.7061 -8.3855 -0.8154 -0.5351 -17.1317 0.1889 -0.5714 -11.0875 0.1682 -0.2566 -0.7087 0.0000 0.0000 0.0000 -81.5975 11.7630 14.1505 18.9936 -29.4108 -5.0277 -0.0000 0.0000 -15.8902 25.6161 13.7242 6.4896 -7.1250 0.0000 -0.0000 -1.6753 45.1276 -0.0053 0.0000 0.0000 0.0000 83.1580 -13.4977 24.8214 -22.0460 33.0289 -6.6109 0.0000 -0.0000 -23.4244 -33.7863 18.4876 -11.9788 7.1250 -0.0000 -0.0000 -3.6291 -8.1012 -3.0879
10.7355 18.4388 0.8559 -0.4990 3.8798 8.2153 0.0000 0.0000 0.0000 -20.5490 -7.2521 -17.3508 1.6642 8.1286 23.1053 -0.3214 9.9906 -3.7420 0.0000 -0.0091 -0.0249 0.0000 0.0000 0.0000 20.3343 11.1438 -15.5377 -1.5617 -7.8863 22.3693 0.3144 -9.9778 -5.1367 -0.0231 0.9809 -2.6963 -0.3812 -1.0111 19.9930 0.3935 -1.3620 2.6838 1.0056 -0.6303 -8.2566 -0.6659 -0.5150 -16.7653 -0.1855 -0.5784 -9.6332 0.0259 -0.2706 -0.2976 0.0000 0.0000 0.0000 -80.7032 11.4386 13.8156 18.7341 -29.0869 -4.9009 -0.0000 0.0000 -15.2446 24.8354 14.8341 6.7575 -7.1250 0.0000 -0.0000 -2.5772 46.2329 -0.0785 0.0000 0.0000 0.0000 83.2119 -13.4112 24.3804 -22.1268 33.1200 -6.6550 0.0000 -0.0000 -22.9790 -32.3658 17.8791 -11.0109 7.1250 -0.0000 -0.0000 -2.8092 -9.0972 -2.3326
10.6994 18.4090 0.8343 -0.2817 3.8523 6.3933 0.0000 0.0000 0.0000 -21.0055 -6.5179 -15.2627 1.6431 8.0795 22.9557 -0.3102 9.8919 -4.9370 0.0004 0.1247 0.3425 0.0000 0.0000 0.0000 20.6314 9.9638 -12.9002 -1.3835 -7.4425 21.0330 0.2667 -9.3128 -5.4771 -0.0019 0.2818 -0.7744 -0.3068 -0.9041 19.0127 0.2263 -1.2228 2.4819 0.7289 -0.5716 -7.9530 -1.0093 -0.5052 -16.5491 0.6131 -0.4841 -7.9915 0.3360 -0.2051 0.2058 -0.0000 -0.0000 0.0000 -79.3931 10.7473 14.7080 18.4648 -28.7482 -4.7707 -0.0000 0.0000 -16.4203 26.2484 13.5721 6.6008 -7.1250 0.0000 -0.0000 -1.0660 45.0420 -0.0011 -0.0000 -0.0000 0.0000 83.3560 -12.3999 24.7641 -21.8163 32.7688 -6.4861 0.0000 -0.0000 -22.8826 -32.2462 18.1606 -11.1240 7.1250 -0.0000 -0.0000 -2.6927 -8.8005 -2.2515
10.6572 18.3461 0.7787 0.2565 3.6481 4.6509 0.0000 0.0000 0.0000 -21.7478 -6.4757 -13.1469 1.6031 7.9853 22.6694 -0.3347 10.3992 -6.0354 0.0131 -0.7391 -2.0311 0.0000 0.0000 0.0000 20.5276 8.9129 -10.3286 -1.1797 -6.8936 19.4004 0.2202 -8.7015 -6.0247 -0.0001 0.0510 -0.1401 -0.6965 -0.8224 18.1816 0.0530 -1.2092 2.1506 0.7493 -0.5572 -7.8555 -1.3580 -0.4890 -15.8727 1.0240 -0.4137 -6.2286 0.5295 -0.1584 0.6764 0.0000 -0.0000 0.0000 -78.7645 9.9983 14.9920 18.5336 -28.8351 -4.8038 -0.0000 0.0000 -16.9710 26.7163 13.2001 6.5563 -7.1250 0.0000 -0.0000 -0.5843 44.6916 0.0044 0.0000 -0.0000 0.0000 83.1624 -11.1849 25.9697 -21.6492 32.5782 -6.3959 0.0000 -0.0000 -22.7428 -31.6789 17.0694 -10.2671 7.1250 -0.0000 -0.0000 -2.4754 -10.1543 -2.0021
10.6243 18.2914 0.7170 -0.5888 4.3876 2.9005 0.0000 0.0000 0.0000 -21.0199 -6.6692 -10.1115 1.3813 7.4368 21.0161 -0.3389 10.6867 -7.1485 0.0070 0.5410 1.4867 0.0000 0.0000 0.0000 21.8448 7.6412 -8.4114 -1.1005 -6.6660 18.7295 0.1497 -8.1953 -7.8047 -0.0001 0.0752 -0.2065 0.6852 -1.0915 16.9216 0.3404 -1.2796 2.0413 0.2670 -0.6316 -7.3054 -1.5429 -0.4910 -15.4071 0.9014 -0.3996 -4.3032 0.5270 -0.1559 1.2344 0.0000 0.0000 0.0000 -78.5357 8.8203 16.0318 19.2311 -29.7049 -5.1449 -0.0000 0.0000 -17.6238 27.1283 13.6297 6.8842 -7.1250 0.0000 -0.0000 -0.2525 45.2198 -0.0014 0.0000 0.0000 0.0000 82.9158 -10.1846 27.4194 -22.2237 33.2289 -6.7080 0.0000 -0.0000 -23.2649 -31.8058 17.0236 -10.2907 7.1250 -0.0000 -0.0000 -2.5641 -10.1824 -2.0725
10.5883 18.1587 0.6527 -0.2215 4.1544 1.4096 0.0000 0.0000 0.0000 -21.5139 -6.5157 -7.2291 1.1531 6.8180 19.1772 -0.2629 10.4649 -9.4541 0.0464 -1.3908 -3.8248 0.0000 0.0000 0.0000 21.7609 7.3049 -6.1609 -0.9790 -6.2984 17.6527 0.0226 -7.4470 -10.1017 -0.0011 -0.2124 0.5837 0.3087 -0.8932 15.3291 0.4630 -1.0906 1.8145 0.5425 -0.5313 -6.6620 -2.1005 -0.5082 -14.2562 1.1488 -0.3636 -2.7011 0.7070 -0.1339 1.5721 0.0000 -0.0000 0.0000 -78.5749 7.6367 18.1304 19.9615 -30.5959 -5.5117 -0.0000 0.0000 -19.5502 27.5595 12.8370 6.6140 -7.1250 0.0000 -0.0000 0.2385 44.3948 -0.0036 0.0000 -0.0000 0.0000 82.2428 -9.1446 29.8979 -22.9467 34.0305 -7.1084 0.0000 -0.0000 -23.6206 -32.4940 16.8368 -10.4526 7.1250 -0.0000 -0.0000 -3.0370 -10.2643 -2.4507
10.5786 17.9750 0.6175 -0.5098 3.9126 -0.3884 0.0000 0.0000 0.0000 -21.5035 -5.7407 -4.5317 1.0241 6.4376 18.0596 -0.0194 9.8072 -13.6425 0.0003 -0.1175 -0.3228 0.0000 0.0000 0.0000 22.2980 5.8678 -3.6394 -0.8038 -5.7221 15.9803 -0.2192 -5.7496 -12.7968 -0.0773 -1.7931 4.9341 1.0562 -0.8154 13.4630 0.5890 -0.8829 1.4775 0.1856 -0.4496 -5.9983 -2.6267 -0.3978 -12.5299 1.5900 -0.2044 -0.2022 0.9562 -0.0556 2.1028 -0.0000 0.0000 0.0000 -78.5269 7.3105 20.3514 21.2919 -32.1675 -6.2046 -0.0000 0.0000 -19.2051 24.6025 15.6978 7.0623 -7.1250 0.0000 -0.0000 -2.9489 47.1350 -0.1555 -0.0000 0.0000 0.0000 80.9639 -8.8566 33.5904 -24.1037 35.2737 -7.7663 0.0000 -0.0000 -24.5128 -32.3071 16.9066 -10.4200 7.1250 -0.0000 -0.0000 -2.9058 -10.2203 -2.3472
10.5600 17.8695 0.5177 0.4318 3.6337 -2.9581 0.0000 0.0000 0.0000 -22.9027 -4.4281 -1.7682 0.9567 6.2282 17.4481 -0.0421 11.4715 -15.7166 0.0258 -1.0377 -2.8526 0.0000 0.0000 0.0000 21.6925 5.0789 -1.4347 -0.8775 -5.9721 16.7035 -0.2946 -6.6531 -14.8050 -0.0060 -0.4990 1.3712 0.2093 -0.8849 13.2447 0.2425 -1.1243 1.8078 0.3359 -0.5527 -5.5200 -1.7868 0.0606 -11.5460 1.6030 0.2545 1.1135 0.8416 0.1699 2.3525 -0.0000 0.0000 0.0000 -78.9928 5.8022 21.2569 22.6661 -33.7217 -6.9520 -0.0000 0.0000 -19.7182 24.2873 17.3327 7.6568 -7.1250 0.0000 -0.0000 -3.5769 48.8477 -0.3398 -0.0000 0.0000 0.0000 81.0580 -6.2913 35.4432 -24.0747 35.2431 -7.7496 0.0000 -0.0000 -21.6633 -31.6748 17.8499 -10.7097 7.1250 -0.0000 -0.0000 -2.3680 -9.2680 -1.9574
10.5118 17.8377 0.3549 0.8671 3.4219 -4.8994 0.0000 0.0000 0.0000 -23.3611 -4.7580 -0.6049 1.1109 6.6963 18.8187 0.2179 11.1135 -18.6513 0.1117 -2.1553 -5.9349 0.0000 0.0000 0.0000 21.6777 6.7416 -0.6695 -1.2110 -6.9810 19.6591 -0.5941 -7.4603 -19.1502 -0.0000 -0.0013 0.0037 -0.2777 -0.7347 13.4308 0.2033 -0.9977 2.0245 0.5479 -0.4819 -5.3868 -2.0959 -0.0248 -10.9578 2.0007 0.1462 1.8627 1.0210 0.1239 2.5016 -0.0000 0.0000 0.0000 -80.4180 3.3144 21.7084 22.8943 -33.9730 -7.0791 -0.0000 0.0000 -19.1067 25.9917 13.5413 6.5126 -7.1250 0.0000 -0.0000 -1.3008 44.9753 0.0008 -0.0000 0.0000 0.0000 81.5459 -3.7521 35.4704 -23.1771 34.2819 -7.2378 0.0000 -0.0000 -18.2683 -30.9432 18.8497 -10.9621 7.1250 -0.0000 -0.0000 -1.7617 -8.2833 -1.4902
10.4806 17.7818 0.2252 1.0589 3.2412 -5.7301 0.0000 0.0000 0.0000 -23.7310 -5.7708 -0.9753 1.3809 7.4357 21.0128 0.6693 9.5839 -21.7681 0.2170 -2.9988 -8.2754 0.0000 0.0000 0.0000 21.9489 8.0030 -0.7169 -1.4561 -7.6270 21.5869 -1.0566 -6.3528 -22.6980 -0.0482 1.4164 -3.8952 -0.4154 -0.6742 12.2796 0.1932 -0.9369 1.4982 0.5924 -0.4497 -5.3029 -3.4551 0.2897 -8.5564 4.1201 0.5554 2.6307 1.9649 0.3667 2.3185 -0.0000 -0.0000 0.0000 -81.9727 2.8246 22.9313 22.5589 -33.6030 -6.8926 -0.0000 0.0000 -19.6683 27.8752 13.2970 6.9360 -7.1250 0.0000 -0.0000 0.4832 44.9475 -0.0006 -0.0000 -0.0000 0.0000 82.2111 -2.4676 35.4373 -21.5127 32.4219 -6.3226 0.0000 -0.0000 -16.5091 -31.2156 18.4040 -10.8310 7.1250 -0.0000 -0.0000 -1.9970 -8.7313 -1.6717
10.4658 17.7714 0.1714 0.4060 3.0492 -6.8805 0.0000 0.0000 0.0000 -23.5622 -6.4545 0.3880 1.4710 7.6641 21.6985 1.1231 8.3108 -24.6368 0.2052 -2.9165 -8.0462 0.0000 0.0000 0.0000 23.0879 7.7677 1.2380 -1.2810 -7.1724 20.2271 -1.4266 -5.1749 -24.9525 -0.0836 1.8651 -5.1331 0.3818 -0.7701 10.5052 0.3274 -0.9617 1.2257 0.2632 -0.4788 -4.6126 -2.3282 0.1567 -8.6979 2.9277 0.2517 6.3103 1.4004 0.1952 3.6026 -0.0000 -0.0000 0.0000 -83.2767 2.5739 25.1503 22.5254 -33.5658 -6.8741 -0.0000 0.0000 -20.6892 28.5828 14.9046 7.9772 -7.1250 0.0000 -0.0000 0.9711 46.8397 0.0441 -0.0000 -0.0000 0.0000 82.8642 -1.5130 36.3352 -20.5492 31.2983 -5.8140 0.0000 -0.0000 -17.9124 -31.0415 16.8684 -9.9062 7.1250 -0.0000 -0.0000 -2.0860 -10.5010 -1.6720
10.4537 17.7870 0.0874 1.0545 2.7306 -8.0595 0.0000 0.0000 0.0000 -24.7628 -6.4341 1.9687 1.4995 7.7348 21.9115 1.2250 9.1353 -26.0474 0.0655 -1.6518 -4.5442 0.0000 0.0000 0.0000 22.3693 6.6092 2.3471 -1.2035 -6.9601 19.5973 -1.4803 -6.8628 -26.3660 -0.2317 3.0982 -8.5523 0.2693 -0.6003 10.0784 -0.0307 -0.7688 0.5319 -0.0737 -0.3856 -5.1037 -2.9415 0.1047 -7.1066 3.7433 0.1096 8.2321 1.7891 0.1336 3.9795 0.0000 -0.0000 0.0000 -84.0172 2.8826 28.6062 22.8857 -33.9636 -7.0744 -0.0000 0.0000 -20.4991 25.7702 15.9049 7.5365 -7.1250 0.0000 -0.0000 -1.8704 47.5294 -0.1168 0.0000 -0.0000 0.0000 83.7456 -1.0491 35.5429 -19.4084 29.9230 -5.2330 0.0000 -0.0000 -17.0085 -29.7213 18.3869 -10.2082 7.1250 -0.0000 -0.0000 -1.0372 -9.0379 -0.8615
10.4344 17.7724 -0.0165 2.7248 2.3289 -8.2730 0.0000 0.0000 0.0000 -26.5101 -3.5137 0.2643 1.9779 8.8198 25.2333 0.9477 8.5461 -23.3730 0.1639 -2.6087 -7.1911 0.0000 0.0000 0.0000 20.2603 6.1758 1.1982 -1.3994 -7.4835 21.1559 -1.6984 -6.8830 -27.9179 -0.2099 2.9495 -8.1381 -1.2002 -0.4006 8.9227 -0.5908 -0.6898 -0.1158 0.1514 -0.3173 -5.1220 -2.3695 -0.0216 -6.6428 3.0843 -0.1005 9.8617 1.4662 0.0161 4.4706 -0.0000 0.0000 0.0000 -84.4552 2.6427 31.5223 23.1326 -34.2334 -7.2127 -0.0000 0.0000 -20.1828 22.6950 14.8733 6.1270 -7.1250 0.0000 -0.0000 -4.5906 45.9884 -0.1122 -0.0000 0.0000 0.0000 84.3479 -1.1862 35.2359 -19.7318 30.3179 -5.3953 0.0000 -0.0000 -16.1403 -29.6305 19.2183 -10.6045 7.1250 -0.0000 -0.0000 -0.8727 -8.1291 -0.7406
10.4240 17.7290 -0.1377 2.4373 1.4391 -9.4501 0.0000 0.0000 0.0000 -26.7299 -1.8358 0.2183 3.1183 10.8842 31.8904 1.0160 7.8307 -23.4018 0.0234 -0.9874 -2.7141 0.0000 0.0000 0.0000 21.1312 7.4659 1.7790 -1.5747 -7.9176 22.4640 -1.8503 -6.6444 -28.7973 -0.4838 4.4604 -12.3757 -0.7434 -0.2435 8.3017 -0.5039 -0.4180 0.2333 -0.0546 -0.1965 -4.4136 -1.6576 -0.1113 -6.7801 1.9218 -0.1812 10.5739 0.9425 -0.0547 4.7494 0.0000 -0.0000 0.0000 -85.7731 1.9732 32.4328 24.1942 -35.3689 -7.8187 -0.0000 0.0000 -19.1637 21.7231 15.4487 6.0580 -7.1250 0.0000 -0.0000 -5.6167 46.4695 -0.2043 0.0000 -0.0000 0.0000 84.5956 -0.6995 35.5553 -20.9107 31.7240 -6.0029 0.0000 -0.0000 -18.4849 -30.6419 18.6825 -10.7444 7.1250 -0.0000 -0.0000 -1.5912 -8.5309 -1.3380
10.4192 17.6955 -0.2362 1.9227 0.2717 -10.5553 0.0000 0.0000 0.0000 -26.2393 0.7444 1.1734 4.0572 12.2362 36.5726 1.0165 7.5131 -23.1710 0.0020 -0.2920 -0.8023 0.0000 0.0000 0.0000 22.3094 8.5130 2.9461 -1.5697 -7.9055 22.4275 -1.6993 -7.0169 -28.0060 -0.9164 6.0996 -17.0737 -0.1862 -0.1911 7.9038 -0.5075 -0.2937 0.1836 -0.3875 -0.1468 -4.2452 -2.3620 0.1126 -5.5018 3.6387 -0.0071 10.1932 1.6538 0.0816 4.3602 0.0000 0.0000 0.0000 -85.9754 2.0619 34.0313 24.7387 -35.9357 -8.1360 -0.0000 0.0000 -20.1680 22.6226 15.0006 6.1561 -7.1250 0.0000 -0.0000 -4.6832 46.1143 -0.1291 0.0000 0.0000 0.0000 85.0423 -0.9138 35.7863 -21.7293 32.6697 -6.4391 0.0000 -0.0000 -19.3528 -30.9331 18.9992 -11.0395 7.1250 -0.0000 -0.0000 -1.7348 -8.1172 -1.4732
10.4051 17.6278 -0.3356 1.5246 -0.7326 -10.8823 0.0000 0.0000 0.0000 -25.9520 2.2123 3.9345 3.8129 11.9072 35.4045 0.9448 8.1983 -23.0750 0.0373 -1.2468 -3.4281 0.0000 0.0000 0.0000 22.5834 8.0153 1.7808 -1.7795 -8.3909 23.9078 -1.6617 -6.2941 -27.3128 -0.5861 4.9016 -13.6282 -0.5257 -0.2814 7.3838 -0.2800 -0.4331 -0.1613 0.0531 -0.2063 -4.3079 -1.6408 0.3888 -6.5526 3.5631 0.2551 12.4307 1.3859 0.2686 4.7948 0.0000 0.0000 0.0000 -86.9082 2.6843 33.2815 25.7480 -36.9588 -8.7357 -0.0000 0.0000 -20.3552 22.2737 14.4977 5.8546 -7.1250 0.0000 -0.0000 -4.9102 45.5340 -0.0649 0.0000 0.0000 0.0000 84.9979 -0.9739 36.5430 -22.5221 33.5621 -6.8723 0.0000 -0.0000 -19.4181 -30.3902 18.9926 -10.8057 7.1250 -0.0000 -0.0000 -1.3885 -8.2327 -1.1757
10.3792 17.5443 -0.4472 -0.5699 -2.2082 -10.0555 0.0000 0.0000 0.0000 -23.8000 2.9165 7.2232 2.2609 9.3895 27.0216 1.0214 8.8188 -24.2033 0.0169 -0.8383 -2.3040 0.0000 0.0000 0.0000 24.4591 6.9041 -1.4557 -2.0905 -9.0521 25.9583 -1.3625 -7.9427 -26.2132 -1.0445 6.4995 -18.2408 0.4168 -0.6061 6.5373 0.7077 -0.7434 -0.7888 0.5750 -0.3699 -4.4806 -2.0242 0.6661 -8.3206 4.3069 0.5534 13.9193 1.7233 0.4703 5.5435 0.0000 -0.0000 0.0000 -87.6853 3.0647 32.1922 26.4253 -37.6256 -9.1461 -0.0000 0.0000 -21.0162 22.0584 15.3470 6.1213 -7.1250 0.0000 -0.0000 -5.2811 46.4070 -0.1839 0.0000 -0.0000 0.0000 84.1188 -1.7237 38.8335 -23.9032 35.0617 -7.6509 0.0000 -0.0000 -21.0506 -31.1283 19.1882 -11.2267 7.1250 -0.0000 -0.0000 -1.8333 -7.8652 -1.5660
10.3808 17.4691 -0.6216 -0.4700 -2.8982 -8.8082 0.0000 0.0000 0.0000 -24.2139 3.6767 9.4337 1.2272 7.0258 19.7919 1.2944 9.4083 -26.7694 0.0044 0.4275 1.1745 0.0000 0.0000 0.0000 23.6794 5.9572 -5.4729 -2.4818 -9.8048 28.3468 -1.1560 -7.5987 -24.3830 -1.1580 6.8320 -19.2186 -0.6978 -0.8501 5.9864 0.8422 -1.1510 -0.8195 1.3715 -0.5448 -4.1742 -2.6398 0.9720 -9.9493 5.9152 0.9074 12.3203 2.3510 0.7332 5.2992 0.0000 0.0000 0.0000 -87.5988 2.4106 32.1248 27.1788 -38.3491 -9.6098 -0.0000 0.0000 -21.5573 23.2184 14.9073 6.2976 -7.1250 0.0000 -0.0000 -4.1079 46.0940 -0.1111 0.0000 0.0000 0.0000 83.8981 -1.6998 39.4203 -25.5349 36.7457 -8.6079 0.0000 -0.0000 -21.9131 -31.3930 18.8139 -11.1334 7.1250 -0.0000 -0.0000 -2.0544 -8.2332 -1.7401
10.3493 17.4717 -0.8444 -2.0004 -3.2378 -8.8251 0.0000 0.0000 0.0000 -22.2856 2.8562 7.2670 1.6115 8.0050 22.7292 1.3606 8.5832 -26.6482 0.0142 -0.7706 -2.1178 0.0000 0.0000 0.0000 25.2028 5.9440 -6.8712 -2.6840 -10.1650 29.5126 -0.9805 -7.6572 -22.9701 -0.5160 4.6042 -12.7830 0.0610 -1.0930 7.1864 1.0210 -1.4091 -0.1165 1.1718 -0.6901 -4.1269 -2.1069 0.7881 -11.8772 6.3807 0.6302 9.9896 2.3796 0.6542 4.9177 0.0000 -0.0000 0.0000 -86.7433 0.1563 32.4296 26.2000 -37.4055 -9.0089 -0.0000 0.0000 -21.0721 25.2418 13.6284 6.3388 -7.1250 0.0000 -0.0000 -2.0094 44.9754 0.0012 0.0000 -0.0000 0.0000 85.0928 0.0472 37.9773 -24.9698 36.1731 -8.2721 0.0000 -0.0000 -20.3232 -31.7765 19.3817 -11.6166 7.1250 -0.0000 -0.0000 -2.2182 -7.5127 -1.9106
10.2696 17.4747 -1.0745 -0.7342 -2.5599 -7.8548 0.0000 0.0000 0.0000 -23.4085 1.0393 4.1323 1.9329 8.7249 24.9386 1.3555 8.0494 -26.2354 0.0009 0.1893 0.5202 0.0000 0.0000 0.0000 23.8254 8.2015 -9.4016 -3.2261 -11.0524 32.4569 -1.1527 -7.8586 -24.5426 -0.1728 2.6777 -7.3826 -2.1163 -1.1697 8.0248 0.5982 -1.7328 -0.4397 2.0205 -0.7951 -4.8790 -2.5775 0.6337 -12.2319 6.7263 0.5721 7.7813 2.5389 0.6076 4.2968 -0.0000 0.0000 0.0000 -85.9165 -0.5644 32.5182 24.7453 -35.9425 -8.1399 -0.0000 0.0000 -20.3587 24.9412 15.2390 6.9692 -7.1250 0.0000 -0.0000 -2.5459 46.6864 -0.1060 -0.0000 0.0000 0.0000 86.5358 -0.2096 35.6843 -23.8744 35.0311 -7.6343 0.0000 -0.0000 -19.7021 -32.1415 17.8300 -10.8897 7.1250 -0.0000 -0.0000 -2.6717 -9.1982 -2.2128
10.2912 17.5228 -1.1812 -2.6130 -2.5797 -7.9777 0.0000 0.0000 0.0000 -21.7309 -0.0902 4.7068 1.8973 8.6488 24.7028 1.4263 8.0399 -26.7474 0.0416 1.3157 3.6179 0.0000 0.0000 0.0000 25.7332 10.4663 -7.9669 -3.2906 -11.1513 32.7919 -1.2243 -5.7381 -23.6976 -0.0979 2.0179 -5.5552 0.4956 -1.4274 8.5324 0.8767 -1.8082 -0.1695 0.8616 -0.8953 -4.9501 -0.6785 0.2679 -14.6269 3.4133 0.0749 8.9041 1.1849 0.2533 5.0593 -0.0000 -0.0000 0.0000 -84.8542 -0.5752 33.5454 24.1243 -35.2954 -7.7783 -0.0000 0.0000 -21.2533 25.5245 14.9523 7.0236 -7.1250 0.0000 -0.0000 -1.9464 46.4561 -0.0700 -0.0000 -0.0000 0.0000 87.7163 -1.4911 33.2056 -23.1165 34.2160 -7.2037 0.0000 -0.0000 -19.4857 -32.2544 18.3077 -11.2123 7.1250 -0.0000 -0.0000 -2.6770 -8.6313 -2.2475
10.2663 17.5424 -1.2520 -3.7892 -3.1934 -8.6478 0.0000 0.0000 0.0000 -20.4815 -0.2635 5.4211 1.9063 8.6682 24.7627 1.4525 8.6945 -27.3893 0.0141 0.7670 2.1080 0.0000 0.0000 0.0000 27.6826 13.7172 -4.6417 -3.2988 -11.1637 32.8338 -0.9352 -5.8377 -21.2781 -0.0809 1.8350 -5.0498 1.2854 -1.4048 9.3999 1.5591 -1.6511 0.1938 1.1258 -0.8282 -5.0624 -1.6237 0.2690 -15.2095 3.6933 0.2485 8.4153 1.4405 0.3265 4.9953 -0.0000 -0.0000 0.0000 -85.1032 -0.5364 33.5039 23.5630 -34.6987 -7.4563 -0.0000 0.0000 -20.5711 25.0048 15.1616 6.9549 -7.1250 0.0000 -0.0000 -2.4725 46.6113 -0.0984 -0.0000 -0.0000 0.0000 87.4061 -2.4947 32.4161 -22.4535 33.4857 -6.8344 0.0000 -0.0000 -18.9163 -31.5612 17.5941 -10.5187 7.1250 -0.0000 -0.0000 -2.3291 -9.5804 -1.9106
10.2469 17.5839 -1.2433 -2.5566 -1.6082 -8.6358 0.0000 0.0000 0.0000 -22.1626 -1.1993 7.3233 1.4899 7.7111 21.8399 1.2212 9.4687 -26.2730 0.0000 -0.0246 -0.0676 0.0000 0.0000 0.0000 26.2484 14.2769 -3.0510 -3.5371 -11.5176 34.0460 -1.0620 -4.9362 -21.8397 -0.0876 1.9090 -5.2542 -0.1033 -1.7619 8.7529 1.4062 -2.2892 0.1328 1.8090 -1.1150 -4.7085 -1.1451 0.2576 -15.3814 2.2792 0.3003 8.8149 0.9266 0.2710 5.1482 0.0000 -0.0000 0.0000 -85.6002 0.2273 32.7808 23.1566 -34.2596 -7.2263 -0.0000 0.0000 -19.1458 24.7747 14.4798 6.5828 -7.1250 0.0000 -0.0000 -2.5758 45.8406 -0.0535 0.0000 -0.0000 0.0000 86.9525 -3.0761 31.8193 -20.5010 31.2412 -5.7890 0.0000 -0.0000 -17.1992 -30.8615 17.7285 -10.3130 7.1250 -0.0000 -0.0000 -1.8584 -9.5620 -1.5247
10.1900 17.6161 -1.2330 -0.9986 0.3150 -7.8589 0.0000 0.0000 0.0000 -23.9999 -2.8927 7.4944 1.3381 7.3243 20.6796 1.1162 9.5540 -25.5393 0.0021 0.2931 0.8052 0.0000 0.0000 0.0000 24.2045 12.5956 -2.6821 -3.3829 -11.2905 33.2658 -0.9441 -4.6826 -20.6208 -0.1646 2.6139 -7.2057 -1.9631 -2.0984 7.6315 0.8569 -2.9345 -0.1569 2.3165 -1.4032 -4.2969 -2.1266 0.3971 -14.5440 4.1224 0.4809 7.8041 1.6670 0.4433 4.6883 0.0000 -0.0000 0.0000 -85.3528 1.2135 32.3722 23.2127 -34.3205 -7.2578 -0.0000 0.0000 -19.9064 25.1681 14.6717 6.7870 -7.1250 0.0000 -0.0000 -2.2376 46.1017 -0.0609 0.0000 -0.0000 0.0000 87.0766 -4.4716 31.0005 -19.1779 29.6391 -5.1185 0.0000 -0.0000 -16.6773 -31.1958 18.9689 -11.1350 7.1250 -0.0000 -0.0000 -1.9068 -8.0983 -1.6201
10.1263 17.6188 -1.2346 -4.2801 1.0789 -7.6593 0.0000 0.0000 0.0000 -19.9776 -3.9102 6.0128 1.7198 8.2564 23.4956 1.3728 8.0401 -26.3567 0.0075 0.5592 1.5367 0.0000 0.0000 0.0000 28.0590 9.6844 -0.9925 -2.6802 -10.1584 29.4912 -0.7746 -5.0421 -19.2043 -0.3068 3.5609 -9.8445 1.0542 -2.3775 7.6509 1.9247 -2.9847 -0.2921 1.7461 -1.4809 -4.5433 -1.5336 0.3586 -15.0159 3.3412 0.4031 7.8978 1.3242 0.3762 4.7985 0.0000 -0.0000 0.0000 -85.5295 1.7512 32.4001 23.0372 -34.1295 -7.1592 -0.0000 0.0000 -21.5824 25.2625 14.8323 6.8880 -7.1250 0.0000 -0.0000 -2.1744 46.2893 -0.0692 0.0000 -0.0000 0.0000 87.3874 -5.7106 27.9289 -17.9905 28.1450 -4.5448 0.0000 -0.0000 -15.4445 -31.2339 16.9455 -10.0236 7.1250 -0.0000 -0.0000 -2.2017 -10.3782 -1.7704
10.0782 17.6023 -1.2019 -3.3404 1.3143 -7.4148 0.0000 0.0000 0.0000 -20.7406 -3.6865 5.7275 1.7302 8.2800 23.5677 1.3407 7.8998 -26.0214 0.0380 1.2587 3.4610 0.0000 0.0000 0.0000 27.2710 7.5117 0.2333 -2.3082 -9.4805 27.3103 -0.7371 -5.3317 -19.0176 -0.0335 1.1821 -3.2499 0.2926 -1.8935 6.9512 1.6630 -2.4320 -0.1529 1.8055 -1.1969 -3.9949 -3.3830 -0.0582 -14.4165 5.2560 0.0258 6.6476 2.1791 0.2476 4.3256 -0.0000 0.0000 0.0000 -85.6432 2.0702 32.3438 22.7469 -33.8108 -6.9969 -0.0000 0.0000 -22.5028 24.5124 14.3354 6.4415 -7.1250 0.0000 -0.0000 -2.7976 45.6494 -0.0449 -0.0000 0.0000 0.0000 88.0120 -6.6258 24.2693 -16.7415 26.5158 -3.9713 0.0000 -0.0000 -14.0886 -31.0969 16.5543 -9.7513 7.1250 -0.0000 -0.0000 -2.1619 -10.8470 -1.7177
10.0373 17.5866 -1.1356 -3.0767 1.3649 -7.3456 0.0000 0.0000 0.0000 -20.8430 -3.2735 6.1621 1.6173 8.0187 22.7710 1.0902 8.7153 -24.6798 0.0018 0.2727 0.7492 0.0000 0.0000 0.0000 27.2059 6.7530 2.1706 -1.7393 -8.3006 23.6309 -0.8673 -4.2807 -19.6455 -0.0074 0.5547 -1.5242 0.7144 -1.5878 6.6524 1.5022 -2.0005 -0.2062 1.3499 -0.9928 -3.9140 -2.3671 -0.2117 -16.5819 3.6112 -0.2251 9.0493 1.5031 0.0788 5.4302 -0.0000 0.0000 0.0000 -85.7138 2.4160 31.1209 22.1218 -33.1144 -6.6523 -0.0000 0.0000 -22.4764 24.0461 16.5104 7.2267 -7.1250 0.0000 -0.0000 -3.6376 47.9285 -0.2632 -0.0000 0.0000 0.0000 88.5318 -7.6436 21.5942 -15.2602 24.5073 -3.3331 0.0000 -0.0000 -11.8457 -30.8396 16.7956 -9.7886 7.1250 -0.0000 -0.0000 -1.9632 -10.6201 -1.5687
10.0054 17.6211 -1.0816 -0.9650 0.7435 -7.2465 0.0000 0.0000 0.0000 -22.7419 -1.5342 6.5573 1.3910 7.4618 21.0910 0.9360 9.0850 -23.7068 0.0016 -0.2622 -0.7205 0.0000 0.0000 0.0000 24.8109 6.5742 3.1490 -1.5188 -7.7823 22.0549 -0.8813 -2.3464 -18.7291 -0.0081 -0.5797 1.5930 -0.1861 -0.9414 6.3587 0.6640 -1.2439 -0.0519 0.9060 -0.6091 -3.6003 -2.3920 -0.4426 -16.2492 2.9536 -0.4306 8.0302 1.2748 -0.0764 5.0598 0.0000 -0.0000 0.0000 -85.7899 2.4567 29.1075 21.1396 -31.9909 -6.1237 -0.0000 0.0000 -21.9472 23.6527 17.0800 7.3302 -7.1250 0.0000 -0.0000 -4.1363 48.4794 -0.3556 0.0000 -0.0000 0.0000 89.2042 -7.5111 18.5985 -13.2315 21.6255 -2.5380 0.0000 -0.0000 -9.6482 -30.6704 17.0708 -9.8759 7.1250 -0.0000 -0.0000 -1.8182 -10.3398 -1.4631
10.0055 17.6674 -1.0443 -0.4680 -0.3455 -7.0980 0.0000 0.0000 0.0000 -23.0757 -1.0572 6.1473 1.4452 7.5997 21.5047 1.0247 8.8489 -24.2534 0.0102 0.6510 1.7891 0.0000 0.0000 0.0000 23.8615 5.5049 3.3645 -1.2973 -7.2163 20.3577 -0.7291 -0.8121 -16.4463 -0.0021 -0.2983 0.8197 0.9227 -0.3914 6.4175 0.3063 -0.4405 -0.1010 -0.1601 -0.2332 -3.7082 -3.0316 -0.1828 -15.8814 3.7564 -0.0340 7.3378 1.6605 0.1496 4.7742 -0.0000 -0.0000 0.0000 -86.3912 2.7459 26.5150 19.8100 -30.4127 -5.4348 -0.0000 0.0000 -21.6969 24.2350 19.8566 8.6933 -7.1250 0.0000 -0.0000 -4.2329 51.5371 -0.6825 -0.0000 -0.0000 0.0000 89.5008 -7.9435 17.4630 -11.8708 19.6105 -2.0587 0.0000 -0.0000 -8.8834 -31.3638 16.4868 -9.8141 7.1250 -0.0000 -0.0000 -2.3454 -10.8755 -1.8624
9.9992 17.7041 -0.9936 0.4758 -0.5647 -7.0341 0.0000 0.0000 0.0000 -23.9650 -0.5761 4.8670 1.7108 8.2357 23.4324 1.0047 8.8457 -24.0870 0.0084 -0.5916 -1.6258 0.0000 0.0000 0.0000 22.9126 5.5764 4.0285 -1.2008 -6.9527 19.5754 -0.7071 -0.6996 -16.1552 -0.0018 -0.2777 0.7630 0.6876 -0.3411 6.3420 0.0826 -0.3999 -0.1973 -0.2629 -0.2110 -3.7649 -3.0288 -0.0835 -15.2910 3.3580 0.1298 7.2448 1.5458 0.1980 4.6445 -0.0000 -0.0000 0.0000 -87.3369 4.2188 23.2952 19.1429 -29.5958 -5.1012 -0.0000 0.0000 -22.2717 25.2473 19.3349 8.8741 -7.1250 0.0000 -0.0000 -3.0844 51.1574 -0.4682 -0.0000 -0.0000 0.0000 89.3105 -7.2993 15.7131 -9.9884 16.7214 -1.4716 0.0000 -0.0000 -5.1912 -30.2738 17.4537 -9.9309 7.1250 -0.0000 -0.0000 -1.5120 -9.9808 -1.2275
9.9895 17.7382 -0.9633 0.9531 0.2114 -6.4177 0.0000 0.0000 0.0000 -24.4448 -1.1240 3.2069 1.8729 8.5962 24.5401 1.0397 7.9695 -23.7035 0.1114 -2.1521 -5.9262 0.0000 0.0000 0.0000 22.3752 5.7422 3.6702 -1.1687 -6.8625 19.3086 -0.6988 -1.2589 -16.2953 -0.0444 -1.3602 3.7404 0.5999 -0.4847 5.9508 -0.0762 -0.6063 -0.3204 -0.3607 -0.3135 -3.6753 -2.0917 0.0217 -15.3487 2.7076 0.1587 6.9510 1.1928 0.1965 4.5623 -0.0000 -0.0000 0.0000 -88.4096 5.1125 19.9607 18.3987 -28.6647 -4.7389 -0.0000 0.0000 -21.4360 24.6683 18.3494 8.2272 -7.1250 0.0000 -0.0000 -3.4297 50.0002 -0.4232 -0.0000 -0.0000 0.0000 88.8068 -7.5162 16.6987 -9.6919 16.2562 -1.3875 0.0000 -0.0000 -5.0232 -29.9630 16.4553 -9.2746 7.1250 -0.0000 -0.0000 -1.4297 -11.1585 -1.1263
9.9893 17.7889 -0.9349 1.2666 0.7590 -6.6003 0.0000 0.0000 0.0000 -24.8427 -2.2032 2.9885 1.7561 8.3384 23.7468 1.1432 7.5990 -24.2800 0.0215 -0.9456 -2.5993 0.0000 0.0000 0.0000 22.1041 5.4435 4.6442 -1.0230 -6.4342 18.0495 -0.6258 -2.1551 -15.8778 -0.0488 -1.4256 3.9208 0.4945 -0.4924 6.5169 -0.1623 -0.6245 -0.2896 -0.3840 -0.3217 -3.9619 -1.3251 0.0563 -15.2482 2.2064 0.1096 6.5470 0.9075 0.1596 4.4224 -0.0000 0.0000 0.0000 -88.6767 5.3486 18.9549 16.7857 -26.5744 -3.9910 -0.0000 0.0000 -21.3855 23.6898 20.7148 8.8217 -7.1250 0.0000 -0.0000 -5.0221 52.3500 -0.9105 -0.0000 0.0000 0.0000 88.6837 -8.0501 17.8827 -10.1645 16.9965 -1.5227 0.0000 -0.0000 -6.5994 -30.3269 16.3634 -9.3586 7.1250 -0.0000 -0.0000 -1.6799 -11.1992 -1.3222
10.0063 17.8229 -0.8551 1.9640 1.5602 -6.4684 0.0000 0.0000 0.0000 -25.5296 -2.8541 3.5673 1.2857 7.1851 20.2648 0.5720 8.7457 -20.0494 0.0821 -1.8487 -5.0877 0.0000 0.0000 0.0000 21.0260 4.1043 4.7500 -0.9711 -6.2739 17.5812 -0.5704 -1.9479 -15.1047 -0.0157 -0.8100 2.2263 0.0064 -0.5826 5.6714 -0.4191 -0.7898 -0.0203 -0.3693 -0.3962 -3.2069 -1.2957 0.0115 -14.8946 3.0748 -0.0393 6.1559 1.1582 0.1380 4.2493 0.0000 -0.0000 0.0000 -89.1409 5.5582 17.1017 15.4943 -24.8302 -3.4308 -0.0000 0.0000 -19.0218 23.4789 18.5180 7.8548 -7.1250 0.0000 -0.0000 -4.6407 49.9841 -0.5713 0.0000 -0.0000 0.0000 88.5347 -8.4847 20.2331 -11.3628 18.8422 -1.8914 0.0000 -0.0000 -9.3759 -30.7772 14.7579 -8.6269 7.1250 -0.0000 -0.0000 -2.1668 -12.9429 -1.6276
10.0304 17.8017 -0.8308 0.9727 1.8571 -6.6185 0.0000 0.0000 0.0000 -24.2848 -2.2950 3.7266 1.2084 6.9737 19.6375 0.3102 8.4519 -16.8031 0.0621 -1.6075 -4.4222 0.0000 0.0000 0.0000 21.9138 2.9832 4.9308 -0.9030 -6.0557 16.9462 -0.5527 -1.7714 -14.7968 -0.0100 -0.6466 1.7769 0.8259 -0.7776 6.0053 0.0597 -0.9761 -0.0553 -0.3154 -0.4989 -3.4372 -1.4979 0.0651 -13.5382 3.2144 0.0724 4.8551 1.3646 0.1698 4.0507 0.0000 0.0000 0.0000 -90.2371 6.4731 15.0000 15.0114 -24.1619 -3.2306 -0.0000 0.0000 -17.9007 23.1579 17.1785 7.2000 -7.1250 0.0000 -0.0000 -4.6351 48.5090 -0.4020 0.0000 0.0000 0.0000 87.6378 -9.0011 23.2809 -12.5579 20.6361 -2.2951 0.0000 -0.0000 -12.4970 -30.3740 16.2520 -9.3149 7.1250 -0.0000 -0.0000 -1.7243 -11.3168 -1.3530
10.0589 17.7990 -0.7689 -0.3645 1.9650 -6.6969 0.0000 0.0000 0.0000 -23.0461 -2.6211 4.1542 1.2186 7.0021 19.7215 0.4224 7.9849 -17.7068 0.0055 -0.4797 -1.3180 0.0000 0.0000 0.0000 23.1030 2.1789 5.7773 -0.7392 -5.4926 15.3189 -0.5271 -1.4370 -14.3102 -0.0211 -0.9382 2.5789 1.7643 -0.8023 5.4950 0.8095 -0.9321 0.0921 -0.0819 -0.4837 -3.0009 -1.0734 0.0632 -12.9833 2.5129 0.0470 5.2103 1.0456 0.1285 4.0619 -0.0000 0.0000 0.0000 -91.3432 6.3792 13.2867 13.6868 -22.2852 -2.7082 -0.0000 0.0000 -16.9359 23.8911 15.7830 6.8699 -7.1250 0.0000 -0.0000 -3.6410 47.1252 -0.1912 -0.0000 0.0000 0.0000 86.6858 -8.9233 25.2772 -13.6423 22.2210 -2.6913 0.0000 -0.0000 -13.7494 -30.9443 16.4134 -9.6151 7.1250 -0.0000 -0.0000 -2.0795 -11.0342 -1.6442
10.0790 17.7872 -0.6789 1.1841 2.1106 -7.4338 0.0000 0.0000 0.0000 -24.8953 -1.5542 6.6558 0.9156 6.0968 17.0656 0.3672 8.2666 -17.3205 0.0062 -0.5091 -1.3988 0.0000 0.0000 0.0000 21.6768 2.8837 6.7328 -0.8742 -5.9610 16.6714 -0.6148 -2.0541 -15.6967 -0.0096 -0.6337 1.7415 0.0441 -0.6614 5.1306 0.3729 -0.8699 0.6861 0.4184 -0.4329 -2.1650 -1.8666 -0.0418 -11.4023 3.8652 -0.0601 4.0829 1.6116 0.1065 3.3668 -0.0000 0.0000 0.0000 -91.7577 5.6703 10.5816 12.3670 -20.3527 -2.2283 -0.0000 0.0000 -15.0203 23.5635 15.6212 6.6981 -7.1250 0.0000 -0.0000 -3.9198 46.9055 -0.1846 -0.0000 0.0000 0.0000 86.7788 -8.2163 25.9117 -14.3372 23.2147 -2.9597 0.0000 -0.0000 -14.0614 -32.3832 15.9443 -9.8828 7.1250 -0.0000 -0.0000 -3.0843 -11.3097 -2.4231
10.0591 17.8224 -0.6391 0.9078 1.9324 -6.8937 0.0000 0.0000 0.0000 -24.2949 -1.3488 6.2984 0.8543 5.8945 16.4787 0.3245 8.1047 -16.6299 0.0073 -0.5530 -1.5197 0.0000 0.0000 0.0000 22.3882 4.0599 6.6499 -0.8587 -5.9092 16.5212 -0.5936 -3.1554 -16.0427 -0.0257 -1.0346 2.8440 -0.1479 -0.7264 4.6366 0.5196 -0.9629 0.1654 0.6806 -0.4757 -2.4175 -0.1806 0.3115 -12.0699 2.1515 0.2519 5.8870 0.7763 0.2308 4.1147 -0.0000 -0.0000 0.0000 -92.1682 6.5424 6.3782 11.3352 -18.8002 -1.8825 -0.0000 0.0000 -10.7942 22.1826 16.5265 6.6159 -7.1250 0.0000 -0.0000 -5.4207 47.6730 -0.3585 -0.0000 -0.0000 0.0000 87.2120 -7.6719 24.6263 -14.4542 23.3802 -3.0060 0.0000 -0.0000 -13.5965 -30.7014 16.9475 -9.8198 7.1250 -0.0000 -0.0000 -1.8539 -10.4735 -1.4868
10.0793 17.8245 -0.5916 0.3626 1.4341 -6.6793 0.0000 0.0000 0.0000 -23.7401 -1.0977 6.1776 0.8641 5.9275 16.5741 0.3021 8.3986 -16.6449 0.0547 -1.5088 -4.1499 0.0000 0.0000 0.0000 22.7890 3.9081 6.6744 -0.8067 -5.7322 16.0093 -0.6093 -2.4785 -15.8512 -0.0091 -0.6155 1.6914 0.6602 -0.7709 4.2318 0.6388 -0.9795 -0.0099 0.3466 -0.4926 -2.3821 0.2477 0.3703 -12.4956 1.2493 0.3224 7.6503 0.3690 0.2420 4.3206 0.0000 -0.0000 0.0000 -92.4502 6.9938 5.6297 10.6591 -17.7639 -1.6704 -0.0000 0.0000 -12.9455 24.7972 12.7007 5.8000 -7.1250 0.0000 -0.0000 -2.2882 43.9104 0.0616 0.0000 -0.0000 0.0000 87.5864 -7.1853 24.3679 -14.9196 24.0339 -3.1931 0.0000 -0.0000 -14.6047 -30.9364 17.4099 -10.1667 7.1250 -0.0000 -0.0000 -1.9483 -9.9077 -1.5849
10.0943 17.8237 -0.5571 0.5537 1.5360 -6.6630 0.0000 0.0000 0.0000 -24.0391 -1.2548 6.4208 0.8503 5.8811 16.4399 0.3366 8.3209 -16.9998 0.0213 -0.9413 -2.5874 0.0000 0.0000 0.0000 22.3345 3.1430 6.7184 -0.7906 -5.6758 15.8465 -0.6006 -2.1175 -15.5583 -0.0015 -0.2540 0.6979 0.8090 -0.8292 4.1656 0.3194 -1.0590 0.0688 -0.0615 -0.5353 -2.2727 0.0456 0.3439 -12.5458 1.3988 0.3012 8.0162 0.4473 0.2365 4.4413 0.0000 -0.0000 0.0000 -92.0686 7.1852 5.9605 10.2870 -17.1872 -1.5587 -0.0000 0.0000 -13.9304 24.1178 15.3419 6.7552 -7.1250 0.0000 -0.0000 -3.3430 46.6828 -0.1390 0.0000 -0.0000 0.0000 88.5801 -6.7083 24.0522 -15.8707 25.3450 -3.5904 0.0000 -0.0000 -15.5466 -30.9967 16.8583 -9.8834 7.1250 -0.0000 -0.0000 -2.0580 -10.5206 -1.6487
10.1001 17.8266 -0.5225 1.4236 1.8966 -6.3509 0.0000 0.0000 0.0000 -24.9763 -1.0617 6.6515 0.7457 5.5159 15.3861 0.2941 8.3344 -16.4756 0.0126 -0.7256 -1.9940 0.0000 0.0000 0.0000 21.3578 3.2528 6.3360 -0.8329 -5.8221 16.2692 -0.6286 -2.2554 -15.9615 -0.0001 0.0755 -0.2074 -0.2282 -0.8463 4.1088 0.2042 -1.1343 -0.2087 0.4080 -0.5612 -2.5088 -0.5806 0.4645 -12.2917 1.5431 0.5545 8.0262 0.6107 0.3493 4.3986 -0.0000 -0.0000 0.0000 -92.5079 7.3968 5.1131 10.0550 -16.8256 -1.4908 -0.0000 0.0000 -13.8673 25.7755 14.9506 7.1013 -7.1250 0.0000 -0.0000 -1.7086 46.4893 -0.0628 -0.0000 -0.0000 0.0000 88.5919 -7.2204 25.5064 -17.0843 26.9687 -4.1255 0.0000 -0.0000 -16.3798 -30.8467 16.5616 -9.6612 7.1250 -0.0000 -0.0000 -1.9971 -10.8837 -1.5851
10.1263 17.8171 -0.4897 0.8184 1.6450 -6.4717 0.0000 0.0000 0.0000 -24.4373 -1.0470 6.7663 0.7822 5.6464 15.7618 0.2811 8.5355 -16.5185 0.0244 -1.0089 -2.7734 0.0000 0.0000 0.0000 21.9711 3.2251 6.8580 -0.7888 -5.6697 15.8290 -0.6178 -2.1532 -15.7820 -0.0139 -0.7612 2.0920 0.7451 -0.7017 4.0431 0.3215 -0.8935 0.1073 -0.0357 -0.4518 -2.1622 -0.8906 0.2936 -11.9706 1.1127 0.4300 6.5995 0.5705 0.2467 4.3485 0.0000 0.0000 0.0000 -92.5431 7.1577 5.9154 10.3852 -17.3398 -1.5878 -0.0000 0.0000 -13.3772 25.1414 16.1797 7.4506 -7.1250 0.0000 -0.0000 -2.5225 47.7347 -0.1703 0.0000 0.0000 0.0000 88.5341 -7.1548 26.9711 -18.0662 28.2418 -4.5805 0.0000 -0.0000 -16.6568 -31.0667 16.8568 -9.9094 7.1250 -0.0000 -0.0000 -2.1039 -10.5095 -1.6861
10.1342 17.8138 -0.4683 0.8604 1.8621 -6.7123 0.0000 0.0000 0.0000 -24.5600 -1.0464 6.8798 0.8127 5.7529 16.0691 0.2740 8.6688 -16.5677 0.0752 -1.7685 -4.8663 0.0000 0.0000 0.0000 21.9050 2.8375 7.1765 -0.7737 -5.6163 15.6751 -0.5965 -2.4399 -15.6771 -0.0023 -0.3118 0.8568 0.6179 -0.7411 4.4487 0.3322 -0.9487 0.2218 0.0547 -0.4779 -2.2701 -0.8843 0.0697 -12.5790 0.8006 0.1615 7.3494 0.4012 0.1016 4.2412 -0.0000 -0.0000 0.0000 -92.5993 6.9862 6.9082 10.8363 -18.0370 -1.7249 -0.0000 0.0000 -14.2020 24.7109 15.7479 7.1191 -7.1250 0.0000 -0.0000 -2.8549 47.2046 -0.1554 -0.0000 -0.0000 0.0000 88.3306 -6.8059 28.7799 -18.2078 28.4225 -4.6477 0.0000 -0.0000 -16.8143 -30.8666 17.4320 -10.1515 7.1250 -0.0000 -0.0000 -1.9000 -9.8958 -1.5461
10.1376 17.8093 -0.4563 0.4848 1.7145 -6.6893 0.0000 0.0000 0.0000 -24.1557 -1.0864 6.5978 0.8809 5.9832 16.7358 0.3143 8.5472 -16.9532 0.0474 -1.4052 -3.8645 0.0000 0.0000 0.0000 22.3265 3.0155 7.4511 -0.7313 -5.4638 15.2364 -0.6135 -2.4326 -15.8759 -0.0002 -0.0936 0.2571 0.8553 -0.8094 4.5370 0.4064 -1.0250 0.2485 0.0037 -0.5180 -2.2952 -0.2143 0.3277 -12.5391 0.1931 0.4552 7.1534 0.1265 0.2295 4.1748 0.0000 -0.0000 0.0000 -92.4508 7.4331 9.2217 11.7675 -19.4551 -2.0242 -0.0000 0.0000 -15.7093 23.6027 17.8083 7.6115 -7.1250 0.0000 -0.0000 -4.3490 49.2488 -0.4564 0.0000 -0.0000 0.0000 88.2984 -6.3528 29.9631 -18.2034 28.4169 -4.6456 0.0000 -0.0000 -15.6862 -30.4147 17.3254 -9.9162 7.1250 -0.0000 -0.0000 -1.6196 -10.0993 -1.3111
10.1246 17.8235 -0.4411 -0.5966 1.6314 -6.5985 0.0000 0.0000 0.0000 -22.8576 -1.2491 6.0364 0.9784 6.2966 17.6476 0.4307 7.8857 -17.7107 0.0110 -0.6786 -1.8648 0.0000 0.0000 0.0000 23.7509 3.3627 7.9002 -0.6457 -5.1403 14.3092 -0.5361 -3.4459 -15.5176 -0.0000 -0.0268 0.0736 1.5651 -0.7061 4.5698 0.9066 -0.8382 0.2567 0.1079 -0.4297 -2.3068 -3.6358 0.2652 -9.4760 3.6348 0.5660 4.0475 1.8695 0.3591 2.9677 -0.0000 0.0000 0.0000 -92.4888 7.2399 11.7030 12.3159 -20.2766 -2.2105 -0.0000 0.0000 -16.4184 23.4799 16.1576 6.8927 -7.1250 0.0000 -0.0000 -4.1065 47.4677 -0.2505 -0.0000 0.0000 0.0000 87.9901 -5.6870 30.2961 -17.6119 27.6573 -4.3676 0.0000 -0.0000 -15.4344 -30.2435 18.5638 -10.5152 7.1250 -0.0000 -0.0000 -1.3509 -8.7413 -1.1302
10.1235 17.8061 -0.4237 -0.2984 1.8134 -6.6121 0.0000 0.0000 0.0000 -23.1798 -1.1397 6.0540 0.9776 6.2940 17.6399 0.4194 7.8087 -17.5057 0.0247 -1.0137 -2.7866 0.0000 0.0000 0.0000 23.5446 3.7466 7.9567 -0.6906 -5.3126 14.8022 -0.5668 -3.5977 -15.9879 -0.0024 -0.3150 0.8655 1.0746 -0.7543 4.6901 0.7616 -0.9308 0.3860 0.2403 -0.4711 -2.2366 -2.3029 0.0815 -12.0699 2.1648 0.2711 7.0973 1.0564 0.1936 4.0763 0.0000 0.0000 0.0000 -92.3488 7.5500 14.3944 13.7882 -22.4311 -2.7468 -0.0000 0.0000 -18.2960 23.6572 14.8201 6.3935 -7.1250 0.0000 -0.0000 -3.6811 46.0590 -0.0963 0.0000 0.0000 0.0000 88.2247 -5.2740 30.2753 -17.4910 27.5005 -4.3116 0.0000 -0.0000 -15.2322 -30.3792 18.3398 -10.4508 7.1250 -0.0000 -0.0000 -1.4673 -8.9662 -1.2211
10.1374 17.7954 -0.3894 0.0059 2.1460 -6.6507 0.0000 0.0000 0.0000 -23.6083 -1.2104 6.3689 0.9509 6.2101 17.3954 0.3997 7.9566 -17.4108 0.0333 -1.1787 -3.2406 0.0000 0.0000 0.0000 23.1809 3.5831 7.9243 -0.7363 -5.4819 15.2883 -0.5992 -3.5959 -16.3725 -0.0035 -0.3842 1.0557 0.8248 -0.7447 4.3925 0.5713 -0.9413 0.5640 0.1796 -0.4738 -1.8864 -1.3970 -0.1658 -13.2966 0.8137 -0.0607 8.3926 0.4736 -0.0229 4.6826 -0.0000 0.0000 0.0000 -91.8323 7.2477 17.4211 14.8676 -23.9614 -3.1720 -0.0000 0.0000 -19.6668 23.4068 17.1291 7.2657 -7.1250 0.0000 -0.0000 -4.3842 48.4943 -0.3786 -0.0000 0.0000 0.0000 88.4744 -4.9845 29.6639 -17.3256 27.2850 -4.2355 0.0000 -0.0000 -15.1376 -30.7714 18.0129 -10.4330 7.1250 -0.0000 -0.0000 -1.7630 -9.2585 -1.4571
10.1554 17.8025 -0.3573 -0.0901 2.1654 -6.4433 0.0000 0.0000 0.0000 -23.5203 -1.1333 6.0595 0.9888 6.3290 17.7420 0.4501 7.6597 -17.7284 0.0221 -0.9598 -2.6383 0.0000 0.0000 0.0000 23.1938 3.5696 7.7887 -0.7294 -5.4567 15.2159 -0.6143 -3.3878 -16.4234 -0.0030 -0.3526 0.9689 1.1253 -0.6352 3.8508 0.4839 -0.7925 0.6782 -0.0947 -0.4001 -1.4708 -2.4521 -0.2676 -12.1884 2.0266 -0.1594 7.4802 1.0093 -0.0308 4.2231 -0.0000 -0.0000 0.0000 -91.6011 6.9683 19.4752 15.9177 -25.4089 -3.6106 -0.0000 0.0000 -20.4083 23.8481 15.7878 6.8582 -7.1250 0.0000 -0.0000 -3.6827 47.1243 -0.1933 -0.0000 -0.0000 0.0000 88.5705 -4.7904 29.1644 -17.0504 26.9241 -4.1101 0.0000 -0.0000 -14.9137 -30.4513 17.7657 -10.1697 7.1250 -0.0000 -0.0000 -1.5878 -9.5973 -1.3014
10.1688 17.7953 -0.3430 -0.7687 2.3478 -6.4356 0.0000 0.0000 0.0000 -22.8107 -1.2821 5.9093 1.0329 6.4644 18.1379 0.4763 7.3761 -17.7772 0.0289 -1.0973 -3.0166 0.0000 0.0000 0.0000 23.8333 3.2115 7.9828 -0.6816 -5.2785 14.7045 -0.6255 -3.3411 -16.5258 -0.0151 -0.7936 2.1809 1.7851 -0.7524 4.2070 0.5989 -0.9071 0.4217 -0.3334 -0.4646 -1.9430 -3.2063 -0.1604 -11.0688 3.3154 -0.0326 6.2464 1.6975 0.0659 4.0692 -0.0000 0.0000 0.0000 -91.2232 7.2031 21.3412 17.0823 -26.9661 -4.1246 -0.0000 0.0000 -21.5359 23.4756 18.0128 7.6491 -7.1250 0.0000 -0.0000 -4.5211 49.4464 -0.4966 -0.0000 0.0000 0.0000 88.5315 -5.4400 29.0982 -16.9827 26.8349 -4.0795 0.0000 -0.0000 -14.3131 -30.2067 17.6087 -9.9882 7.1250 -0.0000 -0.0000 -1.4489 -9.8190 -1.1810
10.1845 17.7963 -0.2961 -0.2637 2.2904 -6.5772 0.0000 0.0000 0.0000 -23.5985 -1.5622 6.5850 0.9951 6.3486 17.7993 0.4173 8.1221 -17.7775 0.0397 -1.2863 -3.5370 0.0000 0.0000 0.0000 23.2090 3.0421 8.1256 -0.7063 -5.3715 14.9712 -0.6245 -3.1699 -16.4134 -0.0006 -0.1586 0.4358 1.2864 -0.7184 4.1822 0.3841 -0.8905 0.4747 -0.2762 -0.4527 -1.8702 -3.1750 -0.0512 -11.2404 3.4919 0.0855 6.9598 1.5902 0.1470 3.9029 -0.0000 0.0000 0.0000 -91.1000 7.1099 22.2036 18.0980 -28.2825 -4.5956 -0.0000 0.0000 -22.1535 23.2723 19.8540 8.3105 -7.1250 0.0000 -0.0000 -5.1966 51.3654 -0.8166 -0.0000 0.0000 0.0000 88.3189 -5.6685 29.6863 -16.7853 26.5738 -3.9908 0.0000 -0.0000 -14.7182 -29.8102 17.8448 -9.9581 7.1250 -0.0000 -0.0000 -1.1622 -9.6271 -0.9517
10.1975 17.7787 -0.2676 0.7868 2.5459 -6.7800 0.0000 0.0000 0.0000 -24.8708 -1.4233 7.2783 0.9253 6.1283 17.1571 0.3829 8.4498 -17.6908 0.0427 -1.3336 -3.6671 0.0000 0.0000 0.0000 21.9586 2.7881 7.7365 -0.8423 -5.8540 16.3615 -0.7139 -2.6628 -17.1424 -0.0004 0.1239 -0.3404 0.1696 -0.6477 4.3452 0.1217 -0.8528 0.7067 0.0787 -0.4264 -1.7104 -3.0842 -0.2535 -11.2167 2.9701 -0.1337 5.8293 1.5462 0.0038 3.9497 0.0000 -0.0000 0.0000 -90.9063 6.5183 24.1802 18.8253 -29.2010 -4.9453 -0.0000 0.0000 -23.3918 23.9113 19.5300 8.4310 -7.1250 0.0000 -0.0000 -4.4707 51.1329 -0.6766 0.0000 -0.0000 0.0000 88.2320 -5.4174 28.9187 -16.5760 26.2954 -3.8976 0.0000 -0.0000 -14.1325 -29.7511 17.7731 -9.8969 7.1250 -0.0000 -0.0000 -1.1327 -9.7181 -0.9254
10.2142 17.7731 -0.2426 -0.1984 2.0141 -7.0282 0.0000 0.0000 0.0000 -23.8477 -1.4118 7.0057 1.0480 6.5100 18.2717 0.4616 8.3152 -18.4683 0.0397 -1.2854 -3.5345 0.0000 0.0000 0.0000 23.1253 3.2040 8.7126 -0.7556 -5.5517 15.4891 -0.7161 -2.9111 -17.2994 -0.0193 -0.8971 2.4657 1.0891 -0.5836 4.4817 0.5684 -0.7178 1.0688 0.0126 -0.3612 -1.4207 -0.9042 -0.5574 -14.5259 -0.2950 -0.5332 8.6428 0.0090 -0.3126 4.9619 -0.0000 0.0000 0.0000 -91.6801 6.3388 23.6328 19.8846 -30.5031 -5.4727 -0.0000 0.0000 -23.2247 23.6128 20.0325 8.5167 -7.1250 0.0000 -0.0000 -4.9054 51.6140 -0.8006 -0.0000 0.0000 0.0000 87.7475 -5.0201 28.9490 -16.4350 26.1069 -3.8354 0.0000 -0.0000 -14.1848 -30.2352 17.3832 -9.8778 7.1250 -0.0000 -0.0000 -1.4956 -10.0672 -1.2116
10.2304 17.7633 -0.2247 -0.6745 1.7229 -7.0732 0.0000 0.0000 0.0000 -23.3433 -1.1710 6.6659 1.1474 6.8018 19.1295 0.5277 8.0610 -18.9631 0.0157 -0.8078 -2.2200 0.0000 0.0000 0.0000 23.6083 3.0789 8.9322 -0.7106 -5.3874 15.0169 -0.6823 -2.9807 -16.9643 -0.0009 -0.1893 0.5202 1.5722 -0.6897 4.6484 0.7571 -0.8308 1.1151 -0.0564 -0.4190 -1.4711 -2.8142 -0.1573 -13.1030 2.0580 0.0747 6.9409 1.0943 0.0816 4.1997 0.0000 -0.0000 0.0000 -91.6555 6.4591 24.5830 20.3955 -31.1160 -5.7344 -0.0000 0.0000 -24.4273 23.9107 19.6590 8.4835 -7.1250 0.0000 -0.0000 -4.5056 51.2700 -0.6971 0.0000 -0.0000 0.0000 87.4085 -4.7488 29.0427 -16.0903 25.6429 -3.6850 0.0000 -0.0000 -14.4537 -30.1258 17.3397 -9.8119 7.1250 -0.0000 -0.0000 -1.4298 -10.1358 -1.1562
10.2389 17.7699 -0.1874 -1.1836 1.5557 -6.7595 0.0000 0.0000 0.0000 -22.8056 -1.5535 6.2282 1.2182 7.0009 19.7181 0.5935 7.7538 -19.3939 0.0562 -1.5298 -4.2078 0.0000 0.0000 0.0000 24.2112 3.3602 9.2429 -0.6363 -5.1035 14.2039 -0.6401 -3.2670 -16.6498 -0.0138 -0.7588 2.0853 1.8933 -0.8723 4.4192 1.0211 -1.0571 0.9293 0.0460 -0.5340 -1.5374 -2.6490 -0.0182 -13.5051 1.9112 0.2510 7.6926 1.0390 0.1635 4.4929 -0.0000 0.0000 0.0000 -91.6366 6.6193 24.8444 20.3970 -31.1177 -5.7351 -0.0000 0.0000 -24.9282 23.9808 19.8848 8.6035 -7.1250 0.0000 -0.0000 -4.4957 51.5222 -0.7234 -0.0000 0.0000 0.0000 87.1656 -4.8899 28.7689 -15.8434 25.3078 -3.5787 0.0000 -0.0000 -14.2898 -30.0221 17.3320 -9.7677 7.1250 -0.0000 -0.0000 -1.3631 -10.1632 -1.1015
10.2423 17.7820 -0.1652 -0.9662 1.2602 -6.7242 0.0000 0.0000 0.0000 -23.0377 -1.3834 6.0998 1.2221 7.0118 19.7505 0.6003 7.9474 -19.6313 0.0172 -0.8457 -2.3243 0.0000 0.0000 0.0000 24.0458 3.6723 9.5285 -0.6040 -4.9750 13.8372 -0.6118 -3.6064 -16.5257 -0.0188 -0.8864 2.4362 1.3605 -0.9265 4.2864 1.1725 -1.1576 1.0983 0.5010 -0.5808 -1.2774 -2.0068 0.1983 -15.4158 0.9423 0.5672 9.4385 0.6712 0.2716 5.3459 0.0000 -0.0000 0.0000 -92.1754 6.3258 24.3145 19.9654 -30.6007 -5.5137 -0.0000 0.0000 -24.0171 24.3662 18.6015 8.2207 -7.1250 0.0000 -0.0000 -3.7868 50.2200 -0.4878 0.0000 -0.0000 0.0000 86.8794 -4.4529 28.4153 -15.6732 25.0756 -3.5063 0.0000 -0.0000 -14.0251 -29.8346 17.5179 -9.7943 7.1250 -0.0000 -0.0000 -1.2182 -9.9885 -0.9887
10.2592 17.7817 -0.1206 -0.5499 1.0555 -6.6539 0.0000 0.0000 0.0000 -23.5569 -1.0393 6.5313 1.1267 6.7420 18.9534 0.5072 8.5278 -19.1685 0.0671 -1.6717 -4.5993 0.0000 0.0000 0.0000 23.5105 3.6829 9.2266 -0.6701 -5.2347 14.5791 -0.6695 -3.1560 -16.9202 -0.0164 -0.8266 2.2717 1.0165 -0.9776 4.2165 1.0176 -1.2405 0.8305 0.5412 -0.6224 -1.5095 -1.0561 0.2855 -15.5426 -0.0791 0.6238 10.4877 0.2037 0.2536 5.7037 -0.0000 0.0000 0.0000 -91.9560 6.6358 24.3185 19.2987 -29.7882 -5.1784 -0.0000 0.0000 -23.7062 23.9646 18.3002 7.9453 -7.1250 0.0000 -0.0000 -4.1108 49.8316 -0.4904 -0.0000 0.0000 0.0000 87.0574 -4.8498 27.6720 -15.5943 24.9674 -3.4729 0.0000 -0.0000 -13.6328 -29.9463 17.3975 -9.7735 7.1250 -0.0000 -0.0000 -1.3057 -10.1034 -1.0567
