HIERARCHY
ROOT Hips
{
	OFFSET 0.00000 0.00000 0.00000
	CHANNELS 6 Xposition Yposition Zposition Zrotation Yrotation Xrotation 
	JOINT LHipJoint
	{
		OFFSET 0 0 0
		CHANNELS 3 Zrotation Yrotation Xrotation
		JOINT LeftUpLeg
		{
			OFFSET 1.65674 -1.80282 0.62477
			CHANNELS 3 Zrotation Yrotation Xrotation
			JOINT LeftLeg
			{
				OFFSET 2.59720 -7.13576 0.00000
				CHANNELS 3 Zrotation Yrotation Xrotation
				JOINT LeftFoot
				{
					OFFSET 2.49236 -6.84770 0.00000
					CHANNELS 3 Zrotation Yrotation Xrotation
					JOINT LeftToeBase
					{
						OFFSET 0.19704 -0.54136 2.14581
						CHANNELS 3 Zrotation Yrotation Xrotation
						End Site
						{
							OFFSET 0.00000 -0.00000 1.11249
						}
					}
				}
			}
		}
	}
	JOINT RHipJoint
	{
		OFFSET 0 0 0
		CHANNELS 3 Zrotation Yrotation Xrotation
		JOINT RightUpLeg
		{
			OFFSET -1.61070 -1.80282 0.62476
			CHANNELS 3 Zrotation Yrotation Xrotation
			JOINT RightLeg
			{
				OFFSET -2.59502 -7.12977 0.00000
				CHANNELS 3 Zrotation Yrotation Xrotation
				JOINT RightFoot
				{
					OFFSET -2.46780 -6.78024 0.00000
					CHANNELS 3 Zrotation Yrotation Xrotation
					JOINT RightToeBase
					{
						OFFSET -0.23024 -0.63258 2.13368
						CHANNELS 3 Zrotation Yrotation Xrotation
						End Site
						{
							OFFSET -0.00000 -0.00000 1.11569
						}
					}
				}
			}
		}
	}
	JOINT LowerBack
	{
		OFFSET 0 0 0
		CHANNELS 3 Zrotation Yrotation Xrotation
		JOINT Spine
		{
			OFFSET 0.01961 2.05450 -0.14112
			CHANNELS 3 Zrotation Yrotation Xrotation
			JOINT Spine1
			{
				OFFSET 0.01021 2.06436 -0.05921
				CHANNELS 3 Zrotation Yrotation Xrotation
				JOINT Neck
				{
					OFFSET 0 0 0
					CHANNELS 3 Zrotation Yrotation Xrotation
					JOINT Neck1
					{
						OFFSET 0.00713 1.56711 0.14968
						CHANNELS 3 Zrotation Yrotation Xrotation
						JOINT Head
						{
							OFFSET 0.03429 1.56041 -0.10006
							CHANNELS 3 Zrotation Yrotation Xrotation
							End Site
							{
								OFFSET 0.01305 1.62560 -0.05265
							}
						}
					}
				}
				JOINT LeftShoulder
				{
					OFFSET 0 0 0
					CHANNELS 3 Zrotation Yrotation Xrotation
					JOINT LeftArm
					{
						OFFSET 3.54205 0.90436 -0.17364
						CHANNELS 3 Zrotation Yrotation Xrotation
						JOINT LeftForeArm
						{
							OFFSET 4.86513 -0.00000 -0.00000
							CHANNELS 3 Zrotation Yrotation Xrotation
							JOINT LeftHand
							{
								OFFSET 3.35554 -0.00000 0.00000
								CHANNELS 3 Zrotation Yrotation Xrotation
								JOINT LeftFingerBase
								{
									OFFSET 0 0 0
									CHANNELS 3 Zrotation Yrotation Xrotation
									JOINT LeftHandIndex1
									{
										OFFSET 0.66117 -0.00000 0.00000
										CHANNELS 3 Zrotation Yrotation Xrotation
										End Site
										{
											OFFSET 0.53306 -0.00000 0.00000
										}
									}
								}
								JOINT LThumb
								{
									OFFSET 0 0 0
									CHANNELS 3 Zrotation Yrotation Xrotation
									End Site
									{
										OFFSET 0.54120 -0.00000 0.54120
									}
								}
							}
						}
					}
				}
				JOINT RightShoulder
				{
					OFFSET 0 0 0
					CHANNELS 3 Zrotation Yrotation Xrotation
					JOINT RightArm
					{
						OFFSET -3.49802 0.75994 -0.32616
						CHANNELS 3 Zrotation Yrotation Xrotation
						JOINT RightForeArm
						{
							OFFSET -5.02649 -0.00000 0.00000
							CHANNELS 3 Zrotation Yrotation Xrotation
							JOINT RightHand
							{
								OFFSET -3.36431 -0.00000 0.00000
								CHANNELS 3 Zrotation Yrotation Xrotation
								JOINT RightFingerBase
								{
									OFFSET 0 0 0
									CHANNELS 3 Zrotation Yrotation Xrotation
									JOINT RightHandIndex1
									{
										OFFSET -0.73041 -0.00000 0.00000
										CHANNELS 3 Zrotation Yrotation Xrotation
										End Site
										{
											OFFSET -0.58887 -0.00000 0.00000
										}
									}
								}
								JOINT RThumb
								{
									OFFSET 0 0 0
									CHANNELS 3 Zrotation Yrotation Xrotation
									End Site
									{
										OFFSET -0.59786 -0.00000 0.59786
									}
								}
							}
						}
					}
				}
			}
		}
	}
}
MOTION
Frames: 44
Frame Time: 0.033333
9.2872 16.95 -34.2762 0 0 0 0 0 0 -21 0 0 0 0 0 0 0 0 0 0 0 0 0 0 21 0 0 0 0 0 0 0 0 0 0 0 0 0 0 0 0 0 0 0 0 0 0 -16 0 0 21 0 0 11 0 0 0 -8 0 0 0 0 0 0 0 0 0 0 0 0 0 0 0 0 0 0 0 0 8 0 0 0 0 0 0 0 0 0 0 0 0 0 0 0 0 0
9.2493 17.0163 -33.2206 3.8095 3.3080 7.6764 0.0000 0.0000 0.0000 -26.9981 -0.1209 12.9510 2.8274 10.4103 30.3159 1.2293 16.5159 21.4728 0.0000 0.0000 0.0000 0.0000 0.0000 0.0000 15.7871 17.2723 -33.7264 -4.8196 -13.1777 40.0373 -1.4474 -4.8024 -24.9019 -1.3144 7.2617 -20.4929 -4.3582 -4.2259 6.3418 0.6922 -5.8909 1.2405 3.5761 -2.9195 -1.7476 -2.8394 3.2228 -17.5937 -0.4726 4.7831 -3.8725 0.6560 2.3879 1.6836 -0.0000 -0.0000 0.0000 -71.7595 -4.8020 62.9966 124.6581 -54.9352 -89.5043 -0.0000 0.0000 -33.8492 32.3603 1.9818 1.2553 -7.1250 0.0000 -0.0000 4.6622 32.3024 -1.4534 -0.0000 -0.0000 0.0000 81.4179 -39.3451 38.6057 -75.0381 59.1370 -47.0801 0.0000 -0.0000 -12.1663 -47.3684 34.0055 -31.2800 7.1250 -0.0000 -0.0000 -7.7496 14.5527 -9.5230
9.2162 16.9504 -31.9227 3.3130 2.2694 7.6129 0.0000 0.0000 0.0000 -25.9120 -0.3589 5.8084 6.8143 15.1735 48.1685 0.4111 13.4961 13.9059 1.3792 -7.4315 -21.0002 0.0000 0.0000 0.0000 18.1142 16.1236 -31.4583 -4.1346 -12.3374 36.9362 -1.1771 -5.5824 -23.2155 -1.3961 7.4750 -21.1304 -3.5779 -3.7690 6.8276 0.9785 -5.2490 0.8206 3.4611 -2.5759 -2.5543 -2.3368 3.2305 -16.7053 -1.8241 4.7000 -3.9553 0.1121 2.3031 1.5470 0.0000 -0.0000 0.0000 -73.1747 1.8587 64.8029 119.5532 -56.4278 -85.2869 -0.0000 0.0000 -30.9644 31.0107 0.2449 0.1472 -7.1250 0.0000 -0.0000 3.5133 30.2558 -1.2667 0.0000 -0.0000 0.0000 82.3928 -34.1096 38.5489 -78.3747 59.4831 -49.9497 0.0000 -0.0000 -11.6972 -46.9458 34.4519 -31.1951 7.1250 -0.0000 -0.0000 -7.3883 14.8358 -9.0985
9.2055 16.6185 -30.6551 1.0238 0.8200 5.5257 0.0000 0.0000 0.0000 -22.5610 -0.1685 -0.7147 13.0265 18.7917 69.2079 -0.3090 14.2787 5.8757 0.5017 -4.5410 -12.6038 0.0000 0.0000 0.0000 23.0985 14.2664 -26.1279 -4.5336 -12.8385 38.7670 -1.1576 -3.0426 -21.6292 -0.4258 4.1878 -11.6056 -1.1424 -2.9984 8.5123 1.4833 -4.0335 1.9047 2.5951 -1.9979 -2.6020 -1.1959 2.8834 -16.0286 -3.3298 3.9853 -5.7972 -0.6308 1.9251 0.8820 -0.0000 0.0000 0.0000 -73.6854 8.0368 64.6779 112.4253 -58.0118 -79.2913 -0.0000 0.0000 -31.4546 32.5993 0.6117 0.3912 -7.1250 0.0000 -0.0000 4.7872 30.6864 -1.6790 -0.0000 0.0000 0.0000 82.1323 -24.0039 39.7489 -82.8246 59.8046 -53.7900 0.0000 -0.0000 -11.3580 -47.0795 33.5014 -30.6912 7.1250 -0.0000 -0.0000 -7.7628 13.8541 -9.4713
9.1918 16.2456 -29.4408 -1.5566 -2.6287 4.2164 0.0000 0.0000 0.0000 -18.2460 1.0915 -10.6864 20.0859 19.9998 90.2513 -0.3907 12.6179 1.9756 0.3745 -3.9307 -10.8819 0.0000 0.0000 0.0000 27.5767 16.5945 -22.3874 -5.9531 -14.3827 44.7930 -1.5991 -1.5672 -24.5088 -0.0016 -0.2545 0.6993 0.9238 -1.7377 10.4784 2.3480 -2.1211 2.6518 2.1909 -1.0577 -3.0520 -2.8684 3.0206 -11.5407 -2.0278 4.1671 -11.0611 -0.0814 2.1939 -1.5777 -0.0000 -0.0000 0.0000 -73.9155 13.6066 62.3107 100.0302 -59.6164 -68.6752 -0.0000 0.0000 -30.5961 33.4936 3.4171 2.2587 -7.1250 0.0000 -0.0000 5.6501 34.0341 -1.5262 -0.0000 -0.0000 0.0000 79.5218 -10.2950 42.0422 -89.5824 59.9993 -59.6384 0.0000 -0.0000 -11.1363 -47.2549 32.8403 -30.4026 7.1250 -0.0000 -0.0000 -8.0626 13.2040 -9.7761
9.2397 15.9709 -28.2410 -5.3909 -7.4712 3.2965 0.0000 0.0000 0.0000 -12.3632 3.1490 -21.2201 25.3313 19.3044 105.7634 -0.3088 9.8090 -3.0368 1.1462 -6.7983 -19.1193 0.0000 0.0000 0.0000 32.9703 15.8915 -16.4126 -6.4536 -14.8540 46.7763 -2.0194 1.9044 -26.3656 -0.0032 0.3661 -1.0059 4.9322 -0.4745 12.8755 3.1855 0.1099 3.8252 0.5322 0.0324 -3.1905 -2.5028 3.5548 -12.3354 -2.8398 4.7877 -12.2054 -0.3835 2.5099 -1.7978 -0.0000 0.0000 0.0000 -73.7453 20.5170 58.2549 89.0423 -59.9965 -59.1706 -0.0000 0.0000 -28.6740 38.4630 3.1832 2.5257 -7.1250 0.0000 -0.0000 9.7118 33.9204 -2.6719 -0.0000 0.0000 0.0000 76.5871 6.7539 44.4663 -95.6967 59.8770 -64.9314 0.0000 -0.0000 -9.1460 -48.3988 33.0340 -31.5489 7.1250 -0.0000 -0.0000 -8.5933 13.9896 -10.5185
9.2412 15.9449 -26.9467 -5.2667 -10.5781 4.2668 0.0000 0.0000 0.0000 -11.5768 1.9264 -32.2607 27.5252 18.5842 112.5140 -0.2181 9.0994 -7.4379 1.5105 -7.7618 -21.9930 0.0000 0.0000 0.0000 33.0790 15.5474 -11.3984 -6.1992 -14.6186 45.7759 -2.4214 4.0182 -28.4934 -0.0001 -0.0497 0.1365 5.4985 0.3028 12.6293 2.3719 1.1618 3.6318 -0.7947 0.5491 -3.1996 -0.5902 3.6769 -10.4835 -3.1099 4.6703 -13.9149 -0.8555 2.4048 -2.6148 0.0000 0.0000 0.0000 -72.6250 28.9900 54.1254 82.4402 -59.7829 -53.4578 -0.0000 0.0000 -30.6888 37.9885 8.1828 6.3427 -7.1250 0.0000 -0.0000 9.7860 40.1309 -1.1877 0.0000 0.0000 0.0000 75.8523 19.2709 46.4148 -103.3853 59.3121 -71.5652 0.0000 -0.0000 -5.9101 -48.3444 34.6839 -32.6063 7.1250 -0.0000 -0.0000 -8.0236 15.7865 -9.9863
9.2513 16.1185 -25.5551 -4.4592 -11.6018 5.0784 0.0000 0.0000 0.0000 -12.6786 -3.1443 -40.1825 26.8704 18.8285 110.4725 -0.2361 10.5520 -10.4231 0.6903 -5.3115 -14.7992 0.0000 0.0000 0.0000 32.3916 14.6003 -4.1139 -4.9545 -13.3324 40.6258 -2.1992 3.2598 -27.2408 -0.1517 2.5100 -6.9175 5.7202 1.0817 11.8011 1.5886 2.1564 3.0554 -1.8684 1.0325 -3.2574 -1.1394 2.9346 -9.8696 -1.0882 3.8972 -13.8296 -0.1368 2.0085 -2.7524 0.0000 0.0000 0.0000 -71.1333 35.6242 52.2458 78.0980 -59.4579 -49.7113 -0.0000 0.0000 -28.4406 37.3472 4.4654 3.4001 -7.1250 0.0000 -0.0000 8.9154 35.4730 -2.1078 0.0000 0.0000 0.0000 74.5307 26.4076 46.3048 -112.6371 57.9723 -79.4709 0.0000 -0.0000 -4.9982 -52.1520 35.8747 -37.0229 7.1250 -0.0000 -0.0000 -9.5124 19.1355 -12.2388
9.2275 16.5238 -24.0486 -3.4049 -10.9005 5.9015 0.0000 0.0000 0.0000 -13.7020 -10.0741 -44.1229 23.6461 19.6782 100.7156 -0.1874 11.0356 -12.5084 0.3696 -3.9051 -10.8099 0.0000 0.0000 0.0000 31.3816 13.2401 2.8262 -3.6127 -11.6264 34.4228 -1.2259 0.5621 -20.7605 -0.8141 5.7578 -16.0832 5.5005 1.5008 10.5269 0.8189 2.6084 2.2625 -2.5794 1.2451 -3.3264 -0.3761 2.1330 -9.8882 -0.7423 2.8032 -13.5534 -0.1563 1.4210 -2.6456 0.0000 0.0000 0.0000 -70.9490 41.2437 49.9604 76.5211 -59.3023 -48.3543 -0.0000 0.0000 -29.2597 36.1423 3.8033 2.7735 -7.1250 0.0000 -0.0000 7.8586 34.6015 -2.0219 0.0000 0.0000 0.0000 73.7554 28.6363 45.9989 -120.8350 56.0833 -86.3528 0.0000 -0.0000 -8.1863 -55.8607 38.3641 -42.4696 7.1250 -0.0000 -0.0000 -10.3427 23.9733 -13.8136
9.2073 16.9814 -22.4767 -2.8951 -9.4723 6.3977 0.0000 0.0000 0.0000 -14.0987 -14.7001 -44.1224 18.3970 19.9383 85.3084 0.0511 10.1066 -15.1903 0.3229 -3.6525 -10.1011 0.0000 0.0000 0.0000 29.8379 9.3521 7.5895 -2.6582 -10.1200 29.3662 -0.0692 -2.1630 -6.2568 -1.4095 7.5093 -21.2332 5.5292 1.5487 9.3170 0.6050 2.6295 1.3293 -2.7952 1.2319 -3.6174 -1.5280 1.3967 -10.9072 0.7413 2.0409 -10.9320 0.5178 1.0639 -1.6407 0.0000 -0.0000 0.0000 -73.3166 45.4615 46.3379 76.9726 -59.3489 -48.7426 -0.0000 0.0000 -30.3836 34.7766 4.1802 2.8977 -7.1250 0.0000 -0.0000 6.7511 35.0006 -1.6674 0.0000 -0.0000 0.0000 73.5396 25.6115 46.9855 -127.5707 53.9295 -91.8739 0.0000 -0.0000 -9.8007 -54.8714 38.9884 -41.8050 7.1250 -0.0000 -0.0000 -9.6125 23.9983 -12.8198
9.1795 17.4811 -20.8620 -3.0727 -8.8831 5.7126 0.0000 0.0000 0.0000 -14.6811 -15.2809 -39.5718 11.6178 18.2244 64.7720 0.2815 8.2547 -16.2284 0.5898 -4.9169 -13.6718 0.0000 0.0000 0.0000 28.0118 4.6905 11.8660 -1.8841 -8.6203 24.6147 -0.2622 -7.6741 9.8783 -0.9252 6.1277 -17.1555 5.6768 1.8456 9.1799 0.7309 3.0426 1.1438 -2.7922 1.4296 -3.6982 -3.2397 0.7973 -12.6466 2.5674 1.5384 -8.6176 1.3935 0.8681 -0.6502 -0.0000 0.0000 0.0000 -77.8201 47.3003 40.9544 78.4530 -59.4901 -50.0172 -0.0000 0.0000 -30.0880 33.3342 4.5185 2.9662 -7.1250 0.0000 -0.0000 5.5654 35.3386 -1.3261 -0.0000 0.0000 0.0000 73.7434 20.3347 48.1216 -129.7129 53.1107 -93.5964 0.0000 -0.0000 -6.6625 -55.9320 37.7548 -42.1586 7.1250 -0.0000 -0.0000 -10.6278 23.3925 -14.1501
9.1399 17.7513 -19.2424 -3.4441 -9.4465 5.6346 0.0000 0.0000 0.0000 -15.1315 -14.4178 -34.3696 5.9938 14.4223 44.9568 0.6116 5.6156 -17.8798 0.9847 -6.3161 -17.7044 0.0000 0.0000 0.0000 27.6100 4.5258 13.8637 -2.3065 -9.4773 27.3001 -0.4817 -10.0210 13.2853 -0.9710 6.2733 -17.5795 5.4214 2.2347 7.8006 0.9659 3.4521 1.1341 -2.3825 1.6607 -2.9332 -2.9877 0.6664 -13.7862 2.3371 1.3345 -6.8103 1.2905 0.7601 0.1176 -0.0000 0.0000 0.0000 -83.4926 47.2623 34.9738 81.8869 -59.7498 -52.9797 -0.0000 0.0000 -31.0480 32.1526 3.0745 1.9309 -7.1250 0.0000 -0.0000 4.5359 33.5847 -1.2730 -0.0000 0.0000 0.0000 73.6720 14.8321 49.5210 -129.7254 53.1057 -93.6064 0.0000 -0.0000 -9.6818 -50.9946 37.0017 -36.6148 7.1250 -0.0000 -0.0000 -8.5264 19.6889 -10.9960
9.1060 17.7992 -17.6316 -4.1343 -9.9857 4.8440 0.0000 0.0000 0.0000 -15.5636 -13.7411 -29.0267 3.2352 11.0665 32.5043 0.9545 4.3774 -20.5339 1.5165 -7.7766 -22.0377 0.0000 0.0000 0.0000 27.7963 4.8141 14.3160 -3.7422 -11.8092 35.0603 0.0961 -13.8442 8.5141 -0.4512 4.3093 -11.9485 5.4727 2.4555 7.6130 1.3201 3.7503 1.0961 -2.0634 1.8107 -2.8654 -3.2345 0.7338 -13.7465 2.6673 1.4521 -6.0333 1.4514 0.8265 0.3568 0.0000 -0.0000 0.0000 -88.2572 45.0819 29.9823 85.5031 -59.9235 -56.1066 -0.0000 0.0000 -30.2360 31.3150 2.6642 1.6198 -7.1250 0.0000 -0.0000 3.8393 33.0804 -1.1236 0.0000 -0.0000 0.0000 73.3674 8.2609 51.0044 -125.2581 54.7377 -89.9948 0.0000 -0.0000 -12.0079 -48.4634 35.7986 -33.4368 7.1250 -0.0000 -0.0000 -7.7042 17.0575 -9.6974
9.0697 17.6592 -16.1102 -5.0449 -9.7845 3.4906 0.0000 0.0000 0.0000 -16.5022 -12.4278 -25.3174 2.8321 10.4182 30.3418 1.0706 6.0922 -22.6446 1.7408 -8.3039 -23.6409 0.0000 0.0000 0.0000 28.6917 6.0304 12.2274 -6.5010 -14.8969 46.9607 0.1850 -13.6350 7.1082 -0.6505 5.1594 -14.3637 6.4242 2.2909 8.1795 1.2415 3.6076 1.9197 -2.6634 1.7648 -2.2696 -2.7660 0.7035 -13.6844 2.8075 1.3663 -7.2587 1.4000 0.7770 -0.0434 -0.0000 0.0000 0.0000 -90.2504 39.3705 27.8344 89.6422 -59.9995 -59.6901 -0.0000 0.0000 -29.3218 30.4771 0.7451 0.4385 -7.1250 0.0000 -0.0000 3.1084 30.8359 -1.0771 -0.0000 0.0000 0.0000 74.2768 2.0540 51.4225 -118.8071 56.6195 -84.6645 0.0000 -0.0000 -13.0840 -47.1431 35.5818 -32.0921 7.1250 -0.0000 -0.0000 -7.1151 16.1607 -8.8715
9.0301 17.2726 -14.6529 -4.1970 -8.2359 2.3420 0.0000 0.0000 0.0000 -19.5348 -10.8375 -22.3442 3.3677 11.2677 33.1883 1.0269 0.7482 -19.4357 1.2494 -7.0869 -19.9732 0.0000 0.0000 0.0000 27.0645 6.3890 5.7754 -11.2189 -18.0406 63.4906 0.1459 -10.8709 5.1164 -1.5326 7.8159 -22.1564 5.7463 1.5736 8.9764 0.5174 2.6214 2.2360 -2.9719 1.2785 -2.4690 -1.2271 0.7930 -13.8755 2.2192 1.2655 -7.5159 0.9434 0.6838 -0.0865 0.0000 -0.0000 0.0000 -89.9254 32.0857 28.4022 96.2234 -59.8531 -65.3870 -0.0000 0.0000 -27.9728 30.9955 3.2931 1.9765 -7.1250 0.0000 -0.0000 3.5935 33.8039 -0.9884 0.0000 -0.0000 0.0000 75.6628 -4.8799 51.4102 -108.5229 58.6631 -75.9693 0.0000 -0.0000 -12.9647 -48.6120 35.0262 -33.0760 7.1250 -0.0000 -0.0000 -8.0435 16.2970 -10.0602
8.9526 16.8077 -13.2731 -0.2473 -5.9470 1.6694 0.0000 0.0000 0.0000 -25.6795 -11.0511 -20.8032 4.7085 13.0478 39.5476 1.0440 -0.7553 -19.0790 0.0364 -1.2312 -3.3851 0.0000 0.0000 0.0000 21.4355 6.8171 -3.8462 -17.4032 -19.8375 82.3877 0.3079 -10.2429 -0.5146 -1.6785 8.1616 -23.2060 0.9943 0.7423 9.8762 -0.7133 1.0544 2.5224 -1.4262 0.5166 -2.8820 -0.7144 0.9992 -12.5629 2.2809 1.5183 -10.3394 0.8658 0.7732 -1.1902 -0.0000 -0.0000 0.0000 -87.1434 21.7705 32.1173 105.2235 -59.1059 -73.1444 -0.0000 0.0000 -26.9172 31.8833 2.1761 1.3531 -7.1250 0.0000 -0.0000 4.2846 32.5220 -1.3124 -0.0000 -0.0000 0.0000 75.9632 -12.0813 50.9520 -96.1722 59.8556 -65.3427 0.0000 -0.0000 -13.1355 -49.0236 35.4486 -33.7325 7.1250 -0.0000 -0.0000 -8.1060 16.9687 -10.2030
8.8913 16.4084 -11.9559 3.1874 -3.2028 -0.2314 0.0000 0.0000 0.0000 -31.1479 -11.6709 -16.0780 5.9986 14.4270 44.9762 1.6409 -3.2327 -23.3985 0.0101 0.6504 1.7872 0.0000 0.0000 0.0000 15.9496 6.5419 -14.0513 -23.2030 -19.7522 99.4021 0.4239 -11.5415 -5.8344 -0.8153 5.7617 -16.0946 -2.8727 0.1872 13.1826 -1.6896 -0.2229 3.2021 -0.1092 -0.0921 -4.0162 -2.7765 0.5964 -10.3371 4.6876 1.4434 -14.5012 2.0254 0.7500 -2.9914 0.0000 0.0000 0.0000 -82.2489 7.4766 37.9398 112.6442 -57.9710 -79.4769 -0.0000 0.0000 -27.4186 32.7145 2.7838 1.7869 -7.1250 0.0000 -0.0000 4.9838 33.2579 -1.4390 0.0000 0.0000 0.0000 77.0030 -19.3658 47.9093 -79.3241 59.5649 -50.7679 0.0000 -0.0000 -10.0078 -52.0409 35.7400 -36.8231 7.1250 -0.0000 -0.0000 -9.5067 18.9270 -12.2102
8.8105 16.2887 -10.5557 3.2331 -2.3616 0.7002 0.0000 0.0000 0.0000 -31.5930 -8.5332 -12.2288 5.9746 14.4037 44.8799 1.9784 -7.1512 -25.2842 0.0165 0.8303 2.2819 0.0000 0.0000 0.0000 15.2663 10.3029 -26.5861 -26.4490 -18.9721 109.1717 0.4583 -13.3342 -11.3741 -0.7779 5.6312 -15.7179 -3.6681 -0.1734 13.0125 -1.7299 -0.8088 2.8858 0.3916 -0.3682 -4.2325 -1.6824 0.2511 -11.4705 3.4490 0.7595 -13.5829 1.4032 0.3940 -2.4324 -0.0000 0.0000 0.0000 -78.1988 -3.9224 42.1576 119.0841 -56.5491 -84.8957 -0.0000 0.0000 -25.2989 32.2547 2.5782 1.6260 -7.1250 0.0000 -0.0000 4.6011 33.0032 -1.3563 -0.0000 0.0000 0.0000 77.3043 -26.5420 46.6348 -67.4027 57.9798 -40.5629 0.0000 -0.0000 -11.2713 -52.9544 36.3747 -38.1575 7.1250 -0.0000 -0.0000 -9.7220 20.1345 -12.6157
8.7400 16.4619 -9.0177 2.6193 -0.8634 1.1778 0.0000 0.0000 0.0000 -31.3486 -6.4373 -4.4011 4.7926 13.1464 39.9188 1.7187 -8.2224 -23.4879 0.0280 1.0805 2.9704 0.0000 0.0000 0.0000 15.6442 14.2254 -34.9651 -26.4265 -18.9795 109.1023 0.2184 -11.5236 -12.7874 -0.3601 3.8548 -10.6684 -3.8823 -1.4381 12.3582 -0.9960 -2.4524 2.4549 1.5299 -1.1689 -4.2270 -2.3705 0.9924 -11.3708 3.0348 1.7526 -12.8271 1.3960 0.9246 -2.2268 0.0000 0.0000 0.0000 -76.0394 -9.4312 43.8359 127.3482 -54.0106 -91.6939 -0.0000 0.0000 -25.5748 33.2872 2.0372 1.3370 -7.1250 0.0000 -0.0000 5.4129 32.3848 -1.6783 0.0000 0.0000 0.0000 75.3388 -32.3388 47.7146 -61.9973 56.8191 -36.0079 0.0000 -0.0000 -9.3740 -54.3627 36.0963 -39.4126 7.1250 -0.0000 -0.0000 -10.5194 20.6769 -13.7343
8.7084 16.8079 -7.3792 1.8888 -0.3281 2.3551 0.0000 0.0000 0.0000 -31.2645 -5.3216 3.2192 3.4926 11.4527 33.8223 0.9387 -3.4764 -17.4713 0.5914 -4.9233 -13.6901 0.0000 0.0000 0.0000 15.7370 19.9339 -40.3262 -23.8532 -19.6402 101.3312 -0.2443 -7.0224 -14.4425 -1.3839 7.4435 -21.0362 -3.3511 -2.6997 10.1951 -0.2005 -3.9542 1.6457 2.1897 -1.9169 -3.7776 -1.6421 1.9984 -12.8342 1.0597 2.8656 -10.1978 0.6745 1.4713 -1.1211 -0.0000 0.0000 0.0000 -74.6923 -10.7864 44.9221 132.8361 -51.7856 -96.0729 -0.0000 0.0000 -27.3661 34.9093 1.2592 0.8786 -7.1250 0.0000 -0.0000 6.6654 31.4723 -2.2181 -0.0000 0.0000 0.0000 73.4041 -37.2017 48.8514 -60.2512 56.3765 -34.5502 0.0000 -0.0000 -8.5196 -54.6411 36.4410 -39.9327 7.1250 -0.0000 -0.0000 -10.5235 21.2139 -13.7953
8.6994 17.2996 -5.6738 1.1669 -0.3474 2.1658 0.0000 0.0000 0.0000 -30.3004 -2.5260 10.6296 2.3178 9.4988 27.3683 0.0167 1.2283 -3.2172 1.3136 -7.2596 -20.4867 0.0000 0.0000 0.0000 16.1603 23.3492 -40.5889 -19.2250 -19.9856 87.7337 -0.4990 -5.6410 -16.5983 -1.2378 7.0550 -19.8783 -2.4408 -3.5697 9.2138 0.5393 -4.9665 1.0193 2.5295 -2.4211 -3.8363 -1.9023 2.9527 -12.9018 0.2828 4.1221 -8.6476 0.5243 2.0985 -0.6299 -0.0000 0.0000 0.0000 -74.4687 -8.9779 46.5528 135.0774 -50.7305 -97.8212 -0.0000 0.0000 -27.0167 34.1925 0.6079 0.4130 -7.1250 0.0000 -0.0000 6.0488 30.6834 -2.1258 -0.0000 0.0000 0.0000 72.3089 -41.6320 49.0597 -61.1498 56.6086 -35.2995 0.0000 -0.0000 -9.7042 -53.9237 36.0764 -38.9464 7.1250 -0.0000 -0.0000 -10.3112 20.3901 -13.4259
8.6716 17.7800 -3.9154 1.1426 -0.3158 1.6921 0.0000 0.0000 0.0000 -28.7664 0.8415 15.6388 1.6190 8.0228 22.7835 0.4927 7.0955 12.7089 1.3675 -7.4013 -20.9097 0.0000 0.0000 0.0000 16.6757 23.7102 -37.2434 -13.3378 -18.9007 70.1714 -0.8022 -6.1491 -20.2412 -1.1078 6.6872 -18.7918 -2.2685 -4.0240 7.8730 0.9352 -5.5154 0.7692 2.8045 -2.7054 -3.2953 -1.7686 3.4371 -14.0535 -0.5671 4.7578 -6.2232 0.3211 2.3859 0.3355 -0.0000 0.0000 0.0000 -75.4280 -5.4964 49.4481 135.3462 -50.5978 -98.0291 -0.0000 0.0000 -25.9579 33.7613 0.7937 0.5306 -7.1250 0.0000 -0.0000 5.7195 30.9056 -1.9784 -0.0000 0.0000 0.0000 73.7001 -45.3616 46.7060 -63.7343 57.2256 -37.4651 0.0000 -0.0000 -10.7531 -52.0364 35.7123 -36.8002 7.1250 -0.0000 -0.0000 -9.5146 18.8946 -12.2173
8.6551 18.0976 -2.1789 2.4469 0.1667 2.2322 0.0000 0.0000 0.0000 -29.2219 2.1050 16.6660 2.0762 9.0230 25.8674 0.4068 8.9992 12.1404 1.1437 -6.7909 -19.0975 0.0000 0.0000 0.0000 15.5702 22.6051 -33.9189 -7.8561 -16.0124 52.0429 -1.1101 -4.7994 -22.1764 -1.1563 6.8270 -19.2039 -2.5645 -4.1220 5.4985 0.4186 -5.6359 0.4108 2.2663 -2.7814 -2.3591 -0.6727 3.3387 -15.4451 -1.9810 4.5272 -3.5621 -0.2487 2.1922 1.5073 0.0000 -0.0000 0.0000 -75.2712 -2.4495 53.2926 134.8986 -50.8181 -97.6827 -0.0000 0.0000 -29.0872 33.2856 0.9435 0.6193 -7.1250 0.0000 -0.0000 5.3507 31.0825 -1.8271 0.0000 -0.0000 0.0000 78.3661 -47.8159 41.6669 -67.7471 58.0436 -40.8550 0.0000 -0.0000 -11.3896 -50.9835 35.7425 -35.7891 7.1250 -0.0000 -0.0000 -8.9810 18.3371 -11.4639
8.6736 18.2146 -0.5045 4.0702 0.5331 2.1366 0.0000 0.0000 0.0000 -29.6755 3.9684 14.6968 3.6256 11.6448 34.4868 -0.2051 12.5221 5.7106 0.5628 -4.8048 -13.3527 0.0000 0.0000 0.0000 14.4272 21.0877 -29.6410 -4.2950 -12.5430 37.6809 -1.3511 -2.0463 -22.7821 -1.4857 7.7008 -21.8088 -2.7675 -4.2145 4.9142 -0.2897 -5.7755 0.2406 1.6232 -2.8521 -2.2543 -1.9303 3.4995 -14.7952 -1.1825 4.9148 -4.0267 0.2162 2.4300 1.1864 0.0000 0.0000 0.0000 -75.1530 2.0207 56.1520 134.0136 -51.2426 -96.9946 -0.0000 0.0000 -29.4234 32.9096 -0.0678 -0.0439 -7.1250 0.0000 -0.0000 4.9934 29.8805 -1.8482 0.0000 0.0000 0.0000 81.7402 -47.7253 38.8286 -72.7219 58.8414 -45.0949 0.0000 -0.0000 -12.5554 -49.9812 34.5615 -34.0438 7.1250 -0.0000 -0.0000 -8.8933 16.5071 -11.1657
8.6531 18.1225 1.1453 4.8334 1.0748 0.9726 0.0000 0.0000 0.0000 -28.2225 5.8919 11.6901 6.3440 14.7536 46.3472 -0.5038 13.3668 0.2481 0.4038 -4.0794 -11.3002 0.0000 0.0000 0.0000 15.0039 19.3768 -25.0670 -2.9348 -10.5887 30.9050 -1.7159 -2.8156 -25.8930 -1.3827 7.4405 -21.0271 -3.1875 -3.9688 5.2439 -0.3681 -5.4717 0.8105 1.7547 -2.7106 -1.8332 -1.6342 3.3049 -15.7721 -2.6818 4.6543 -3.8725 -0.2984 2.2462 1.4546 0.0000 -0.0000 0.0000 -76.4772 7.0383 58.9030 132.4558 -51.9557 -95.7737 -0.0000 0.0000 -29.3050 33.1784 0.4835 0.3161 -7.1250 0.0000 -0.0000 5.2384 30.5346 -1.8574 0.0000 -0.0000 0.0000 84.3535 -45.1526 36.9635 -76.5102 59.3011 -48.3449 0.0000 -0.0000 -12.3362 -49.7776 34.8601 -34.0521 7.1250 -0.0000 -0.0000 -8.6881 16.7253 -10.9249
8.6468 17.8026 2.7266 3.9480 1.0194 -0.4611 0.0000 0.0000 0.0000 -25.3380 6.5693 6.4991 10.7660 17.8186 62.0192 -0.6252 13.8820 -4.0599 0.4359 -4.2368 -11.7439 0.0000 0.0000 0.0000 17.6863 17.7800 -20.2265 -2.6833 -10.1638 29.5088 -1.7252 -4.2817 -26.6573 -1.3774 7.4268 -20.9861 -2.3092 -3.4636 6.4149 0.1407 -4.7558 1.5771 1.7983 -2.3656 -1.7601 -2.0853 3.0101 -16.4217 -2.8562 4.3585 -4.0602 -0.2863 2.0966 1.4962 -0.0000 -0.0000 0.0000 -77.9665 12.1455 60.1099 128.9203 -53.4218 -92.9612 -0.0000 0.0000 -30.9063 32.9388 -0.9943 -0.6441 -7.1250 0.0000 -0.0000 4.9580 28.7807 -1.9652 -0.0000 -0.0000 0.0000 85.4913 -39.6619 36.7743 -80.0234 59.6205 -51.3710 0.0000 -0.0000 -10.8278 -50.6291 34.8530 -34.8550 7.1250 -0.0000 -0.0000 -9.1189 17.1765 -11.5252
8.6544 17.3224 4.2539 2.5346 0.1963 -0.9450 0.0000 0.0000 0.0000 -21.8643 6.1961 -1.3422 16.3491 19.6774 79.2700 -0.5634 13.1777 -5.6225 0.1539 -2.5281 -6.9676 0.0000 0.0000 0.0000 20.6474 16.3885 -18.2564 -3.4459 -11.3841 33.5864 -1.1054 -1.6820 -20.5362 -0.7915 5.6792 -15.8563 -0.7060 -2.5384 7.6082 0.7472 -3.4089 1.4958 1.4955 -1.6897 -2.6259 -2.5594 2.4154 -15.5608 -2.7484 3.6227 -4.3750 -0.2315 1.7551 1.2288 0.0000 -0.0000 0.0000 -77.7796 17.9644 60.7402 123.0904 -55.4286 -88.2173 -0.0000 0.0000 -31.0681 32.7522 0.1935 0.1245 -7.1250 0.0000 -0.0000 4.8849 30.1912 -1.7715 0.0000 -0.0000 0.0000 84.3863 -31.7271 38.5200 -83.2331 59.8263 -54.1431 0.0000 -0.0000 -9.9597 -50.2199 34.9708 -34.5440 7.1250 -0.0000 -0.0000 -8.8722 17.0831 -11.1976
8.6814 16.8197 5.6723 -0.8893 -2.7880 -2.8541 0.0000 0.0000 0.0000 -16.0594 6.5442 -9.4372 22.0973 19.8942 96.1425 -0.2443 9.0735 -5.9912 0.1828 -2.7535 -7.5931 0.0000 0.0000 0.0000 26.9509 19.0163 -14.9300 -5.6742 -14.1050 43.6595 -1.3696 -1.3098 -22.6250 -0.0951 1.9888 -5.4748 2.5753 -1.5615 11.0549 1.6670 -1.7144 2.6575 0.5204 -0.8665 -3.4443 -1.2610 2.9699 -14.0879 -3.4354 3.9920 -8.0609 -0.6995 1.9827 -0.1658 -0.0000 -0.0000 0.0000 -76.9658 22.0630 58.7352 112.6265 -57.9743 -79.4618 -0.0000 0.0000 -31.4476 33.6480 -1.6194 -1.0776 -7.1250 0.0000 -0.0000 5.4623 28.0205 -2.2653 -0.0000 -0.0000 0.0000 81.6682 -17.4366 43.1072 -86.1810 59.9448 -56.6933 0.0000 -0.0000 -9.2281 -50.4233 35.5248 -35.1056 7.1250 -0.0000 -0.0000 -8.7795 17.7953 -11.1491
8.7463 16.5984 7.0786 -5.1324 -7.9338 -1.6215 0.0000 0.0000 0.0000 -10.2776 6.7121 -20.3056 25.9447 19.1307 107.6267 -0.0475 7.5742 -9.6875 0.1640 -2.6093 -7.1929 0.0000 0.0000 0.0000 33.0577 19.4623 -10.8444 -6.2765 -14.6911 46.0816 -1.9167 1.9993 -25.6423 -0.0457 1.3802 -3.7956 7.0349 -0.2048 11.8412 2.8398 0.6899 2.8088 -1.0903 0.2873 -3.6406 -1.2845 3.4500 -12.8389 -3.7273 4.5270 -10.2157 -0.8164 2.2975 -1.0282 -0.0000 -0.0000 0.0000 -77.7366 27.7840 53.8116 101.1901 -59.5215 -69.6753 -0.0000 0.0000 -28.9510 36.9830 0.4465 0.3363 -7.1250 0.0000 -0.0000 8.2379 30.4817 -2.9477 -0.0000 -0.0000 0.0000 78.1295 -1.4169 47.5491 -89.7730 59.9998 -59.8034 0.0000 -0.0000 -6.7108 -52.0835 35.6627 -36.8137 7.1250 -0.0000 -0.0000 -9.5560 18.8680 -12.2689
8.7726 16.6405 8.5760 -2.6923 -9.2631 -1.9008 0.0000 0.0000 0.0000 -14.0200 2.2183 -28.9972 27.0643 18.7588 111.0743 0.0736 9.2380 -14.3910 0.0452 -1.3717 -3.7721 0.0000 0.0000 0.0000 31.5347 17.8978 -4.1526 -5.9842 -14.4130 44.9182 -2.2914 2.8532 -27.9155 -0.0213 0.9430 -2.5920 4.5947 0.5789 11.8705 1.9746 1.3924 2.9002 -0.7322 0.6553 -3.5536 -0.2798 3.3200 -12.6536 -3.6672 4.2483 -9.9459 -0.9693 2.1240 -0.9530 -0.0000 0.0000 0.0000 -77.8568 33.7441 49.5205 92.9684 -59.9667 -62.5704 -0.0000 0.0000 -30.0216 37.1373 2.7089 2.0499 -7.1250 0.0000 -0.0000 8.5817 33.2875 -2.4875 -0.0000 0.0000 0.0000 76.4712 10.8646 49.5615 -97.6896 59.7754 -66.6544 0.0000 -0.0000 -2.8439 -52.0560 36.8341 -37.5557 7.1250 -0.0000 -0.0000 -9.1088 20.1054 -11.8008
8.8360 16.9274 10.1564 -1.5425 -8.6604 -1.2138 0.0000 0.0000 0.0000 -16.2993 -5.6936 -35.1187 25.7137 19.1986 106.9231 0.1867 9.0355 -15.8089 0.0741 -1.7564 -4.8329 0.0000 0.0000 0.0000 30.5256 15.2173 3.2360 -4.6706 -13.0029 39.3794 -1.8806 1.7702 -25.4500 -0.2609 3.2864 -9.0771 4.7866 1.0579 10.8784 1.0684 1.9909 2.0161 -1.8567 0.9311 -3.8647 -0.3746 2.4905 -11.2837 -3.0259 3.1910 -9.6052 -0.7992 1.6100 -1.0882 0.0000 0.0000 0.0000 -75.4216 39.2477 49.5299 90.9653 -59.9965 -60.8360 -0.0000 0.0000 -29.7804 36.5371 1.8251 1.3519 -7.1250 0.0000 -0.0000 8.0152 32.1825 -2.5362 0.0000 0.0000 0.0000 76.4134 16.2586 49.0466 -109.7112 58.4798 -76.9832 0.0000 -0.0000 -3.9154 -53.8869 36.8977 -39.4524 7.1250 -0.0000 -0.0000 -9.9785 21.2406 -13.0663
8.8804 17.3264 11.8361 -1.6698 -8.2694 -0.7163 0.0000 0.0000 0.0000 -16.2557 -11.7861 -37.2271 22.0950 19.8944 96.1358 0.4816 5.9011 -16.5928 0.2894 -3.4596 -9.5611 0.0000 0.0000 0.0000 30.4337 12.0899 10.6659 -3.3507 -11.2422 33.1012 -0.6392 -0.6233 -15.3428 -1.0159 6.4126 -17.9862 5.9989 1.8177 9.4213 0.4919 3.0412 1.2901 -3.2278 1.4288 -3.6498 -1.1292 1.1685 -11.4635 -1.9497 1.6057 -7.8993 -0.3678 0.8238 -0.5646 -0.0000 -0.0000 0.0000 -73.2046 43.2416 49.9156 90.1038 -60.0000 -60.0899 -0.0000 0.0000 -28.3834 34.2199 1.5310 1.0410 -7.1250 0.0000 -0.0000 6.1331 31.7933 -1.9915 -0.0000 -0.0000 0.0000 76.0004 17.7739 48.5929 -120.6614 56.1311 -86.2086 0.0000 -0.0000 -8.5985 -53.2425 36.8349 -38.7513 7.1250 -0.0000 -0.0000 -9.6885 20.7919 -12.6352
8.9069 17.8563 13.5499 -0.8092 -8.1510 -0.9145 0.0000 0.0000 0.0000 -17.4366 -13.9069 -35.8698 16.4527 19.6956 79.5775 0.6365 7.3898 -19.5350 0.3674 -3.8933 -10.7766 0.0000 0.0000 0.0000 27.9229 7.8421 15.4274 -2.4405 -9.7289 28.1034 0.0707 -5.3771 0.8033 -1.3348 7.3157 -20.6541 5.6364 2.4939 8.4459 -0.2638 3.8225 1.0100 -3.8509 1.8259 -3.2934 -1.8235 0.4616 -12.5624 -0.9890 0.8324 -6.0159 0.0270 0.4386 0.1892 0.0000 -0.0000 0.0000 -73.3397 45.3937 47.9178 89.5782 -59.9993 -59.6347 -0.0000 0.0000 -30.0339 34.6839 -0.7479 -0.5175 -7.1250 0.0000 -0.0000 6.3315 29.0451 -2.4750 0.0000 -0.0000 0.0000 76.0096 17.0664 48.9930 -127.1669 54.0761 -91.5471 0.0000 -0.0000 -7.2492 -54.0646 37.9046 -40.2842 7.1250 -0.0000 -0.0000 -9.6688 22.4000 -12.7583
8.9307 18.3328 15.3434 -0.9631 -7.9915 -0.7768 0.0000 0.0000 0.0000 -17.8638 -13.5304 -32.2408 10.2060 17.5241 60.1746 0.8320 9.3633 -23.0461 0.3332 -3.7099 -10.2620 0.0000 0.0000 0.0000 25.8145 3.4002 18.7217 -1.8338 -8.5109 24.2771 -0.6801 -9.9113 15.2617 -1.3065 7.2407 -20.4304 5.3165 2.6487 6.7776 -0.1371 3.9253 0.4157 -3.4722 1.8810 -2.9998 -1.8407 0.3538 -12.7139 -0.8488 0.7215 -4.1228 0.0761 0.3661 0.8220 -0.0000 -0.0000 0.0000 -77.1424 47.9752 43.4162 90.1782 -59.9999 -60.1543 -0.0000 0.0000 -29.9331 33.3925 0.4988 0.3288 -7.1250 0.0000 -0.0000 5.4086 30.5528 -1.9159 -0.0000 -0.0000 0.0000 75.7796 13.6504 51.6037 -130.8483 52.6476 -94.5017 0.0000 -0.0000 -6.2166 -56.6931 38.5223 -43.4679 7.1250 -0.0000 -0.0000 -10.6733 24.6615 -14.3281
8.8919 18.5485 17.0446 -2.1948 -7.7995 0.1516 0.0000 0.0000 0.0000 -16.7757 -12.5672 -29.3820 5.3286 13.7446 42.2238 0.9569 7.8596 -22.9193 1.8318 -8.5066 -24.2636 0.0000 0.0000 0.0000 26.9134 2.8560 18.6903 -2.5257 -9.8846 28.6037 -0.3121 -11.2730 11.8933 -1.1936 6.9324 -19.5152 4.9738 2.6122 5.0166 0.2583 3.7796 -0.1077 -2.7793 1.8178 -2.6186 -1.5680 0.5372 -13.1725 -0.2502 0.9434 -2.6633 0.2361 0.4744 1.3757 0.0000 0.0000 0.0000 -80.7912 48.3127 38.9219 92.8780 -59.9687 -62.4921 -0.0000 0.0000 -29.9558 33.3695 0.1766 0.1163 -7.1250 0.0000 -0.0000 5.3703 30.1688 -1.9517 0.0000 0.0000 0.0000 76.2029 9.9592 53.8661 -131.6222 52.3199 -95.1156 0.0000 -0.0000 -8.3395 -54.6060 39.3445 -41.7424 7.1250 -0.0000 -0.0000 -9.3384 24.1982 -12.4632
8.8734 18.6088 18.7655 -3.1178 -7.4855 0.0514 0.0000 0.0000 0.0000 -16.3810 -12.7851 -25.4592 2.9877 10.6751 31.1919 1.0895 7.0297 -23.4393 2.6041 -10.0247 -29.0568 0.0000 0.0000 0.0000 28.6089 3.8327 18.9253 -3.7355 -11.7998 35.0275 0.2630 -14.2228 6.5256 -0.8861 6.0005 -16.7858 4.5381 2.5140 3.8860 0.6692 3.5665 0.0444 -2.0375 1.7398 -1.8974 -2.0113 0.3908 -13.9450 0.7659 0.8110 -1.5087 0.6406 0.4326 1.8955 -0.0000 -0.0000 0.0000 -83.9292 46.5875 35.8466 96.8740 -59.8207 -65.9495 -0.0000 0.0000 -29.3299 31.3669 -0.1979 -0.1206 -7.1250 0.0000 -0.0000 3.7749 29.7378 -1.4080 -0.0000 -0.0000 0.0000 76.2284 5.3256 55.5472 -128.7412 53.4907 -92.8173 0.0000 -0.0000 -9.5376 -52.6195 37.8378 -38.7609 7.1250 -0.0000 -0.0000 -8.9986 21.4825 -11.7786
8.8916 18.3895 20.4442 -4.8319 -7.9156 -1.5639 0.0000 0.0000 0.0000 -15.9906 -11.1545 -21.8441 2.6496 10.1050 29.3173 1.4172 7.5160 -26.3282 1.7835 -8.3999 -23.9354 0.0000 0.0000 0.0000 30.0220 3.6561 17.6511 -5.8607 -14.2920 44.4202 0.3819 -14.5538 5.0072 -1.7541 8.3338 -23.7327 6.1140 2.4791 4.9645 0.8515 3.6477 0.6290 -2.7669 1.7798 -1.8066 -2.1570 0.1959 -13.7281 1.6109 0.5496 -1.9749 0.9176 0.3303 1.7064 -0.0000 -0.0000 0.0000 -84.5937 43.1766 34.9467 100.3382 -59.5923 -68.9409 -0.0000 0.0000 -28.9300 30.9399 -2.3359 -1.3995 -7.1250 0.0000 -0.0000 3.3376 27.2529 -1.4410 -0.0000 -0.0000 0.0000 76.7131 0.1719 56.1799 -123.4621 55.3145 -88.5231 0.0000 -0.0000 -10.6213 -50.0951 36.2018 -35.2322 7.1250 -0.0000 -0.0000 -8.3751 18.3471 -10.6774
8.9112 17.9905 21.9906 -3.4720 -7.6773 -2.3895 0.0000 0.0000 0.0000 -18.9178 -9.4656 -18.7767 2.6676 10.1364 29.4197 1.0815 4.1523 -21.5533 1.7482 -8.3206 -23.6922 0.0000 0.0000 0.0000 27.5063 4.6715 11.8436 -9.6547 -17.2110 58.3278 0.7579 -15.7349 -1.4918 -1.3562 7.3718 -20.8215 4.5186 2.1384 6.1564 0.0206 3.1460 0.8804 -2.7575 1.5310 -2.2975 -1.4204 0.2232 -13.4631 1.7462 0.4736 -2.7096 0.8215 0.2919 1.4167 -0.0000 0.0000 0.0000 -84.2198 37.4274 34.3456 103.5077 -59.2992 -71.6705 -0.0000 0.0000 -28.0907 31.1201 -2.4510 -1.4789 -7.1250 0.0000 -0.0000 3.4692 27.1132 -1.5094 -0.0000 0.0000 0.0000 77.6039 -5.1138 56.8374 -115.7068 57.3495 -82.0646 0.0000 -0.0000 -11.4744 -49.8538 35.3610 -34.4554 7.1250 -0.0000 -0.0000 -8.5524 17.3113 -10.8087
8.9138 17.5240 23.5463 -1.0614 -6.9780 -2.9046 0.0000 0.0000 0.0000 -23.3578 -6.9854 -18.1788 3.7666 11.8432 35.1795 0.5277 0.9273 -14.0897 0.1095 -2.1333 -5.8742 0.0000 0.0000 0.0000 23.5660 5.9298 4.0817 -14.2390 -19.1849 72.9332 0.9460 -16.9165 -6.2625 -0.9622 6.2458 -17.4993 1.0360 1.4940 7.0705 -0.6159 2.0466 0.9869 -1.4087 1.0043 -2.8839 -1.5381 0.5768 -12.3067 2.5047 0.9577 -4.2254 1.0840 0.5415 0.7161 -0.0000 -0.0000 0.0000 -83.0562 30.0416 34.8994 107.6524 -58.7892 -75.2253 -0.0000 0.0000 -27.5233 32.4178 -1.3225 -0.8397 -7.1250 0.0000 -0.0000 4.5334 28.4024 -1.8366 -0.0000 -0.0000 0.0000 77.1475 -10.2273 56.9487 -104.3141 59.2115 -72.3636 0.0000 -0.0000 -11.6256 -49.9528 35.5812 -34.6937 7.1250 -0.0000 -0.0000 -8.5248 17.6026 -10.8012
8.9735 17.0958 25.0490 4.8781 -3.2510 -5.4703 0.0000 0.0000 0.0000 -32.1209 -8.6667 -13.3258 5.4726 13.8971 42.8266 1.1435 -1.4191 -19.7935 0.0227 0.9723 2.6726 0.0000 0.0000 0.0000 15.2569 5.2059 -2.8337 -18.6159 -19.9540 85.9501 0.7278 -15.4079 -9.9447 -0.9156 6.0969 -17.0659 -5.0390 0.4558 10.3487 -2.3675 -0.0471 1.9743 0.3771 0.0210 -3.7418 -3.0533 -0.1862 -11.5219 4.9600 0.2236 -7.3297 2.0966 0.2077 -0.3746 -0.0000 -0.0000 0.0000 -80.6348 18.6384 37.7625 110.5748 -58.3384 -77.7189 -0.0000 0.0000 -26.9028 32.7442 0.4412 0.2837 -7.1250 0.0000 -0.0000 4.8926 30.4847 -1.7399 -0.0000 -0.0000 0.0000 78.1110 -15.3419 53.8987 -87.1514 59.9693 -57.5333 0.0000 -0.0000 -7.4023 -51.3302 36.6210 -36.7002 7.1250 -0.0000 -0.0000 -8.8321 19.4707 -11.3774
8.9324 16.8744 26.3363 -0.8217 -1.7168 -4.8052 0.0000 0.0000 0.0000 -25.8921 -6.3975 -12.1101 6.7140 15.0862 47.7840 1.6293 -6.3956 -22.9091 0.0022 0.3044 0.8365 0.0000 0.0000 0.0000 22.4112 8.9616 -14.1076 -21.4648 -19.9485 94.2862 0.8194 -17.0888 -13.4301 -0.8477 5.8723 -16.4143 -0.1785 -0.2919 13.0257 -0.7505 -0.4582 1.7300 -0.6072 -0.2290 -5.4879 -2.1760 0.0108 -12.1843 3.9786 0.3804 -7.6679 1.6261 0.2652 -0.3837 0.0000 0.0000 0.0000 -77.7361 7.5678 43.1889 114.6229 -57.5804 -81.1508 -0.0000 0.0000 -26.1248 33.6730 1.0551 0.7029 -7.1250 0.0000 -0.0000 5.6658 31.2179 -1.9171 0.0000 0.0000 0.0000 80.1124 -22.1042 48.2130 -71.1439 58.6130 -43.7462 0.0000 -0.0000 -5.8710 -52.8924 35.5297 -37.5305 7.1250 -0.0000 -0.0000 -10.0060 19.1910 -12.8949
8.9516 16.9833 27.8902 -0.0742 -0.4202 -3.5973 0.0000 0.0000 0.0000 -27.6134 -4.9077 -6.7630 6.4069 14.8114 46.5938 1.7117 -6.1993 -23.5158 0.1188 -2.2218 -6.1190 0.0000 0.0000 0.0000 20.6974 13.0196 -22.4734 -21.6207 -19.9369 94.7433 0.4219 -15.8174 -17.4987 -0.9663 6.2586 -17.5365 -1.1754 -0.6977 11.1385 -0.3916 -1.0855 1.7195 0.4142 -0.5208 -4.4335 -3.8597 0.2372 -11.2579 4.4149 0.9000 -9.0619 2.0812 0.5570 -1.0050 0.0000 -0.0000 0.0000 -77.1935 -0.0547 48.0143 122.2402 -55.6828 -87.5161 -0.0000 0.0000 -24.8693 33.2743 1.1055 0.7254 -7.1250 0.0000 -0.0000 5.3511 31.2753 -1.8024 0.0000 -0.0000 0.0000 80.7356 -28.0941 44.1406 -61.6176 56.7258 -35.6903 0.0000 -0.0000 -10.2802 -54.4701 35.5315 -39.1403 7.1250 -0.0000 -0.0000 -10.7864 20.1360 -14.0339
8.9499 17.1969 29.4680 0.1908 1.3656 -2.5379 0.0000 0.0000 0.0000 -28.0229 -3.7885 -0.9787 5.6974 14.1285 43.7547 1.0446 -6.7286 -18.2424 0.2267 -3.0647 -8.4589 0.0000 0.0000 0.0000 19.7291 15.3147 -27.7567 -19.1759 -19.9837 87.5898 0.4382 -16.0248 -17.6610 -2.7128 10.2150 -29.6757 -2.5806 -2.0247 11.1243 0.4547 -3.0031 -0.3078 2.4225 -1.3793 -6.4103 -3.4995 1.4181 -8.5391 3.6223 2.3136 -8.9034 1.7654 1.2245 -1.4490 -0.0000 -0.0000 0.0000 -77.4721 -1.1261 51.2408 129.2432 -53.2962 -93.2203 -0.0000 0.0000 -24.9910 31.8144 0.4301 0.2668 -7.1250 0.0000 -0.0000 4.1566 30.4717 -1.4781 -0.0000 -0.0000 0.0000 79.3724 -36.5952 43.2283 -57.0879 55.4827 -31.9296 0.0000 -0.0000 -9.9371 -55.8566 35.9800 -40.9032 7.1250 -0.0000 -0.0000 -11.2981 21.4821 -14.8695
9.0317 17.7086 31.1412 0.9606 0.1725 -1.8440 0.0000 0.0000 0.0000 -28.5182 0.1481 5.4980 4.1057 12.2997 36.8006 0.1473 -3.4142 -6.8704 0.9948 -6.3477 -17.7967 0.0000 0.0000 0.0000 17.5259 20.2051 -30.0119 -14.7908 -19.3366 74.6059 -0.1359 -12.5067 -19.4302 -1.9628 8.7882 -25.1351 -2.8619 -2.3229 10.8802 0.8097 -3.4250 -1.4082 3.0467 -1.5340 -7.3828 -2.7986 2.4166 -10.9802 2.3984 3.5335 -5.6354 1.3241 1.8305 -0.0267 0.0000 0.0000 0.0000 -77.3259 -1.5238 54.9585 134.2719 -51.1202 -97.1959 -0.0000 0.0000 -26.6661 31.9799 0.9951 0.6213 -7.1250 0.0000 -0.0000 4.3138 31.1360 -1.4655 0.0000 0.0000 0.0000 78.2104 -40.8464 41.9605 -50.0197 53.0034 -26.1899 0.0000 -0.0000 -13.0700 -47.0966 38.3832 -33.7472 7.1250 -0.0000 -0.0000 -6.1169 19.1071 -7.8174
