HIERARCHY
ROOT Hips
{
	OFFSET 0.00000 0.00000 0.00000
	CHANNELS 6 Xposition Yposition Zposition Zrotation Yrotation Xrotation 
	JOINT LHipJoint
	{
		OFFSET 0 0 0
		CHANNELS 3 Zrotation Yrotation Xrotation
		JOINT LeftUpLeg
		{
			OFFSET 1.65674 -1.80282 0.62477
			CHANNELS 3 Zrotation Yrotation Xrotation
			JOINT LeftLeg
			{
				OFFSET 2.59720 -7.13576 0.00000
				CHANNELS 3 Zrotation Yrotation Xrotation
				JOINT LeftFoot
				{
					OFFSET 2.49236 -6.84770 0.00000
					CHANNELS 3 Zrotation Yrotation Xrotation
					JOINT LeftToeBase
					{
						OFFSET 0.19704 -0.54136 2.14581
						CHANNELS 3 Zrotation Yrotation Xrotation
						End Site
						{
							OFFSET 0.00000 -0.00000 1.11249
						}
					}
				}
			}
		}
	}
	JOINT RHipJoint
	{
		OFFSET 0 0 0
		CHANNELS 3 Zrotation Yrotation Xrotation
		JOINT RightUpLeg
		{
			OFFSET -1.61070 -1.80282 0.62476
			CHANNELS 3 Zrotation Yrotation Xrotation
			JOINT RightLeg
			{
				OFFSET -2.59502 -7.12977 0.00000
				CHANNELS 3 Zrotation Yrotation Xrotation
				JOINT RightFoot
				{
					OFFSET -2.46780 -6.78024 0.00000
					CHANNELS 3 Zrotation Yrotation Xrotation
					JOINT RightToeBase
					{
						OFFSET -0.23024 -0.63258 2.13368
						CHANNELS 3 Zrotation Yrotation Xrotation
						End Site
						{
							OFFSET -0.00000 -0.00000 1.11569
						}
					}
				}
			}
		}
	}
	JOINT LowerBack
	{
		OFFSET 0 0 0
		CHANNELS 3 Zrotation Yrotation Xrotation
		JOINT Spine
		{
			OFFSET 0.01961 2.05450 -0.14112
			CHANNELS 3 Zrotation Yrotation Xrotation
			JOINT Spine1
			{
				OFFSET 0.01021 2.06436 -0.05921
				CHANNELS 3 Zrotation Yrotation Xrotation
				JOINT Neck
				{
					OFFSET 0 0 0
					CHANNELS 3 Zrotation Yrotation Xrotation
					JOINT Neck1
					{
						OFFSET 0.00713 1.56711 0.14968
						CHANNELS 3 Zrotation Yrotation Xrotation
						JOINT Head
						{
							OFFSET 0.03429 1.56041 -0.10006
							CHANNELS 3 Zrotation Yrotation Xrotation
							End Site
							{
								OFFSET 0.01305 1.62560 -0.05265
							}
						}
					}
				}
				JOINT LeftShoulder
				{
					OFFSET 0 0 0
					CHANNELS 3 Zrotation Yrotation Xrotation
					JOINT LeftArm
					{
						OFFSET 3.54205 0.90436 -0.17364
						CHANNELS 3 Zrotation Yrotation Xrotation
						JOINT LeftForeArm
						{
							OFFSET 4.86513 -0.00000 -0.00000
							CHANNELS 3 Zrotation Yrotation Xrotation
							JOINT LeftHand
							{
								OFFSET 3.35554 -0.00000 0.00000
								CHANNELS 3 Zrotation Yrotation Xrotation
								JOINT LeftFingerBase
								{
									OFFSET 0 0 0
									CHANNELS 3 Zrotation Yrotation Xrotation
									JOINT LeftHandIndex1
									{
										OFFSET 0.66117 -0.00000 0.00000
										CHANNELS 3 Zrotation Yrotation Xrotation
										End Site
										{
											OFFSET 0.53306 -0.00000 0.00000
										}
									}
								}
								JOINT LThumb
								{
									OFFSET 0 0 0
									CHANNELS 3 Zrotation Yrotation Xrotation
									End Site
									{
										OFFSET 0.54120 -0.00000 0.54120
									}
								}
							}
						}
					}
				}
				JOINT RightShoulder
				{
					OFFSET 0 0 0
					CHANNELS 3 Zrotation Yrotation Xrotation
					JOINT RightArm
					{
						OFFSET -3.49802 0.75994 -0.32616
						CHANNELS 3 Zrotation Yrotation Xrotation
						JOINT RightForeArm
						{
							OFFSET -5.02649 -0.00000 0.00000
							CHANNELS 3 Zrotation Yrotation Xrotation
							JOINT RightHand
							{
								OFFSET -3.36431 -0.00000 0.00000
								CHANNELS 3 Zrotation Yrotation Xrotation
								JOINT RightFingerBase
								{
									OFFSET 0 0 0
									CHANNELS 3 Zrotation Yrotation Xrotation
									JOINT RightHandIndex1
									{
										OFFSET -0.73041 -0.00000 0.00000
										CHANNELS 3 Zrotation Yrotation Xrotation
										End Site
										{
											OFFSET -0.58887 -0.00000 0.00000
										}
									}
								}
								JOINT RThumb
								{
									OFFSET 0 0 0
									CHANNELS 3 Zrotation Yrotation Xrotation
									End Site
									{
										OFFSET -0.59786 -0.00000 0.59786
									}
								}
							}
						}
					}
				}
			}
		}
	}
}
MOTION
Frames: 86
Frame Time: 0.033333
10.4194 16.7048 -30.1003 0 0 0 0 0 0 -21 0 0 0 0 0 0 0 0 0 0 0 0 0 0 21 0 0 0 0 0 0 0 0 0 0 0 0 0 0 0 0 0 0 0 0 0 0 -16 0 0 21 0 0 11 0 0 0 -8 0 0 0 0 0 0 0 0 0 0 0 0 0 0 0 0 0 0 0 0 8 0 0 0 0 0 0 0 0 0 0 0 0 0 0 0 0 0
10.3951 16.6696 -29.5400 -2.4301 -10.1914 -2.6529 0.0000 0.0000 0.0000 -19.4977 -9.5091 -26.1027 1.5069 7.7532 21.9668 0.2153 8.4934 -15.5906 0.3478 -3.7891 -10.4841 0.0000 0.0000 0.0000 28.0052 -4.1585 17.8686 -0.3869 -3.9943 11.0605 -0.6122 6.5401 -14.0014 -0.0004 -0.1356 0.3726 5.7437 1.8237 7.1936 1.4497 2.7742 3.8189 -1.9080 1.4515 0.1276 1.3188 4.1299 -12.9178 -6.0907 5.5852 0.7061 -1.8694 2.5589 2.7344 0.0000 0.0000 0.0000 -97.1686 11.0657 -11.7891 10.2127 -17.0717 -1.5368 -0.0000 0.0000 -11.1137 23.4145 20.0743 8.4543 -7.1250 0.0000 -0.0000 -5.1159 51.6232 -0.8363 0.0000 0.0000 0.0000 79.4023 21.1280 39.1036 -26.8053 37.9929 -9.3790 0.0000 -0.0000 -16.0827 -27.0442 16.6537 -8.3234 7.1250 -0.0000 -0.0000 0.5164 -11.4154 0.4040
10.3458 16.5643 -28.7542 -2.4429 -10.2713 -2.3600 0.0000 0.0000 0.0000 -20.1938 -9.6281 -26.1838 2.1363 9.1444 26.2481 0.0074 9.1771 -13.2080 0.3505 -3.8037 -10.5252 0.0000 0.0000 0.0000 27.5585 -4.6795 19.2924 -0.5472 -4.7390 13.1656 -0.5725 6.7407 -13.5794 -0.2268 3.0651 -8.4600 4.9789 1.7934 5.9445 1.6578 2.6124 3.7369 -1.2137 1.3687 0.6739 0.8712 4.2384 -12.6639 -4.9882 5.6832 -0.5038 -1.4278 2.6696 2.2147 0.0000 0.0000 0.0000 -97.6980 10.6695 -11.8562 10.2239 -17.0890 -1.5401 -0.0000 0.0000 -11.1350 22.9393 20.5565 8.4527 -7.1250 0.0000 -0.0000 -5.7333 52.0475 -0.9975 0.0000 0.0000 0.0000 79.6476 20.8173 39.7632 -25.5811 36.7921 -8.6356 0.0000 -0.0000 -16.5425 -27.0443 16.2876 -8.1479 7.1250 -0.0000 -0.0000 0.4805 -11.8178 0.3719
10.2960 16.5225 -27.9723 -2.6204 -10.0637 -2.4568 0.0000 0.0000 0.0000 -20.1565 -10.0731 -26.3098 2.9760 10.6562 31.1288 -0.1514 10.6815 -12.5980 0.0033 0.3721 1.0225 0.0000 0.0000 0.0000 27.3964 -4.7930 19.4413 -1.0291 -6.4527 18.1038 -0.3673 6.3631 -11.0059 -0.8536 5.8924 -16.4725 4.9608 1.7331 5.7731 1.3685 2.5353 3.4101 -1.4992 1.3238 0.4388 0.7953 4.1299 -12.5776 -3.6706 5.4628 -1.5259 -1.0111 2.6155 1.7956 -0.0000 -0.0000 0.0000 -96.7912 9.7865 -12.1552 9.6667 -16.2166 -1.3804 -0.0000 0.0000 -8.8917 22.8242 20.4102 8.3497 -7.1250 0.0000 -0.0000 -5.8053 51.8731 -0.9852 -0.0000 -0.0000 0.0000 81.5233 19.2718 39.2678 -23.4735 34.6025 -7.4054 0.0000 -0.0000 -15.2939 -27.5035 17.0708 -8.6897 7.1250 -0.0000 -0.0000 0.2560 -10.8835 0.2031
10.2351 16.5316 -27.2485 -0.6231 -9.2823 -2.7474 0.0000 0.0000 0.0000 -23.0354 -9.3239 -25.4023 3.4676 11.4160 33.6961 0.0241 8.2135 -12.1802 0.0844 1.8741 5.1578 0.0000 0.0000 0.0000 25.0043 -3.6315 15.3984 -2.6556 -10.1154 29.3513 -0.0495 6.3423 -5.6431 -1.7123 8.2393 -23.4433 2.5829 1.6613 5.6534 0.7279 2.3315 3.1131 -0.8247 1.1887 0.1092 -0.6849 3.7988 -12.4044 -1.5876 5.1546 -2.4389 -0.1342 2.5352 1.3417 0.0000 -0.0000 0.0000 -95.9096 8.2748 -10.8144 9.3521 -15.7198 -1.2939 -0.0000 0.0000 -8.0742 22.8816 21.1759 8.6682 -7.1250 0.0000 -0.0000 -5.9813 52.6879 -1.1349 0.0000 -0.0000 0.0000 83.0923 17.2121 38.0273 -21.1184 31.9663 -6.1125 0.0000 -0.0000 -14.0510 -27.5441 17.2902 -8.8112 7.1250 -0.0000 -0.0000 0.2524 -10.6353 0.2015
10.2079 16.6059 -26.5320 -0.8312 -9.7152 -2.7621 0.0000 0.0000 0.0000 -23.4657 -8.5357 -23.6657 3.7885 11.8735 35.2859 0.1564 7.3456 -13.4274 0.1906 2.8114 7.7541 0.0000 0.0000 0.0000 24.5845 -1.0093 10.8416 -4.8114 -13.1682 40.0014 -0.0078 3.6840 5.5962 -2.3222 9.5073 -27.3955 2.9348 1.6604 5.5054 0.5621 2.3459 2.9016 -1.1913 1.1981 -0.0038 -1.0534 3.7794 -11.6598 -1.0677 5.1424 -3.7105 0.0522 2.5582 0.7757 -0.0000 -0.0000 0.0000 -95.1235 6.6137 -8.6917 9.5275 -15.9971 -1.3418 -0.0000 0.0000 -8.2188 22.1896 20.7633 8.2278 -7.1250 0.0000 -0.0000 -6.5504 52.1303 -1.1539 -0.0000 -0.0000 0.0000 84.6287 15.5256 37.9197 -18.3568 28.6116 -4.7189 0.0000 -0.0000 -13.6888 -27.7622 17.0735 -8.7855 7.1250 -0.0000 -0.0000 0.0863 -10.8385 0.0685
10.1910 16.6758 -25.8812 0.4243 -9.8568 -3.1201 0.0000 0.0000 0.0000 -25.6333 -7.6312 -20.3915 3.5763 11.5741 34.2416 0.3670 6.4110 -15.5724 0.1972 2.8594 7.8875 0.0000 0.0000 0.0000 22.8231 2.2790 5.5355 -7.7010 -15.8949 51.4784 -0.6486 -1.8319 14.6980 -3.1775 10.9769 -32.2021 1.7191 1.5427 5.8636 0.2282 2.1375 2.8744 -0.8558 1.0809 -0.2736 -0.7019 3.8883 -12.1357 -1.8371 5.2469 -3.8221 -0.2294 2.5897 0.8521 0.0000 0.0000 0.0000 -94.8249 4.5956 -4.0188 10.4464 -17.4348 -1.6061 -0.0000 0.0000 -11.1396 23.0495 20.2380 8.3731 -7.1250 0.0000 -0.0000 -5.5287 51.7316 -0.9188 0.0000 0.0000 0.0000 85.5330 14.0006 37.3329 -15.6104 24.9895 -3.4797 0.0000 -0.0000 -11.1125 -25.1490 17.1483 -7.8810 7.1250 -0.0000 -0.0000 1.8139 -11.1641 1.4291
10.1591 16.7399 -25.2710 1.9571 -9.2293 -3.5541 0.0000 0.0000 0.0000 -28.0141 -6.7470 -17.1557 3.2777 11.1316 32.7249 0.4848 5.6569 -16.4388 0.1854 2.7731 7.6478 0.0000 0.0000 0.0000 20.8927 4.6561 -0.3958 -10.6813 -17.7756 61.7423 -0.3621 -9.0048 11.6104 -2.3309 9.5237 -27.4475 0.0789 1.2289 6.0704 -0.1600 1.6318 3.1094 -0.3079 0.8155 -0.1961 -0.6690 4.2138 -12.3619 -2.2996 5.6803 -3.7520 -0.3528 2.7939 0.9310 -0.0000 0.0000 0.0000 -93.9753 2.5760 3.1790 11.9221 -19.6877 -2.0760 -0.0000 0.0000 -15.7324 23.9424 18.0461 7.8319 -7.1250 0.0000 -0.0000 -4.0729 49.5568 -0.4583 -0.0000 0.0000 0.0000 86.3432 12.6478 35.2927 -13.7704 22.4055 -2.7400 0.0000 -0.0000 -7.7156 -21.4104 16.2370 -6.2568 7.1250 -0.0000 -0.0000 4.2291 -12.6447 3.2098
10.1398 16.8395 -24.6379 2.0863 -8.7024 -3.9182 0.0000 0.0000 0.0000 -28.9443 -5.4967 -13.6854 2.9936 10.6847 31.2239 0.6134 5.1200 -17.5425 0.0650 1.6452 4.5260 0.0000 0.0000 0.0000 20.3382 6.6613 -5.5549 -12.6802 -18.6636 68.1292 0.3465 -12.9808 3.5907 -1.1040 6.6761 -18.7593 -0.1071 1.0272 6.1978 -0.0529 1.3542 3.2770 -0.0774 0.6738 -0.1029 -0.4664 4.1902 -11.7623 -3.1338 5.5972 -4.5975 -0.6715 2.7500 0.5924 0.0000 0.0000 0.0000 -93.4134 0.7812 9.1279 13.9593 -22.6765 -2.8124 -0.0000 0.0000 -17.3235 23.0181 19.3916 8.0291 -7.1250 0.0000 -0.0000 -5.3223 50.8331 -0.7668 0.0000 0.0000 0.0000 86.8143 10.2983 32.1858 -12.4570 20.4864 -2.2597 0.0000 -0.0000 -5.1144 -20.2443 16.7270 -6.0591 7.1250 -0.0000 -0.0000 5.0340 -12.2705 3.8645
10.1272 16.9077 -24.0001 2.1763 -6.7675 -4.0968 0.0000 0.0000 0.0000 -29.9008 -5.1445 -9.8841 2.6690 10.1390 29.4279 0.7126 4.6992 -18.3366 0.0140 0.7641 2.1000 0.0000 0.0000 0.0000 19.6071 8.0741 -10.4853 -13.7061 -19.0225 71.3049 0.7438 -15.1370 -4.0390 -0.4691 4.3927 -12.1842 -0.2936 0.3015 5.8893 0.1461 0.3823 3.3630 0.2930 0.1839 0.1542 -0.8628 4.2488 -11.4136 -2.9242 5.7263 -4.3384 -0.5407 2.8228 0.5984 -0.0000 0.0000 0.0000 -92.7819 -0.4840 15.5202 16.7114 -26.4757 -3.9578 -0.0000 0.0000 -20.9375 23.9073 21.3340 9.1613 -7.1250 0.0000 -0.0000 -4.9849 53.0450 -0.9886 -0.0000 0.0000 0.0000 86.7650 7.1563 30.5865 -11.8387 19.5623 -2.0480 0.0000 -0.0000 -5.2332 -21.4946 16.5975 -6.4181 7.1250 -0.0000 -0.0000 4.1945 -12.2532 3.2176
10.0925 16.9674 -23.4110 1.8222 -4.5771 -3.7973 0.0000 0.0000 0.0000 -30.0695 -5.8165 -7.0417 2.5042 9.8455 28.4779 0.8786 3.9578 -19.5650 0.0128 0.7300 2.0063 0.0000 0.0000 0.0000 19.3477 10.4237 -15.2103 -13.7361 -19.0320 71.3969 0.7898 -16.0553 -10.4744 -0.2200 3.0195 -8.3330 -0.2648 -0.1387 5.9577 0.3431 -0.1997 3.3361 0.5121 -0.1077 0.0936 -0.4195 3.9795 -12.3137 -3.1973 5.3573 -3.3294 -0.6838 2.6065 1.0960 -0.0000 0.0000 0.0000 -91.7190 -2.5284 21.5638 19.8090 -30.4115 -5.4343 -0.0000 0.0000 -23.7354 23.5201 23.2794 9.7599 -7.1250 0.0000 -0.0000 -6.0307 55.0160 -1.4873 -0.0000 0.0000 0.0000 86.9667 3.5325 28.5663 -11.8621 19.5976 -2.0558 0.0000 -0.0000 -7.4518 -22.7966 17.3876 -7.1587 7.1250 -0.0000 -0.0000 3.3851 -11.2438 2.6649
10.0568 16.9529 -22.8034 1.9403 -2.8247 -3.8326 0.0000 0.0000 0.0000 -30.5961 -5.4986 -4.2140 2.3988 9.6516 27.8558 1.0000 2.9334 -20.1625 0.0151 0.7932 2.1798 0.0000 0.0000 0.0000 18.2939 13.3454 -18.4326 -12.7080 -18.6742 68.2162 0.4004 -13.7098 -13.6008 -0.4758 4.4238 -12.2722 -0.7925 -0.5357 5.9515 0.5205 -0.7523 3.3707 1.0215 -0.3925 0.1485 -0.5984 3.7769 -11.8603 -2.7460 5.0992 -3.4819 -0.5355 2.4955 0.9460 0.0000 0.0000 0.0000 -90.7949 -3.9641 26.5947 23.4610 -34.5891 -7.3983 -0.0000 0.0000 -25.3906 22.9926 20.0601 8.2810 -7.1250 0.0000 -0.0000 -5.5344 51.5342 -0.8930 0.0000 0.0000 0.0000 87.0277 -0.2795 26.9356 -12.0252 19.8424 -2.1108 0.0000 -0.0000 -8.0147 -21.2159 12.8236 -4.9244 7.1250 -0.0000 -0.0000 4.1961 -16.2821 2.8591
10.0064 16.9329 -22.1816 1.8743 -1.3864 -3.9753 0.0000 0.0000 0.0000 -30.7192 -4.8325 -1.1803 2.2585 9.3849 27.0070 1.1692 1.6283 -21.0760 0.0100 0.6473 1.7788 0.0000 0.0000 0.0000 17.4550 16.2790 -20.2578 -10.6999 -17.7851 61.8032 0.0631 -11.4019 -15.2953 -0.6776 5.2634 -14.6613 -1.3699 -0.7928 6.0130 0.8099 -1.1218 3.5323 1.6629 -0.5899 0.3079 -0.9221 3.5809 -12.7305 -2.3244 4.9141 -2.4892 -0.3308 2.3959 1.3964 0.0000 0.0000 0.0000 -90.0706 -5.1389 30.5184 27.9311 -39.0527 -10.0802 -0.0000 0.0000 -27.2520 24.0434 20.3453 8.8170 -7.1250 0.0000 -0.0000 -4.5588 52.0226 -0.7896 0.0000 0.0000 0.0000 86.9662 -4.1253 26.2315 -12.5256 20.5882 -2.2838 0.0000 -0.0000 -9.2074 -21.1521 14.1311 -5.3963 7.1250 -0.0000 -0.0000 4.2944 -14.9024 3.0543
9.9682 16.9609 -21.5641 2.4061 0.2469 -3.3919 0.0000 0.0000 0.0000 -31.3053 -4.1756 1.9464 1.8315 8.5060 24.2617 1.1390 1.0972 -20.5915 0.0002 -0.0906 -0.2488 0.0000 0.0000 0.0000 15.3324 18.6275 -22.2848 -8.0825 -16.1796 52.8592 -0.2213 -9.0854 -16.3351 -0.4104 4.1122 -11.3927 -2.4610 -1.1832 5.9493 0.9858 -1.6940 3.2062 2.4906 -0.8862 0.0699 -1.2222 3.4498 -12.1504 -2.1619 4.7610 -2.8461 -0.2527 2.3347 1.1653 0.0000 -0.0000 0.0000 -89.4981 -5.7168 33.4106 32.4568 -42.9083 -13.0508 -0.0000 0.0000 -27.6890 26.1151 17.5022 8.3867 -7.1250 0.0000 -0.0000 -1.8266 49.3220 -0.1947 0.0000 -0.0000 0.0000 86.9807 -7.3793 24.9867 -12.1979 20.1008 -2.1698 0.0000 -0.0000 -9.3149 -21.4095 17.0212 -6.5474 7.1250 -0.0000 -0.0000 4.2773 -11.8163 3.3203
9.9281 16.9910 -20.9046 2.9060 1.3930 -3.0324 0.0000 0.0000 0.0000 -31.5835 -2.8274 5.5422 1.3315 7.3070 20.6282 1.0551 0.3328 -19.5421 0.0009 -0.1947 -0.5350 0.0000 0.0000 0.0000 13.5422 20.6043 -22.7741 -5.2368 -13.6457 41.8361 -0.2362 -8.9917 -16.4275 -0.7434 5.5077 -15.3624 -3.2137 -1.4935 5.4862 0.8459 -2.1296 3.3204 2.7747 -1.1215 0.4962 -1.0219 3.4821 -12.6491 -1.9573 4.7806 -2.9001 -0.2124 2.3452 1.2333 0.0000 -0.0000 0.0000 -88.4052 -6.2187 35.1851 37.6526 -46.6160 -16.7127 -0.0000 0.0000 -27.8451 22.9536 17.1270 7.1094 -7.1250 0.0000 -0.0000 -4.8200 48.4233 -0.4079 0.0000 -0.0000 0.0000 87.7759 -9.4431 22.8591 -11.3306 18.7933 -1.8811 0.0000 -0.0000 -8.0929 -20.7681 16.5794 -6.1759 7.1250 -0.0000 -0.0000 4.6772 -12.3622 3.5797
9.9008 16.9849 -20.2479 2.6462 2.5844 -2.8463 0.0000 0.0000 0.0000 -30.9056 -1.2897 9.3827 0.9125 6.0867 17.0362 0.9523 -0.4644 -18.2975 0.0229 -0.9775 -2.6869 0.0000 0.0000 0.0000 13.2302 20.4095 -23.1677 -3.0785 -10.8210 31.6785 -0.3046 -8.2299 -16.5031 -0.7015 5.3536 -14.9199 -2.9594 -1.8351 5.6236 1.0048 -2.5776 3.1063 2.8256 -1.3356 0.2270 -1.4762 3.3009 -12.5118 -1.7568 4.5941 -3.0498 -0.0877 2.2632 1.1433 -0.0000 0.0000 0.0000 -87.8419 -6.1611 36.7848 42.1177 -49.2757 -20.0297 -0.0000 0.0000 -28.3191 24.9399 14.2767 6.5420 -7.1250 0.0000 -0.0000 -2.3887 45.6419 -0.0379 -0.0000 0.0000 0.0000 88.4642 -11.9740 20.1366 -10.6798 17.7958 -1.6767 0.0000 -0.0000 -6.2481 -20.8008 17.5699 -6.5418 7.1250 -0.0000 -0.0000 4.7139 -11.3165 3.7101
9.8840 16.9761 -19.5553 2.4095 3.6381 -2.8658 0.0000 0.0000 0.0000 -30.0325 0.8941 13.9869 0.4641 4.3699 12.1197 0.7546 -0.2057 -16.3501 0.2119 -2.9633 -8.1767 0.0000 0.0000 0.0000 14.1776 16.5742 -24.6530 -1.9444 -8.7494 25.0144 -0.5212 -4.4028 -15.9599 -0.7257 5.4431 -15.1769 -2.5290 -2.1030 5.2846 1.0907 -2.9047 3.3004 2.6681 -1.5030 0.6206 -2.1039 3.1880 -12.8415 -1.1311 4.5282 -3.1523 0.2138 2.2500 1.1363 0.0000 -0.0000 0.0000 -87.5476 -6.6432 37.5645 44.6384 -50.5901 -21.9590 -0.0000 0.0000 -27.3070 26.1359 15.0225 7.2481 -7.1250 0.0000 -0.0000 -1.3782 46.6184 -0.0551 0.0000 -0.0000 0.0000 89.1822 -13.2236 16.9583 -9.7248 16.3079 -1.3967 0.0000 -0.0000 -4.6043 -20.5450 18.3529 -6.7302 7.1250 -0.0000 -0.0000 4.9313 -10.5286 3.9623
9.8359 16.9528 -18.8478 2.8769 4.4574 -2.2170 0.0000 0.0000 0.0000 -29.9778 1.8161 17.6372 0.2328 3.1051 8.5716 0.5415 0.6353 -14.1460 0.4053 -4.0870 -11.3216 0.0000 0.0000 0.0000 14.5123 13.7923 -27.0317 -1.6612 -8.1215 23.0838 -0.7194 -1.2310 -16.5138 -0.5992 4.9555 -13.7816 -3.2404 -2.2373 4.6697 1.2501 -3.0981 3.0479 3.2162 -1.6113 0.7645 -0.9580 3.0661 -13.3669 -3.1650 4.2609 -2.6220 -0.6138 2.0450 1.4820 -0.0000 0.0000 0.0000 -87.8233 -6.0443 38.3106 46.0277 -51.2621 -23.0376 -0.0000 0.0000 -26.7001 25.9762 14.6433 7.0217 -7.1250 0.0000 -0.0000 -1.4718 46.1810 -0.0429 -0.0000 0.0000 0.0000 89.6473 -14.0410 11.9933 -8.7142 14.7038 -1.1265 0.0000 -0.0000 -1.5291 -19.6060 16.6142 -5.8154 7.1250 -0.0000 -0.0000 5.4531 -12.4641 4.1670
9.7666 16.8767 -18.1131 2.4787 4.7463 -2.5986 0.0000 0.0000 0.0000 -29.1115 2.2200 18.7265 0.4588 4.3448 12.0489 0.6024 -0.2380 -14.5861 0.2407 -3.1574 -8.7172 0.0000 0.0000 0.0000 15.6106 14.5969 -25.4233 -1.7219 -8.2610 23.5098 -0.4917 -5.3534 -16.2876 -0.4864 4.4719 -12.4082 -3.2623 -2.3833 4.9913 1.6618 -3.3034 2.9183 3.6794 -1.7115 0.4952 -1.1568 3.1306 -13.5111 -3.4214 4.3893 -2.4411 -0.6507 2.0981 1.5707 0.0000 0.0000 0.0000 -88.5984 -4.7541 38.0842 45.3728 -50.9498 -22.5279 -0.0000 0.0000 -25.7759 24.4561 14.4304 6.4662 -7.1250 0.0000 -0.0000 -2.8658 45.7449 -0.0527 0.0000 0.0000 0.0000 89.6785 -14.8998 8.3946 -8.1071 13.7263 -0.9774 0.0000 0.0000 1.6450 -19.4563 16.2813 -5.6560 7.1250 -0.0000 -0.0000 5.5373 -12.8289 4.1896
9.7046 16.7901 -17.3149 2.7932 4.8838 -2.5118 0.0000 0.0000 0.0000 -29.0724 2.4336 19.6361 0.7401 5.4957 15.3281 0.5315 -0.6112 -13.5755 0.6315 -5.0848 -14.1507 0.0000 0.0000 0.0000 15.9143 15.7195 -24.8531 -2.3626 -9.5837 27.6389 -0.0094 -9.4944 -13.6884 -0.3911 4.0154 -11.1201 -3.5139 -2.5935 4.4340 1.5730 -3.5800 2.5899 3.7184 -1.8472 0.5015 -1.2737 3.2157 -13.8116 -3.1219 4.5346 -1.9223 -0.5185 2.1669 1.7863 0.0000 -0.0000 0.0000 -89.0070 -2.4622 37.0797 43.6300 -50.0794 -21.1827 -0.0000 0.0000 -26.0411 23.3894 14.5212 6.1895 -7.1250 0.0000 -0.0000 -3.8772 45.7028 -0.0674 0.0000 -0.0000 0.0000 89.9714 -14.9078 3.9656 -7.1712 12.2007 -0.7674 0.0000 0.0000 5.6377 -18.9132 15.1324 -5.1112 7.1250 -0.0000 -0.0000 5.8557 -14.0861 4.2773
9.6663 16.7886 -16.4928 0.9358 4.1992 -3.3585 0.0000 0.0000 0.0000 -26.7039 3.3478 19.4571 1.4506 7.6132 21.5454 0.3596 0.0027 -11.3305 1.3283 -7.2986 -20.6031 0.0000 0.0000 0.0000 19.0526 15.3490 -23.3539 -2.8597 -10.4644 30.4941 0.0711 -8.6536 -10.8656 -0.1399 2.4110 -6.6428 -1.3874 -2.5144 4.4603 2.1081 -3.3949 2.5200 3.0770 -1.7297 0.3024 -0.8289 3.2281 -14.0974 -3.8069 4.5223 -1.5020 -0.8066 2.1266 2.0118 0.0000 -0.0000 0.0000 -89.9460 -0.5322 35.8965 38.8576 -47.3783 -17.5939 -0.0000 0.0000 -24.5533 24.1489 12.8496 5.6941 -7.1250 0.0000 -0.0000 -2.9028 43.9959 0.0720 0.0000 -0.0000 0.0000 89.9351 -14.7166 1.2333 -6.7651 11.5320 -0.6839 0.0000 0.0000 7.7056 -18.9860 14.9755 -5.0806 7.1250 -0.0000 -0.0000 5.8009 -14.2421 4.2176
9.6470 16.7965 -15.7074 0.4525 3.1198 -4.0864 0.0000 0.0000 0.0000 -25.5492 4.2710 16.5814 2.9607 10.6311 31.0458 0.0509 1.1876 -4.8748 1.4930 -7.7189 -21.8634 0.0000 0.0000 0.0000 20.8574 15.4636 -21.1374 -3.4244 -11.3522 33.4771 -0.0603 -7.6578 -12.1270 -0.0014 0.2423 -0.6657 -0.6556 -2.2695 4.4650 2.3804 -3.0416 2.5674 2.9340 -1.5473 0.3020 -1.2548 3.2644 -13.9836 -3.7245 4.6215 -1.7524 -0.7047 2.1851 1.8935 0.0000 0.0000 0.0000 -91.5506 0.8753 33.2017 32.9612 -43.3002 -13.3955 -0.0000 0.0000 -22.4562 23.1942 15.6762 6.6041 -7.1250 0.0000 -0.0000 -4.2799 46.9127 -0.2024 0.0000 0.0000 0.0000 89.4737 -13.9236 1.0140 -6.8320 11.6424 -0.6973 0.0000 0.0000 7.3960 -19.1777 14.5928 -5.0079 7.1250 -0.0000 -0.0000 5.6576 -14.6219 4.0664
9.5814 16.8366 -14.9914 -0.5304 3.3109 -3.7503 0.0000 0.0000 0.0000 -23.4001 2.9600 11.1693 5.2701 13.6817 41.9770 0.0973 3.3728 5.6738 2.4330 -9.7150 -28.0588 0.0000 0.0000 0.0000 22.9384 14.7495 -19.6459 -3.7343 -11.7982 35.0217 -0.3166 -6.2332 -14.7241 -0.0012 -0.2228 0.6122 0.2050 -2.3415 3.8679 2.5420 -3.1107 2.3600 2.5987 -1.5724 0.3881 -0.9038 3.3090 -14.1362 -3.3363 4.6168 -1.7325 -0.6383 2.1921 1.9254 0.0000 0.0000 0.0000 -92.3061 1.6190 30.4146 26.5042 -37.7023 -9.1943 -0.0000 0.0000 -21.6213 22.2890 17.2362 6.9252 -7.1250 0.0000 -0.0000 -5.4841 48.4389 -0.4665 0.0000 0.0000 0.0000 89.5880 -12.2611 1.6843 -6.9966 11.9136 -0.7309 0.0000 0.0000 7.0098 -19.9319 16.1688 -5.7661 7.1250 -0.0000 -0.0000 5.2140 -12.8922 3.9359
9.5269 16.9460 -14.3452 -1.2132 3.5857 -3.8724 0.0000 0.0000 0.0000 -21.9827 0.7865 4.5055 8.4247 16.4229 54.0782 0.6075 9.4686 14.4419 2.0983 -9.0680 -26.0082 0.0000 0.0000 0.0000 24.6556 12.4214 -17.1144 -3.6191 -11.6354 34.4542 -0.5887 -4.3678 -16.7428 -0.0268 -1.0573 2.9066 0.6634 -2.2725 4.6621 2.6691 -2.9802 2.2230 2.5089 -1.4998 -0.2176 -0.8457 2.9605 -14.7627 -2.9270 4.1545 -1.3698 -0.5334 1.9638 2.1458 -0.0000 0.0000 0.0000 -93.0314 1.6351 27.0369 20.5865 -31.3424 -5.8333 -0.0000 0.0000 -20.8606 22.0391 19.8053 7.8102 -7.1250 0.0000 -0.0000 -6.4096 51.1016 -0.9669 -0.0000 0.0000 0.0000 89.5887 -10.1114 4.0576 -7.6915 13.0516 -0.8812 0.0000 0.0000 3.9626 -19.4251 14.5967 -5.0786 7.1250 -0.0000 -0.0000 5.4896 -14.5927 3.9479
9.4997 17.0205 -13.7360 -2.1806 3.0953 -4.2631 0.0000 0.0000 0.0000 -20.3949 0.0589 -2.1507 11.3341 18.0947 63.8618 -0.1729 15.5142 8.9302 1.0006 -6.3657 -17.8492 0.0000 0.0000 0.0000 26.4937 9.6988 -14.1667 -3.3098 -11.1804 32.8909 -0.7233 -2.5539 -17.1887 -0.0077 -0.5661 1.5555 1.8646 -1.9573 5.2454 2.7027 -2.4956 2.4930 1.8661 -1.2481 -0.3328 -1.1977 2.6655 -15.1097 -2.2840 3.8111 -1.2237 -0.2817 1.8118 2.2311 0.0000 -0.0000 0.0000 -93.2433 1.0174 22.5088 15.5069 -24.8475 -3.4361 -0.0000 0.0000 -18.3338 20.3791 20.8524 7.5327 -7.1250 0.0000 -0.0000 -8.3891 51.9028 -1.4342 0.0000 -0.0000 0.0000 89.4904 -7.2695 8.3247 -8.4839 14.3341 -1.0687 0.0000 -0.0000 -0.0015 -21.7032 16.3381 -6.3884 7.1250 -0.0000 -0.0000 4.0397 -12.5016 3.0773
9.4619 17.1086 -13.1364 -2.3252 2.0638 -4.3510 0.0000 0.0000 0.0000 -19.7932 -0.6682 -8.4419 13.2015 18.8537 69.7502 -0.9151 17.4911 -0.7638 0.1196 -2.2295 -6.1404 0.0000 0.0000 0.0000 27.4692 8.7941 -10.9952 -3.0089 -10.7094 31.3060 -0.8332 -1.6646 -17.9213 -0.0000 -0.0217 0.0595 2.0996 -1.4086 5.6807 2.3851 -1.7415 2.5534 1.3779 -0.8679 -0.5438 -1.5556 2.2823 -13.6545 -1.3513 3.2817 -2.4324 0.0138 1.6051 1.5368 0.0000 -0.0000 0.0000 -93.0319 1.2516 16.2401 11.7805 -19.4747 -2.0285 -0.0000 0.0000 -14.0189 21.9654 20.0513 7.8732 -7.1250 0.0000 -0.0000 -6.5558 51.3463 -1.0286 0.0000 -0.0000 0.0000 89.6277 -4.0614 11.4813 -9.4118 15.8143 -1.3101 0.0000 -0.0000 -1.4794 -22.0224 14.7459 -5.8781 7.1250 -0.0000 -0.0000 3.7330 -14.1538 2.7128
9.4398 17.1776 -12.5416 -2.1206 -0.0248 -5.1367 0.0000 0.0000 0.0000 -19.5288 -1.1554 -13.3417 13.8415 19.0653 71.7200 -0.8365 15.9605 -5.1762 0.0720 -1.7311 -4.7632 0.0000 0.0000 0.0000 28.1931 8.5623 -6.6835 -2.7202 -10.2278 29.7175 -0.9526 -0.8265 -18.7601 -0.0048 -0.4473 1.2290 2.0535 -0.7982 6.6560 2.0850 -0.9140 3.0091 1.0558 -0.4528 -0.6274 -1.8526 2.3594 -13.6244 -0.9642 3.4282 -1.9067 0.1997 1.6850 1.6937 -0.0000 -0.0000 0.0000 -93.0730 2.2002 10.0820 9.6715 -16.2241 -1.3818 -0.0000 0.0000 -12.1375 24.0253 18.9479 8.2359 -7.1250 0.0000 -0.0000 -4.2084 50.5328 -0.5747 -0.0000 -0.0000 0.0000 88.6174 -0.4108 18.8305 -10.4909 17.5038 -1.6195 0.0000 -0.0000 -4.8011 -20.4729 14.1697 -5.2219 7.1250 -0.0000 -0.0000 4.7596 -14.9332 3.3843
9.4508 17.1615 -11.9430 -2.5958 -1.6647 -4.7716 0.0000 0.0000 0.0000 -18.6123 -3.5778 -18.3672 13.4994 18.9551 70.6696 -0.4212 11.7275 -7.2207 0.1357 -2.3739 -6.5402 0.0000 0.0000 0.0000 28.8370 6.9932 -5.0359 -2.6615 -10.1258 29.3852 -1.1333 1.6535 -19.6417 -0.0067 -0.5297 1.4555 3.2626 -0.2641 6.2957 1.6457 -0.1593 3.1609 -0.1282 -0.0581 -0.2757 -0.8566 2.3298 -13.0741 -1.5906 3.2496 -1.8363 -0.1848 1.5764 1.6499 0.0000 -0.0000 0.0000 -92.3129 4.1213 5.9295 8.8875 -14.9809 -1.1709 -0.0000 0.0000 -9.4435 25.4702 18.3561 8.5313 -7.1250 0.0000 -0.0000 -2.6383 50.1411 -0.3345 0.0000 -0.0000 0.0000 87.9624 3.0995 25.1281 -12.2929 20.2425 -2.2026 0.0000 -0.0000 -8.3029 -20.3972 12.1353 -4.4697 7.1250 -0.0000 -0.0000 4.7413 -17.0868 3.1498
9.4610 17.1354 -11.3507 -2.0437 -3.2110 -4.6521 0.0000 0.0000 0.0000 -18.6327 -5.8317 -22.1737 12.0828 18.4254 66.2510 -0.0542 7.2705 -9.0177 0.4265 -4.1911 -11.6150 0.0000 0.0000 0.0000 28.3711 6.2629 -3.0729 -2.6637 -10.1297 29.3979 -1.2697 2.9571 -20.5307 -0.0001 0.0566 -0.1554 3.0732 0.1279 6.8274 1.2244 0.3738 3.0138 -0.4925 0.2024 -0.7070 -1.4288 2.5450 -12.4403 -0.9760 3.5969 -1.5318 0.1179 1.7687 1.6157 -0.0000 -0.0000 0.0000 -92.1320 7.3366 5.8437 9.1996 -15.4780 -1.2528 -0.0000 0.0000 -11.5226 25.8421 18.5439 8.7565 -7.1250 0.0000 -0.0000 -2.3095 50.4070 -0.3079 -0.0000 -0.0000 0.0000 86.4820 5.2460 33.2430 -15.5856 24.9555 -3.4693 0.0000 -0.0000 -14.7718 -23.4998 15.3559 -6.5683 7.1250 -0.0000 -0.0000 2.7724 -13.3235 2.0613
9.4827 17.1287 -10.7266 -2.4967 -4.4687 -4.7082 0.0000 0.0000 0.0000 -17.4871 -7.9787 -24.3739 9.7957 17.2934 58.8033 0.1345 5.1546 -10.6820 0.7517 -5.5378 -15.4490 0.0000 0.0000 0.0000 28.8094 4.9358 0.1254 -2.3464 -9.5531 27.5415 -1.3446 4.6728 -20.8834 -0.0003 -0.1149 0.3157 3.9340 0.4783 7.2530 1.1681 0.9110 3.0744 -1.0755 0.4755 -0.8467 -1.3323 2.6968 -11.8624 -1.2383 3.7873 -1.2530 0.0220 1.8560 1.6123 -0.0000 0.0000 0.0000 -92.3925 9.9931 4.7166 9.6624 -16.2098 -1.3792 -0.0000 0.0000 -11.7632 23.7884 19.6559 8.4341 -7.1250 0.0000 -0.0000 -4.6269 51.2454 -0.7131 -0.0000 0.0000 0.0000 84.9821 8.7406 35.5291 -17.9922 28.1471 -4.5455 0.0000 -0.0000 -12.3568 -22.8205 15.1086 -6.2590 7.1250 -0.0000 -0.0000 3.2142 -13.6727 2.3672
9.5052 17.1772 -10.0934 -2.1451 -5.5891 -4.6242 0.0000 0.0000 0.0000 -17.1052 -9.9072 -25.3079 6.7729 15.1376 48.0099 0.1732 5.8366 -12.1000 0.3863 -3.9912 -11.0520 0.0000 0.0000 0.0000 28.2131 3.5114 3.8971 -1.7988 -8.4337 24.0393 -1.2133 5.4196 -19.7333 -0.0019 -0.2840 0.7804 4.0242 0.7686 7.4591 0.8189 1.3045 3.1606 -1.5184 0.6754 -0.8422 -0.2379 2.8926 -11.6676 -2.3661 3.9354 -1.0212 -0.5122 1.8959 1.7057 0.0000 -0.0000 0.0000 -92.5953 12.1650 4.8043 10.1740 -17.0113 -1.5255 -0.0000 0.0000 -13.6198 23.3993 20.6072 8.6597 -7.1250 0.0000 -0.0000 -5.2844 52.1836 -0.9367 0.0000 -0.0000 0.0000 83.4766 11.7138 38.7742 -21.6482 32.5772 -6.3954 0.0000 -0.0000 -15.2509 -23.3091 14.8911 -6.3182 7.1250 -0.0000 -0.0000 2.8703 -13.8464 2.1027
9.5367 17.2041 -9.4318 -2.6410 -6.2392 -4.0844 0.0000 0.0000 0.0000 -15.8332 -12.0458 -25.2018 4.0766 12.2617 36.6640 0.1230 8.0030 -13.6454 0.5760 -4.8602 -13.5104 0.0000 0.0000 0.0000 28.2274 2.0813 7.5991 -1.2515 -7.0924 19.9895 -1.1034 6.2719 -18.7580 -0.0089 -0.6090 1.6735 4.7189 0.9359 6.8831 0.8708 1.5363 3.2787 -1.8564 0.8081 -0.3686 -0.1032 3.1632 -10.6626 -2.4640 4.2532 -1.9235 -0.5724 2.0689 1.2426 -0.0000 -0.0000 0.0000 -93.3053 13.5466 3.3174 10.4073 -17.3741 -1.5944 -0.0000 0.0000 -13.9600 22.9511 19.5171 8.0525 -7.1250 0.0000 -0.0000 -5.4231 50.9541 -0.7976 -0.0000 -0.0000 0.0000 81.9767 14.5788 40.2337 -25.3994 36.6095 -8.5270 0.0000 -0.0000 -16.9895 -23.5125 16.2527 -6.9425 7.1250 -0.0000 -0.0000 2.8269 -12.3595 2.1590
9.5695 17.1948 -8.7592 -3.1764 -7.1005 -3.9535 0.0000 0.0000 0.0000 -14.3686 -13.8691 -24.4637 2.3370 9.5353 27.4845 0.0723 10.2398 -15.6788 0.3198 -3.6348 -10.0515 0.0000 0.0000 0.0000 28.1371 0.1782 11.6765 -0.7870 -5.6633 15.8106 -0.9307 6.4874 -17.2101 -0.0047 0.4439 -1.2198 5.3164 1.0194 6.8789 1.0785 1.6811 3.3569 -1.9842 0.8883 -0.2620 0.3581 3.6766 -10.2115 -3.2817 4.8821 -2.3666 -0.8897 2.3720 1.0677 -0.0000 -0.0000 0.0000 -94.3513 14.6568 1.4934 10.3904 -17.3479 -1.5894 -0.0000 0.0000 -14.1393 22.6386 19.3305 7.8601 -7.1250 0.0000 -0.0000 -5.6812 50.7045 -0.8008 -0.0000 -0.0000 0.0000 80.1978 17.1659 42.0670 -28.7689 39.8145 -10.6124 0.0000 -0.0000 -18.2710 -24.8038 15.9730 -7.2477 7.1250 -0.0000 -0.0000 1.9438 -12.4860 1.4785
9.6124 17.1702 -8.0531 -2.9303 -8.3170 -4.2600 0.0000 0.0000 0.0000 -14.2311 -14.0450 -23.8918 1.5603 7.8830 22.3592 0.0763 11.1550 -16.9390 0.6081 -4.9915 -13.8843 0.0000 0.0000 0.0000 26.9138 -1.3561 16.6012 -0.4037 -4.0790 11.2990 -0.6780 7.0765 -14.7599 -0.0366 1.2355 -3.3970 5.1036 1.3053 7.0255 0.9647 2.0468 3.5711 -2.0063 1.0765 -0.0987 1.6574 4.4358 -10.2439 -4.2089 5.7716 -2.0465 -1.3612 2.7865 1.2741 0.0000 -0.0000 0.0000 -95.0472 15.0969 -0.5778 10.2267 -17.0934 -1.5409 -0.0000 0.0000 -13.1132 22.7484 19.7264 8.0554 -7.1250 0.0000 -0.0000 -5.6829 51.1402 -0.8620 0.0000 -0.0000 0.0000 79.6005 19.5987 42.0953 -31.1047 41.8217 -12.1396 0.0000 -0.0000 -17.3912 -25.6393 16.2036 -7.6285 7.1250 -0.0000 -0.0000 1.4062 -12.1180 1.0800
9.6656 17.1124 -7.3002 -3.3669 -8.7184 -4.2382 0.0000 0.0000 0.0000 -13.9849 -13.8491 -23.6662 1.4648 7.6489 21.6527 0.1206 10.4459 -16.6157 0.8209 -5.7811 -16.1506 0.0000 0.0000 0.0000 26.5210 -2.6722 20.0693 -0.2759 -3.3784 9.3340 -0.5231 6.8319 -13.0260 -0.2510 3.2236 -8.9018 5.6628 1.3324 6.7491 1.0557 2.1023 3.4661 -2.2213 1.1101 -0.0306 2.2378 5.1172 -9.6468 -4.4952 6.6242 -2.1683 -1.5261 3.2120 1.1924 0.0000 -0.0000 0.0000 -95.5956 15.0340 -3.0931 9.5481 -16.0296 -1.3475 -0.0000 0.0000 -10.9386 22.5026 20.5957 8.2912 -7.1250 0.0000 -0.0000 -6.1840 52.0106 -1.0708 0.0000 -0.0000 0.0000 78.9944 20.8498 42.0660 -32.9999 43.3300 -13.4220 0.0000 -0.0000 -17.1311 -26.1469 16.2438 -7.8189 7.1250 -0.0000 -0.0000 1.0722 -12.0003 0.8260
9.6913 17.0587 -6.4982 -2.8546 -9.3402 -4.3128 0.0000 0.0000 0.0000 -15.5621 -11.6582 -23.0996 1.6969 8.2039 23.3350 -0.1353 12.0005 -15.0978 0.4085 -4.1032 -11.3671 0.0000 0.0000 0.0000 25.8676 -2.0417 21.8306 -0.4612 -4.3561 12.0808 -0.5383 5.8945 -13.1034 -0.5166 4.6067 -12.7902 4.6874 1.5929 5.9817 1.0095 2.3489 3.4223 -1.7143 1.2290 0.3270 2.1517 5.7729 -9.3130 -3.8332 7.5130 -1.7564 -1.2640 3.6691 1.2605 0.0000 0.0000 0.0000 -95.7654 14.1057 -5.1460 8.6190 -14.5512 -1.1024 -0.0000 0.0000 -8.3576 21.7403 20.0715 7.7927 -7.1250 0.0000 -0.0000 -6.7854 51.3288 -1.0619 0.0000 0.0000 0.0000 78.7857 20.7395 41.2502 -34.6396 44.5531 -14.5600 0.0000 -0.0000 -16.6003 -24.2231 16.7940 -7.4064 7.1250 -0.0000 -0.0000 2.3960 -11.6806 1.8630
9.7385 17.0562 -5.6562 -2.2408 -9.0710 -4.7638 0.0000 0.0000 0.0000 -17.4862 -9.7211 -23.2696 2.3949 9.6443 27.8323 -0.7374 16.0066 -11.9712 0.4104 -4.1124 -11.3932 0.0000 0.0000 0.0000 25.0032 -2.2137 24.8498 -0.5003 -4.5344 12.5851 -0.3327 3.8108 -10.2541 -1.2508 7.0906 -19.9841 3.5271 1.5500 5.8108 0.9892 2.2424 2.9474 -1.0876 1.1482 -0.1237 2.8943 6.3332 -8.9063 -3.7373 8.2238 -0.5211 -1.3196 4.0202 1.6442 -0.0000 -0.0000 0.0000 -96.1265 13.6997 -7.9223 8.0873 -13.6944 -0.9727 -0.0000 0.0000 -5.3171 21.9398 20.2046 7.9200 -7.1250 0.0000 -0.0000 -6.6276 51.5023 -1.0653 -0.0000 -0.0000 0.0000 79.0977 19.0996 40.9620 -34.9194 44.7545 -14.7565 0.0000 -0.0000 -16.2229 -25.1754 16.9373 -7.7973 7.1250 -0.0000 -0.0000 1.7778 -11.3887 1.3925
9.7541 17.0654 -4.8402 -2.4307 -8.0006 -4.5233 0.0000 0.0000 0.0000 -18.0828 -8.5183 -23.7032 3.0792 10.8222 31.6827 -0.3201 10.9916 -8.9859 0.1226 -2.2571 -6.2168 0.0000 0.0000 0.0000 25.4973 -1.6551 22.9124 -1.3182 -7.2719 20.5235 -0.1647 2.2214 -7.2168 -1.4822 7.6920 -21.7824 3.2895 1.3019 4.7905 0.9180 1.8725 2.4408 -0.9889 0.9575 -0.0999 3.2752 6.6041 -8.0578 -3.3034 8.5733 0.0665 -1.2468 4.2111 1.6938 0.0000 -0.0000 0.0000 -95.3779 12.4791 -8.4800 7.7350 -13.1225 -0.8910 -0.0000 0.0000 -3.6217 20.8824 20.5628 7.6322 -7.1250 0.0000 -0.0000 -7.7924 51.6914 -1.2906 0.0000 -0.0000 0.0000 80.6191 16.4848 40.0800 -34.1957 44.2292 -14.2494 0.0000 -0.0000 -16.2070 -25.8401 17.0144 -8.0655 7.1250 -0.0000 -0.0000 1.3459 -11.2057 1.0590
9.7977 17.1117 -4.0567 -0.8474 -6.9369 -4.8786 0.0000 0.0000 0.0000 -20.8425 -7.9940 -21.6544 3.3923 11.3045 33.3137 -0.1121 9.1513 -10.7617 0.0495 -1.4352 -3.9471 0.0000 0.0000 0.0000 23.3081 -1.1390 18.4057 -3.0539 -10.7818 31.5475 -0.0020 -0.0782 0.8274 -1.7844 8.4017 -23.9410 1.7544 1.3107 4.6583 0.2921 1.8221 1.9437 -0.7750 0.9168 -0.5688 3.0069 6.6364 -8.2194 -2.2430 8.6316 1.8126 -0.8305 4.2610 2.2284 -0.0000 0.0000 0.0000 -94.2784 11.0471 -5.9268 7.7784 -13.1930 -0.9009 -0.0000 0.0000 -4.4901 20.3983 19.9981 7.2475 -7.1250 0.0000 -0.0000 -8.0891 51.0243 -1.2073 -0.0000 0.0000 0.0000 81.8601 12.6493 38.9875 -32.8644 43.2255 -13.3291 0.0000 -0.0000 -16.9220 -26.6263 17.6246 -8.6313 7.1250 -0.0000 -0.0000 0.8883 -10.4174 0.7131
9.8607 17.2088 -3.3463 -0.3840 -6.8272 -4.4263 0.0000 0.0000 0.0000 -22.2921 -7.3001 -19.4921 3.3486 11.2390 33.0903 0.0286 8.4393 -12.5699 0.0117 -0.6998 -1.9232 0.0000 0.0000 0.0000 22.7814 1.9989 12.0311 -5.7040 -14.1352 43.7818 -0.4669 -4.6041 12.1574 -3.1913 10.9984 -32.2746 1.4074 1.2866 4.6186 0.1265 1.7793 1.3282 -0.7573 0.8870 -1.1850 3.4266 6.8467 -8.2161 -2.5715 8.9080 2.9878 -0.9695 4.3914 2.6729 -0.0000 -0.0000 0.0000 -93.8925 10.0117 -0.9892 9.1427 -15.3875 -1.2377 -0.0000 0.0000 -8.5203 20.7848 20.3354 7.5141 -7.1250 0.0000 -0.0000 -7.8155 51.4391 -1.2459 -0.0000 -0.0000 0.0000 82.7227 10.0665 38.7833 -30.1563 41.0270 -11.5121 0.0000 -0.0000 -17.4115 -26.1261 17.1907 -8.2480 7.1250 -0.0000 -0.0000 1.1740 -10.9698 0.9294
9.9099 17.3025 -2.6617 2.0132 -6.9800 -4.4757 0.0000 0.0000 0.0000 -25.7998 -6.3107 -16.3173 3.0395 10.7587 31.4704 0.1458 8.3036 -14.3600 0.0001 -0.0575 -0.1580 0.0000 0.0000 0.0000 19.8598 4.6575 5.2745 -8.8124 -16.6855 55.4391 -0.5591 -8.7582 13.7763 -3.7959 11.8837 -35.3219 -1.2640 1.1490 4.5021 -0.1656 1.4697 1.2331 0.4573 0.7357 -1.2841 3.5033 7.4391 -8.8633 -3.2562 9.7526 4.4810 -1.1008 4.7752 3.3844 0.0000 -0.0000 0.0000 -94.0298 8.9186 6.1566 11.6589 -19.2911 -1.9881 -0.0000 0.0000 -15.5609 22.4223 18.7453 7.5535 -7.1250 0.0000 -0.0000 -5.7354 50.0521 -0.7163 0.0000 -0.0000 0.0000 83.2910 8.4153 39.1126 -26.5069 37.7049 -9.1960 0.0000 -0.0000 -15.8747 -25.5424 17.6338 -8.2373 7.1250 -0.0000 -0.0000 1.5994 -10.5785 1.2791
9.9609 17.3881 -2.0299 2.7782 -6.0756 -5.0437 0.0000 0.0000 0.0000 -27.5643 -4.7575 -12.6205 2.6809 10.1596 29.4950 0.2731 7.2525 -15.0870 0.0322 -1.1577 -3.1829 0.0000 0.0000 0.0000 18.6385 5.4526 -0.9437 -11.3551 -18.1045 63.9293 0.1901 -13.0113 6.4426 -2.1097 9.0910 -26.0804 -1.7040 0.8611 5.4656 -0.5429 1.0394 1.3489 0.3272 0.5233 -1.6961 3.8787 7.8611 -8.5200 -3.3050 10.2961 4.6938 -1.1525 5.0527 3.4408 -0.0000 0.0000 0.0000 -92.6233 7.3625 12.7073 14.3164 -23.1852 -2.9515 -0.0000 0.0000 -19.4265 23.2802 18.5658 7.8005 -7.1250 0.0000 -0.0000 -4.8476 50.0024 -0.5990 -0.0000 0.0000 0.0000 84.4349 6.9457 37.8089 -22.7579 33.8231 -7.0031 0.0000 -0.0000 -14.5261 -22.6706 16.2879 -6.6818 7.1250 -0.0000 -0.0000 3.3910 -12.4322 2.5861
10.0060 17.4717 -1.3764 2.3982 -5.0509 -5.1258 0.0000 0.0000 0.0000 -27.9533 -3.8503 -9.3877 2.4510 9.7483 28.1653 0.3988 6.5288 -16.0887 0.0675 -1.6764 -4.6121 0.0000 0.0000 0.0000 18.6646 6.6003 -6.8128 -12.8893 -18.7418 68.7813 0.7027 -14.7502 -3.6787 -1.2952 7.2105 -20.3406 -1.5021 0.4088 5.8253 -0.0786 0.4510 1.3187 0.7290 0.2311 -1.9189 3.5505 7.8534 -7.8599 -3.8419 10.3827 4.6092 -1.2937 5.0781 3.3043 -0.0000 -0.0000 0.0000 -92.3059 5.9277 17.3128 17.7416 -27.8250 -4.4280 -0.0000 0.0000 -22.1607 23.5899 20.1950 8.5727 -7.1250 0.0000 -0.0000 -4.9738 51.7820 -0.8324 -0.0000 -0.0000 0.0000 84.7621 4.4211 36.2433 -19.4163 29.9326 -5.2369 0.0000 -0.0000 -12.8945 -22.3451 16.2075 -6.5450 7.1250 -0.0000 -0.0000 3.6029 -12.5595 2.7388
10.0457 17.4888 -0.7182 2.3000 -3.2966 -5.4313 0.0000 0.0000 0.0000 -28.6808 -3.6230 -6.0385 2.3652 9.5885 27.6542 0.6281 5.4910 -17.9710 0.0150 -0.7916 -2.1756 0.0000 0.0000 0.0000 18.3104 7.6149 -11.6939 -13.2217 -18.8607 69.8127 0.7726 -15.5529 -8.5519 -0.7637 5.5808 -15.5727 -1.4850 -0.0389 5.8524 0.0849 -0.1381 1.6495 0.9304 -0.0671 -1.5792 3.7400 7.9738 -8.2311 -3.8377 10.5508 5.6955 -1.2780 5.1526 3.7762 -0.0000 -0.0000 0.0000 -91.1884 3.9673 22.5311 21.5370 -32.4498 -6.3356 -0.0000 0.0000 -24.8015 23.5212 21.9893 9.2563 -7.1250 0.0000 -0.0000 -5.5876 53.6625 -1.1930 -0.0000 -0.0000 0.0000 85.5845 1.7448 32.4790 -16.8148 26.6129 -4.0040 0.0000 -0.0000 -11.0629 -22.4912 14.9247 -6.0867 7.1250 -0.0000 -0.0000 3.4257 -13.9085 2.5064
10.0619 17.4592 -0.0945 2.2809 -1.4979 -5.2164 0.0000 0.0000 0.0000 -29.1206 -3.6392 -3.7306 2.3347 9.5310 27.4708 0.8444 4.3014 -19.4331 0.0562 -1.5291 -4.2061 0.0000 0.0000 0.0000 17.7897 9.2212 -16.4541 -12.5602 -18.6175 67.7537 0.5807 -14.7028 -12.0463 -0.8399 5.8458 -16.3378 -1.7790 -0.4065 6.0826 0.3474 -0.6437 1.6314 1.4036 -0.3175 -1.7057 3.4784 7.5858 -7.6095 -4.0006 10.0772 5.2950 -1.3510 4.9181 3.4895 -0.0000 -0.0000 0.0000 -90.0320 2.3465 27.0459 26.3711 -37.5728 -9.1130 -0.0000 0.0000 -26.7537 24.1215 22.0746 9.5521 -7.1250 0.0000 -0.0000 -4.9947 53.8685 -1.0911 -0.0000 -0.0000 0.0000 86.0299 -1.2475 29.2993 -14.3989 23.3022 -2.9841 0.0000 -0.0000 -11.5351 -22.5346 15.8939 -6.4827 7.1250 -0.0000 -0.0000 3.4560 -12.8695 2.6042
10.0830 17.4078 0.5631 1.8719 0.4051 -5.3999 0.0000 0.0000 0.0000 -29.1412 -3.2291 -0.5599 2.2524 9.3731 26.9695 1.1041 3.0194 -21.1501 0.0765 -1.7847 -4.9111 0.0000 0.0000 0.0000 17.5261 10.7371 -19.2375 -10.8157 -17.8437 62.1818 0.1120 -11.8764 -15.2680 -0.6875 5.3009 -14.7688 -1.6915 -0.9477 6.7208 0.6960 -1.3611 1.5723 1.7801 -0.6708 -2.0886 3.3830 7.5710 -7.6583 -3.7811 10.0702 5.8781 -1.2517 4.9162 3.6818 -0.0000 0.0000 0.0000 -89.0246 1.0794 30.0424 31.4990 -42.1441 -12.4033 -0.0000 0.0000 -27.6112 23.5711 19.2316 8.1779 -7.1250 0.0000 -0.0000 -4.7313 50.7575 -0.6725 -0.0000 0.0000 0.0000 86.6451 -4.2608 23.9332 -12.1918 20.0916 -2.1677 0.0000 -0.0000 -8.1193 -21.4790 14.4925 -5.6239 7.1250 -0.0000 -0.0000 4.0887 -14.4841 2.9438
10.0883 17.4056 1.2518 2.6794 2.0802 -5.5491 0.0000 0.0000 0.0000 -30.2172 -2.4771 3.3238 1.8921 8.6376 24.6680 1.1664 2.1690 -21.2894 0.0540 -1.4989 -4.1227 0.0000 0.0000 0.0000 15.8271 12.3987 -20.4278 -8.1901 -16.2573 53.2444 -0.2546 -9.3705 -17.0853 -0.6298 5.0780 -14.1311 -2.8382 -1.1674 6.9536 0.6626 -1.7373 1.7799 2.4233 -0.8581 -1.9538 2.4198 7.2572 -7.6282 -2.9749 9.6730 5.4575 -0.8613 4.7343 3.3998 0.0000 0.0000 0.0000 -87.8545 -0.2719 32.8973 37.4113 -46.4591 -16.5375 -0.0000 0.0000 -28.3756 24.9336 17.0704 7.7711 -7.1250 0.0000 -0.0000 -2.8949 48.6662 -0.2620 0.0000 0.0000 0.0000 87.3938 -7.1931 17.9627 -10.2978 17.2041 -1.5619 0.0000 -0.0000 -5.4898 -21.4439 16.1180 -6.2231 7.1250 -0.0000 -0.0000 4.1998 -12.7665 3.1767
10.0928 17.4419 1.9472 2.7453 3.6780 -4.9157 0.0000 0.0000 0.0000 -30.1129 -1.4996 7.0929 1.3430 7.3373 20.7186 1.0560 1.8013 -20.1407 0.1349 -2.3676 -6.5228 0.0000 0.0000 0.0000 14.4710 14.5161 -21.1268 -5.2548 -13.6652 41.9124 -0.2646 -9.4137 -17.2598 -0.8071 5.7335 -16.0131 -3.1907 -1.5002 6.3412 0.7878 -2.1797 1.9869 2.7604 -1.0923 -1.3534 2.5719 7.0316 -8.8423 -3.1312 9.3501 5.7557 -0.9074 4.5545 3.7491 -0.0000 0.0000 0.0000 -86.9317 -1.9628 34.7720 43.1299 -49.8187 -20.7999 -0.0000 0.0000 -28.6555 25.8416 14.7298 7.0202 -7.1250 0.0000 -0.0000 -1.6119 46.2571 -0.0500 -0.0000 0.0000 0.0000 88.2720 -9.1713 10.8106 -8.3775 14.1628 -1.0425 0.0000 -0.0000 -0.7437 -21.4040 18.4400 -7.0678 7.1250 -0.0000 -0.0000 4.3755 -10.3212 3.5313
10.0813 17.4377 2.6623 2.2773 4.9803 -4.7227 0.0000 0.0000 0.0000 -29.1523 -0.4714 11.0553 0.9475 6.1991 17.3632 1.0415 0.6023 -19.5159 0.0590 -1.5677 -4.3124 0.0000 0.0000 0.0000 14.2797 16.0378 -20.5597 -2.9186 -10.5621 30.8170 -0.4872 -8.8446 -19.2514 -0.9076 6.0708 -16.9900 -3.0594 -1.7773 6.3385 1.1413 -2.5331 2.0381 3.0741 -1.2720 -1.2635 2.0101 6.5810 -8.7364 -3.1902 8.7932 4.9303 -0.8856 4.2732 3.3931 0.0000 -0.0000 0.0000 -86.1850 -2.7541 36.1505 48.6824 -52.4501 -25.1257 -0.0000 0.0000 -29.6255 26.9198 12.8466 6.4413 -7.1250 0.0000 -0.0000 -0.3544 44.3261 0.0059 0.0000 -0.0000 0.0000 88.7849 -11.8383 4.3771 -7.0136 11.9416 -0.7345 0.0000 0.0000 4.5023 -21.4022 14.6366 -5.6560 7.1250 -0.0000 -0.0000 4.1482 -14.3398 2.9996
10.1088 17.4360 3.3943 2.5374 6.0541 -4.1976 0.0000 0.0000 0.0000 -28.8232 1.3286 15.5954 0.4476 4.2926 11.9014 0.7932 0.5433 -17.0350 0.2061 -2.9231 -8.0646 0.0000 0.0000 0.0000 14.0688 13.0679 -22.7507 -1.8222 -8.4855 24.1986 -0.7690 -6.0722 -19.8595 -0.8602 5.9144 -16.5364 -3.0664 -2.1861 6.0437 1.0775 -3.0729 1.7779 3.0410 -1.5366 -1.3303 1.6434 6.4096 -9.7121 -2.7997 8.5963 5.9226 -0.6586 4.1632 3.8845 0.0000 -0.0000 0.0000 -85.7176 -2.5999 36.2427 52.9378 -54.1138 -28.5377 -0.0000 0.0000 -28.6142 26.8403 12.0464 6.0285 -7.1250 0.0000 -0.0000 -0.3399 43.4302 0.0132 0.0000 -0.0000 0.0000 89.5874 -14.6240 -1.2757 -6.1462 10.5058 -0.5656 0.0000 0.0000 9.0798 -20.4410 14.1224 -5.1961 7.1250 -0.0000 -0.0000 4.7795 -14.9863 3.3930
10.0943 17.3797 4.1585 2.6887 7.0624 -4.0308 0.0000 0.0000 0.0000 -28.2755 2.3501 19.9201 0.2294 3.0828 8.5094 0.6164 0.8431 -15.1608 0.3949 -4.0347 -11.1744 0.0000 0.0000 0.0000 15.4024 8.3076 -25.3615 -1.4992 -7.7342 21.9096 -0.8514 -3.7549 -19.1795 -1.5791 7.9280 -22.4958 -3.2580 -2.4044 5.7883 1.1733 -3.3638 1.9614 3.2460 -1.6928 -0.9601 1.3812 5.9306 -10.4075 -3.2460 8.0070 5.4770 -0.7863 3.8420 3.8598 0.0000 0.0000 0.0000 -85.6665 -2.6383 36.6344 55.6425 -55.0323 -30.7418 -0.0000 0.0000 -28.5966 27.1320 12.0851 6.1235 -7.1250 0.0000 -0.0000 -0.0770 43.5070 0.0028 0.0000 0.0000 0.0000 90.2997 -16.3879 -7.0227 -5.4831 9.3973 -0.4510 0.0000 0.0000 13.8946 -19.3121 15.1855 -5.2447 7.1250 -0.0000 -0.0000 5.5881 -13.9889 4.0914
10.0519 17.2914 4.9490 2.1853 6.8032 -3.9169 0.0000 0.0000 0.0000 -27.1040 3.5228 22.4245 0.2250 3.0533 8.4271 0.5193 0.9463 -13.9877 0.5800 -4.8766 -13.5570 0.0000 0.0000 0.0000 16.4831 10.0129 -24.9104 -1.6787 -8.1621 23.2076 -0.8252 -5.2268 -19.8307 -0.8124 5.7517 -16.0657 -3.0314 -2.4713 5.3678 1.4624 -3.4261 1.9134 3.3999 -1.7279 -0.7663 1.3286 5.5972 -11.2992 -3.6076 7.6112 5.9181 -0.8948 3.6105 4.2018 0.0000 0.0000 0.0000 -86.0393 -1.3483 35.9271 56.1010 -55.1781 -31.1179 -0.0000 0.0000 -27.7686 26.5169 12.3121 6.0731 -7.1250 0.0000 -0.0000 -0.6646 43.6864 0.0215 0.0000 0.0000 0.0000 90.5827 -17.7303 -10.4242 -5.1111 8.7717 -0.3923 0.0000 0.0000 17.3017 -18.2764 11.9256 -3.9041 7.1250 -0.0000 -0.0000 6.2153 -17.4851 4.0849
10.0096 17.2120 5.7926 2.8429 6.6173 -3.9392 0.0000 0.0000 0.0000 -27.2528 4.3489 23.1567 0.4694 4.3945 12.1891 0.4769 0.7402 -13.3338 1.0838 -6.6169 -18.5851 0.0000 0.0000 0.0000 16.3884 11.9402 -23.5735 -2.1748 -9.2210 26.4891 -0.4328 -7.8446 -17.6977 -0.8826 5.9891 -16.7527 -3.8041 -2.6183 4.9482 1.2812 -3.6517 1.7456 3.6386 -1.8429 -0.6495 1.4729 5.4720 -11.4484 -3.9980 7.4699 6.2112 -1.0554 3.5182 4.3622 -0.0000 0.0000 0.0000 -86.3528 1.1652 35.3734 54.8517 -54.7742 -30.0948 -0.0000 0.0000 -28.5012 27.6010 11.7275 6.0658 -7.1250 0.0000 -0.0000 0.3862 43.1632 -0.0175 -0.0000 0.0000 0.0000 90.9167 -18.6852 -10.9912 -4.8571 8.3433 -0.3545 0.0000 0.0000 17.4596 -18.8023 10.8996 -3.6836 7.1250 -0.0000 -0.0000 5.8348 -18.5156 3.6991
9.9874 17.1679 6.6478 0.6291 6.1928 -4.5811 0.0000 0.0000 0.0000 -24.3832 4.7200 22.2382 1.2210 7.0089 19.7416 0.3626 0.5049 -11.5685 1.4878 -7.7060 -21.8246 0.0000 0.0000 0.0000 19.4385 13.0402 -22.2169 -2.7295 -10.2437 29.7696 -0.0720 -8.9448 -13.9860 -0.3378 3.7350 -10.3322 -1.4102 -2.8668 4.7620 1.9344 -3.8600 1.6757 2.9743 -1.9397 -0.7147 1.1550 5.3770 -11.0212 -4.2599 7.4030 5.8963 -1.1070 3.4749 4.1587 -0.0000 0.0000 0.0000 -87.4514 3.4877 33.8105 50.5212 -53.2035 -26.5909 -0.0000 0.0000 -27.6658 27.5146 10.7781 5.5636 -7.1250 0.0000 -0.0000 0.3906 42.0937 -0.0280 -0.0000 0.0000 0.0000 90.7755 -18.7904 -11.4269 -4.8371 8.3095 -0.3516 0.0000 0.0000 17.4653 -17.5236 13.0247 -4.0704 7.1250 -0.0000 -0.0000 6.7524 -16.4056 4.6028
9.9572 17.1424 7.4504 -0.4711 4.9660 -5.0546 0.0000 0.0000 0.0000 -22.3094 5.5984 18.6006 2.8309 10.4162 30.3352 0.0803 0.7402 -5.6754 2.0825 -9.0358 -25.9073 0.0000 0.0000 0.0000 21.8462 13.4988 -20.9575 -3.4948 -11.4560 33.8335 -0.1890 -7.7910 -14.4320 -0.0108 0.6705 -1.8425 -0.4193 -2.7910 4.8306 2.2839 -3.7090 1.6780 2.7775 -1.8616 -0.8000 1.5127 5.2624 -11.1971 -4.7669 7.2421 5.8746 -1.3497 3.3768 4.2256 -0.0000 0.0000 0.0000 -88.9825 5.3018 31.6327 43.0730 -49.7888 -20.7565 -0.0000 0.0000 -25.6668 25.7533 12.2926 5.8642 -7.1250 0.0000 -0.0000 -1.3610 43.5759 0.0478 -0.0000 0.0000 0.0000 90.5762 -17.5902 -11.7066 -4.9549 8.5084 -0.3688 0.0000 0.0000 17.9920 -17.4808 12.6499 -3.9453 7.1250 -0.0000 -0.0000 6.7773 -16.7972 4.5619
9.9097 17.1577 8.1890 -0.7822 4.5564 -5.4844 0.0000 0.0000 0.0000 -21.0974 4.7839 13.4414 5.2885 13.7015 42.0546 0.0574 4.1420 4.8095 2.0719 -9.0142 -25.8399 0.0000 0.0000 0.0000 23.4857 13.9031 -18.4741 -3.9128 -12.0434 35.8858 -0.3567 -7.3959 -16.3449 -0.0477 -1.4099 3.8774 -0.4920 -2.7569 5.4476 2.4068 -3.6591 1.6233 2.9793 -1.8329 -1.1895 1.0089 4.7974 -10.5275 -4.1979 6.6043 5.0497 -1.1375 3.1003 3.7255 0.0000 -0.0000 0.0000 -90.5585 6.5142 29.5300 35.2680 -45.0025 -15.0025 -0.0000 0.0000 -25.2003 24.8716 15.2232 6.9403 -7.1250 0.0000 -0.0000 -2.6091 46.6595 -0.1069 0.0000 -0.0000 0.0000 90.2981 -15.6861 -9.7646 -5.3971 9.2529 -0.4371 0.0000 0.0000 16.0717 -16.7957 13.3285 -3.9804 7.1250 -0.0000 -0.0000 7.2578 -16.1529 4.9928
9.8575 17.2027 8.8339 -1.7882 4.6954 -5.0856 0.0000 0.0000 0.0000 -19.3707 2.4886 5.4418 8.8284 16.6960 55.4948 0.3553 12.6962 12.9915 0.8074 -5.7345 -16.0160 0.0000 0.0000 0.0000 25.6337 13.4352 -16.2858 -3.9092 -12.0385 35.8684 -0.5083 -7.3137 -18.0870 -0.0329 -1.1710 3.2194 0.2966 -2.7364 5.7137 2.4933 -3.5787 1.4962 2.6428 -1.7890 -1.5158 0.2097 4.2333 -10.4835 -3.0028 5.8488 4.6659 -0.6573 2.7696 3.4798 0.0000 -0.0000 0.0000 -91.2167 5.8595 27.5146 27.1255 -38.2987 -9.5768 -0.0000 0.0000 -24.5213 23.1542 18.7943 7.8447 -7.1250 0.0000 -0.0000 -5.0298 50.2241 -0.6491 0.0000 -0.0000 0.0000 90.8311 -12.8165 -5.4273 -6.1106 10.4465 -0.5591 0.0000 0.0000 10.8669 -18.7870 14.5278 -4.8774 7.1250 -0.0000 -0.0000 5.9211 -14.7288 4.2442
9.8568 17.2743 9.4711 -1.9651 4.1832 -4.9306 0.0000 0.0000 0.0000 -19.0992 1.4699 -1.9438 11.7938 18.3021 65.3337 -0.4770 19.3961 9.1097 0.7117 -5.3917 -15.0291 0.0000 0.0000 0.0000 26.4960 11.8647 -14.0901 -3.7656 -11.8418 35.1747 -0.7742 -5.3428 -19.4026 -0.1044 -2.0831 5.7353 1.0306 -2.3076 5.9223 2.1073 -2.9680 1.5945 1.8018 -1.4840 -1.6148 -0.1617 3.5225 -10.7131 -2.2870 4.8907 4.4434 -0.4166 2.3200 3.3948 -0.0000 0.0000 0.0000 -91.7290 4.5740 24.4667 19.8551 -30.4674 -5.4577 -0.0000 0.0000 -22.5879 21.6483 19.0724 7.3896 -7.1250 0.0000 -0.0000 -6.5834 50.2690 -0.8582 -0.0000 0.0000 0.0000 91.3431 -9.4740 0.4491 -7.1530 12.1708 -0.7636 0.0000 0.0000 4.5686 -20.6510 15.1347 -5.6199 7.1250 -0.0000 -0.0000 4.6811 -13.8970 3.4315
9.8858 17.3529 10.1341 -1.9181 3.2076 -6.0161 0.0000 0.0000 0.0000 -19.4636 1.0177 -6.3525 13.3513 18.9054 70.2132 -1.2463 20.4678 -0.3410 0.4054 -4.0876 -11.3232 0.0000 0.0000 0.0000 27.2718 9.5867 -10.1593 -3.5888 -11.5922 34.3042 -0.9598 -3.8455 -20.2761 -0.0824 -1.8516 5.0956 1.4599 -1.9746 6.5733 1.7491 -2.5015 2.2208 1.1707 -1.2504 -1.3772 -0.3038 3.1286 -9.9315 -1.9869 4.3371 3.6653 -0.3482 2.0705 2.9565 -0.0000 -0.0000 0.0000 -92.7155 3.2966 17.3565 14.0573 -22.8165 -2.8503 -0.0000 0.0000 -17.2983 20.4267 19.3478 7.0339 -7.1250 0.0000 -0.0000 -7.8589 50.3562 -1.0431 -0.0000 -0.0000 0.0000 91.1605 -5.6707 6.8167 -8.3686 14.1486 -1.0404 0.0000 0.0000 0.1458 -22.3531 14.7906 -5.9928 7.1250 -0.0000 -0.0000 3.5114 -14.0679 2.5574
9.8898 17.4216 10.7638 -1.7582 1.0691 -6.0315 0.0000 0.0000 0.0000 -19.5012 -0.0260 -11.8644 14.0208 19.1203 72.2680 -0.8964 16.5380 -4.7556 0.5097 -4.5764 -12.7043 0.0000 0.0000 0.0000 27.9380 9.3486 -6.3716 -3.1534 -10.9393 32.0755 -1.0269 -3.1855 -20.5404 -0.0003 -0.1113 0.3059 1.4043 -1.2877 6.7789 1.4029 -1.5926 2.1996 0.7817 -0.7965 -1.5295 -0.3778 2.9874 -9.7983 -1.4439 4.1335 4.2684 -0.1678 1.9849 3.1208 -0.0000 0.0000 0.0000 -93.3088 3.9200 9.0353 10.4855 -17.4953 -1.6178 -0.0000 0.0000 -12.6561 22.2615 19.5751 7.8092 -7.1250 0.0000 -0.0000 -6.1228 50.8980 -0.8926 -0.0000 0.0000 0.0000 90.7092 -2.0191 14.4145 -9.6691 16.2203 -1.3811 0.0000 -0.0000 -3.4739 -22.8956 14.1971 -5.9136 7.1250 -0.0000 -0.0000 3.1089 -14.6395 2.2256
9.9095 17.4665 11.3970 -2.3613 -1.0250 -5.6927 0.0000 0.0000 0.0000 -18.4386 -1.7560 -17.0350 13.7104 19.0238 71.3181 -0.4333 11.8603 -7.1597 0.4709 -4.4013 -12.2086 0.0000 0.0000 0.0000 28.9965 8.6760 -3.5610 -2.8527 -10.4528 30.4557 -1.2210 -1.4034 -21.4293 -0.0276 -1.0729 2.9496 2.3178 -0.7687 6.5500 1.3694 -0.8523 2.2424 0.1723 -0.4252 -1.3732 -0.5414 2.8700 -9.6653 -1.6661 4.0124 4.3030 -0.2205 1.9131 3.1084 0.0000 -0.0000 0.0000 -93.9732 5.0380 0.8553 8.4989 -14.3582 -1.0724 -0.0000 0.0000 -7.9240 23.8135 20.9753 8.9775 -7.1250 0.0000 -0.0000 -4.9731 52.6483 -0.9379 0.0000 -0.0000 0.0000 89.5593 2.3907 22.8305 -11.1270 18.4827 -1.8160 0.0000 -0.0000 -8.1703 -23.6136 13.0150 -5.6229 7.1250 -0.0000 -0.0000 2.5500 -15.8308 1.7594
9.9478 17.4644 12.0301 -1.8894 -2.5446 -5.5651 0.0000 0.0000 0.0000 -18.6024 -4.1293 -20.7645 12.2950 18.5126 66.9208 -0.1506 8.9179 -9.3260 0.5187 -4.6161 -12.8169 0.0000 0.0000 0.0000 28.5456 7.2350 -1.1271 -2.7148 -10.2184 29.6869 -1.4822 0.2814 -22.9463 -0.0137 -0.7546 2.0737 2.3677 -0.3752 6.8923 0.8851 -0.3188 2.0192 -0.3919 -0.1632 -1.7885 -0.0187 2.9143 -9.5605 -2.2066 4.0530 4.7335 -0.4839 1.9171 3.2649 -0.0000 -0.0000 0.0000 -94.3454 7.6994 -3.7187 7.9036 -13.3964 -0.9297 -0.0000 0.0000 -6.6359 24.8193 20.6436 9.2604 -7.1250 0.0000 -0.0000 -3.8536 52.4818 -0.7105 -0.0000 -0.0000 0.0000 88.4583 6.0579 28.7430 -13.1359 21.4861 -2.5029 0.0000 -0.0000 -10.2878 -23.2855 14.7027 -6.2336 7.1250 -0.0000 -0.0000 2.8743 -14.0516 2.0932
9.9937 17.4908 12.6767 -1.8855 -3.5918 -5.4025 0.0000 0.0000 0.0000 -17.9475 -6.5642 -23.2272 9.9971 17.4082 59.4788 0.0292 8.1727 -12.2215 0.4209 -4.1643 -11.5393 0.0000 0.0000 0.0000 28.1948 5.2593 1.8955 -2.2995 -9.4638 27.2572 -1.5182 1.7756 -22.7952 -0.0109 0.6751 -1.8553 2.7450 -0.2367 7.0479 0.6010 -0.1143 2.2206 -0.9129 -0.0584 -1.6631 0.4965 2.8718 -10.0139 -2.9016 3.9689 4.2520 -0.8031 1.8575 3.2171 -0.0000 -0.0000 0.0000 -94.8956 10.1675 -4.9898 8.0779 -13.6790 -0.9705 -0.0000 0.0000 -7.4161 24.0822 20.4430 8.8727 -7.1250 0.0000 -0.0000 -4.5468 52.1333 -0.7998 -0.0000 -0.0000 0.0000 87.2811 9.9612 33.7501 -16.0097 25.5338 -3.6501 0.0000 -0.0000 -12.5913 -22.7819 13.6935 -5.6779 7.1250 -0.0000 -0.0000 3.1585 -15.1921 2.2238
10.0448 17.5196 13.3021 -2.8071 -4.5150 -4.8887 0.0000 0.0000 0.0000 -15.8604 -8.8928 -24.8685 7.1373 15.4464 49.3917 0.0295 9.0961 -13.4801 0.3998 -4.0596 -11.2444 0.0000 0.0000 0.0000 28.7376 3.5012 5.2873 -1.7047 -8.2218 23.3898 -1.3191 2.9036 -20.9519 -0.0222 0.9624 -2.6455 3.8584 -0.1332 7.4327 0.7615 0.1236 2.1643 -1.3925 0.0546 -1.9226 0.2722 2.7747 -9.6833 -3.1717 3.8424 2.8853 -0.8677 1.7992 2.6849 0.0000 -0.0000 0.0000 -95.7823 12.3263 -5.4730 8.3679 -14.1475 -1.0402 -0.0000 0.0000 -8.1434 22.6990 21.1550 8.5844 -7.1250 0.0000 -0.0000 -6.1599 52.6323 -1.1606 0.0000 -0.0000 0.0000 85.8748 13.5202 37.3992 -19.0378 29.4656 -5.0494 0.0000 -0.0000 -14.7248 -23.5067 14.3670 -6.1598 7.1250 -0.0000 -0.0000 2.7032 -14.3859 1.9490
10.0992 17.5786 13.9531 -3.0766 -5.2809 -3.9463 0.0000 0.0000 0.0000 -14.3184 -11.5923 -25.2370 4.3201 12.5746 37.7961 0.0522 9.6664 -14.6179 0.5614 -4.7989 -13.3360 0.0000 0.0000 0.0000 28.4140 2.0991 8.7116 -1.1195 -6.7212 18.8920 -1.1599 3.7042 -19.4638 -0.0108 0.6701 -1.8415 4.2007 0.0073 7.1198 0.7775 0.3209 2.1053 -1.5841 0.1539 -1.7968 0.8599 2.8569 -10.3443 -4.0120 3.9047 2.2041 -1.2351 1.8083 2.6186 -0.0000 -0.0000 0.0000 -96.5441 13.8332 -5.6777 8.7942 -14.8318 -1.1469 -0.0000 0.0000 -9.0457 21.8506 19.3972 7.5859 -7.1250 0.0000 -0.0000 -6.4773 50.6426 -0.9039 -0.0000 -0.0000 0.0000 84.5007 17.0966 39.7254 -21.8338 32.7887 -6.4956 0.0000 -0.0000 -16.6668 -24.6629 16.2562 -7.3244 7.1250 -0.0000 -0.0000 2.0605 -12.1991 1.5796
10.1539 17.5633 14.6388 -3.4532 -6.2819 -3.5400 0.0000 0.0000 0.0000 -12.4466 -14.4589 -24.4372 2.4814 9.8041 28.3446 0.0542 10.7381 -16.0814 0.9020 -6.0526 -16.9370 0.0000 0.0000 0.0000 27.9983 0.4915 12.8076 -0.6382 -5.1112 14.2260 -0.9305 4.3271 -17.2914 -0.0062 0.5104 -1.4025 4.5928 0.3032 6.9495 0.8757 0.7248 2.3505 -1.7330 0.3659 -1.4207 0.4742 2.6628 -10.7385 -3.9851 3.6456 0.8691 -1.1706 1.6898 2.2240 0.0000 -0.0000 0.0000 -97.1169 13.9949 -7.2339 8.7152 -14.7055 -1.1267 -0.0000 0.0000 -8.4954 20.0931 21.5044 7.6376 -7.1250 0.0000 -0.0000 -8.9021 52.5228 -1.6589 0.0000 -0.0000 0.0000 83.2114 20.2593 40.7552 -24.8198 36.0192 -8.1837 0.0000 -0.0000 -17.5510 -25.6771 16.2711 -7.6718 7.1250 -0.0000 -0.0000 1.3869 -12.0390 1.0674
10.2216 17.5154 15.3442 -3.4738 -7.4323 -3.6047 0.0000 0.0000 0.0000 -11.7442 -14.9174 -24.0176 1.6274 8.0425 22.8434 0.0484 11.8047 -17.4424 0.9904 -6.3340 -17.7567 0.0000 0.0000 0.0000 27.0303 -1.3084 17.0293 -0.3257 -3.6682 10.1451 -0.7380 4.5458 -15.3322 -0.0675 1.6763 -4.6118 4.6291 0.5777 7.1287 0.8343 1.0931 2.5659 -1.8254 0.5557 -1.2724 1.0893 2.6568 -10.6629 -4.8799 3.5438 -0.4124 -1.5755 1.6333 1.8221 -0.0000 0.0000 0.0000 -97.3596 13.7878 -8.4632 8.4815 -14.3303 -1.0681 -0.0000 0.0000 -7.8482 20.0913 21.4570 7.6210 -7.1250 0.0000 -0.0000 -8.8870 52.4739 -1.6453 -0.0000 0.0000 0.0000 82.5038 22.7284 41.4142 -27.2737 38.4390 -9.6688 0.0000 -0.0000 -18.1325 -25.6970 16.3276 -7.7042 7.1250 -0.0000 -0.0000 1.3787 -11.9746 1.0629
10.3158 17.4523 16.1299 -2.9410 -7.9591 -4.1431 0.0000 0.0000 0.0000 -13.1040 -13.7229 -23.0802 1.4878 7.7059 21.8243 0.1869 10.5837 -17.6423 1.1087 -6.6899 -18.7999 0.0000 0.0000 0.0000 25.5882 -2.2608 20.9345 -0.2474 -3.2007 8.8380 -0.6519 3.7042 -14.4452 -0.3729 3.9223 -10.8582 4.4517 0.7420 7.0656 0.5683 1.2813 2.8673 -2.0102 0.6622 -0.9117 1.3655 2.5862 -10.4452 -5.2366 3.3762 -1.5814 -1.7497 1.5600 1.4110 -0.0000 -0.0000 0.0000 -97.3332 13.7838 -7.5518 8.7022 -14.6845 -1.1234 -0.0000 0.0000 -8.3155 20.5549 21.0172 7.6595 -7.1250 0.0000 -0.0000 -8.2700 52.1037 -1.4545 -0.0000 -0.0000 0.0000 82.2632 24.3001 41.3272 -28.9344 39.9624 -10.7186 0.0000 -0.0000 -17.8038 -26.0555 17.3762 -8.3074 7.1250 -0.0000 -0.0000 1.2382 -10.7788 0.9850
10.3906 17.3987 16.9177 -3.4330 -8.2057 -3.8291 0.0000 0.0000 0.0000 -13.9964 -11.1085 -23.8495 1.8895 8.6321 24.6510 -0.1597 10.7434 -12.5405 1.2065 -6.9685 -19.6222 0.0000 0.0000 0.0000 25.8195 -1.9786 23.1476 -0.3026 -3.5369 9.7774 -0.5458 2.9302 -13.2606 -0.7434 5.5076 -15.3622 4.8830 0.9051 6.4236 0.6867 1.4951 2.7216 -2.1328 0.7740 -0.6823 1.2010 2.3925 -10.4948 -4.8965 3.1175 -1.8862 -1.6217 1.4425 1.2988 0.0000 -0.0000 0.0000 -96.9647 12.9264 -7.8328 8.3725 -14.1548 -1.0413 -0.0000 0.0000 -6.4504 20.7686 20.9574 7.7246 -7.1250 0.0000 -0.0000 -8.0364 52.0795 -1.4082 0.0000 -0.0000 0.0000 81.8666 24.2982 41.2466 -30.9426 41.6877 -12.0316 0.0000 -0.0000 -18.2985 -26.6270 15.8671 -7.8051 7.1250 -0.0000 -0.0000 0.7183 -12.3424 0.5482
10.5083 17.3913 17.7954 -1.4598 -7.3831 -4.1037 0.0000 0.0000 0.0000 -17.0883 -11.7223 -23.6403 2.5366 9.9041 28.6668 -0.3946 11.9840 -9.3724 0.2954 -3.4949 -9.6598 0.0000 0.0000 0.0000 23.5509 -1.3774 24.7834 -0.5181 -4.6134 12.8090 -0.4120 1.4056 -11.7176 -1.2499 7.0881 -19.9766 3.1416 0.8522 5.3644 0.1249 1.2836 2.4689 -1.7045 0.6624 -0.3996 1.1759 2.1974 -10.0595 -4.7143 2.8575 -1.8973 -1.5722 1.3226 1.2062 -0.0000 0.0000 0.0000 -96.4505 11.9246 -7.2762 8.2028 -13.8810 -1.0002 -0.0000 0.0000 -6.5785 21.7837 20.2870 7.8889 -7.1250 0.0000 -0.0000 -6.8082 51.5612 -1.1044 -0.0000 0.0000 0.0000 81.9252 22.3825 40.8167 -32.2049 42.7099 -12.8796 0.0000 -0.0000 -17.9750 -26.5268 17.0589 -8.3307 7.1250 -0.0000 -0.0000 0.8975 -11.0516 0.7089
10.5770 17.3201 18.5674 -1.5850 -5.7349 -4.3339 0.0000 0.0000 0.0000 -18.1372 -11.1838 -24.0110 3.3978 11.3128 33.3421 -0.2272 9.0866 -6.9884 0.0255 -1.0314 -2.8351 0.0000 0.0000 0.0000 23.4511 -2.0440 21.4720 -1.7242 -8.2663 23.5259 -0.2658 1.3458 -9.3585 -2.3266 9.5156 -27.4219 3.1660 0.7616 5.1008 0.2053 1.1558 2.4743 -1.6240 0.6009 -0.2552 0.1745 1.6763 -10.0618 -3.9545 2.2573 -2.0838 -1.1795 1.0461 1.0956 -0.0000 0.0000 0.0000 -95.5761 9.8651 -5.5111 8.1988 -13.8746 -0.9993 -0.0000 0.0000 -6.0653 22.3348 19.6778 7.8764 -7.1250 0.0000 -0.0000 -6.0795 51.0184 -0.9043 -0.0000 0.0000 0.0000 82.2370 20.3119 39.3696 -32.2424 42.7396 -12.9051 0.0000 -0.0000 -17.9566 -26.9887 17.0077 -8.4727 7.1250 -0.0000 -0.0000 0.5883 -11.0352 0.4648
10.6836 17.3971 19.3268 -0.6461 -5.4662 -4.4757 0.0000 0.0000 0.0000 -20.3567 -10.1274 -22.4514 3.8012 11.8911 35.3478 -0.0275 6.8659 -9.0958 0.0091 -0.6153 -1.6909 0.0000 0.0000 0.0000 21.8041 -0.5642 16.8998 -3.6615 -11.6958 34.6643 0.0012 -0.9542 0.4353 -2.8439 10.4380 -30.4069 2.5173 0.8886 5.4241 -0.0382 1.3123 1.8911 -1.5320 0.6599 -1.0369 -0.5450 1.2962 -9.7227 -3.3899 1.8355 -1.5566 -0.8958 0.8464 1.1786 -0.0000 0.0000 0.0000 -94.9602 8.8364 -1.3087 9.0317 -15.2109 -1.2084 -0.0000 0.0000 -9.0224 21.3384 20.6228 7.8344 -7.1250 0.0000 -0.0000 -7.3577 51.8331 -1.2436 -0.0000 0.0000 0.0000 82.8697 16.7628 38.8382 -31.3999 42.0635 -12.3369 0.0000 -0.0000 -17.4670 -27.0289 18.3937 -9.1450 7.1250 -0.0000 -0.0000 0.7062 -9.5100 0.5799
10.7829 17.4878 20.0382 0.7652 -6.1457 -4.6714 0.0000 0.0000 0.0000 -22.9951 -8.5825 -19.5885 3.6809 11.7232 34.7598 0.1226 6.2617 -11.6290 0.0024 0.3137 0.8620 0.0000 0.0000 0.0000 20.2472 3.1642 11.5086 -6.4601 -14.8599 46.8016 -0.3377 -5.2726 10.4268 -3.4846 11.4409 -33.7818 1.4392 1.1454 5.0652 -0.3842 1.5858 2.2427 -1.2855 0.8023 -0.4841 -0.6986 1.4473 -10.2905 -3.5165 2.0677 -1.4793 -0.8981 0.9532 1.3057 -0.0000 0.0000 0.0000 -94.3415 6.8935 4.5427 11.1000 -18.4413 -1.8074 -0.0000 0.0000 -13.9884 21.6185 21.5123 8.2686 -7.1250 0.0000 -0.0000 -7.3705 52.8072 -1.4221 -0.0000 0.0000 0.0000 83.3813 15.6628 39.6394 -28.8701 39.9050 -10.6773 0.0000 -0.0000 -17.6111 -26.9018 18.8521 -9.3105 7.1250 -0.0000 -0.0000 0.8383 -9.0309 0.6964
10.8598 17.5723 20.7141 2.7052 -6.1702 -5.2576 0.0000 0.0000 0.0000 -26.2155 -7.0875 -15.9631 3.3974 11.3121 33.3398 0.2547 5.7473 -13.3629 0.0028 -0.3447 -0.9471 0.0000 0.0000 0.0000 17.9476 5.2569 5.4767 -9.5353 -17.1401 57.9237 -0.3902 -11.1268 12.6914 -3.6124 11.6259 -34.4211 -0.3981 1.0332 5.6550 -0.8152 1.3413 2.2178 -0.6976 0.6705 -0.8784 -0.6491 1.7366 -9.6503 -3.9462 2.4272 -1.8920 -1.0307 1.1363 1.0755 -0.0000 -0.0000 0.0000 -93.6341 6.0135 10.1196 13.3194 -21.7535 -2.5705 -0.0000 0.0000 -18.2831 23.1947 18.0615 7.5673 -7.1250 0.0000 -0.0000 -4.8067 49.4533 -0.5289 -0.0000 -0.0000 0.0000 84.1012 14.0011 40.7142 -25.5897 36.8007 -8.6407 0.0000 -0.0000 -16.1196 -25.9152 19.5305 -9.2266 7.1250 -0.0000 -0.0000 1.5472 -8.4631 1.3032
10.9083 17.6742 21.3133 1.5105 -6.2002 -5.3905 0.0000 0.0000 0.0000 -25.5011 -6.1961 -13.2507 3.2645 11.1114 32.6565 0.4391 4.8167 -15.2163 0.0000 0.0253 0.0695 0.0000 0.0000 0.0000 19.6800 6.7841 -1.0816 -12.0730 -18.4213 66.2200 0.4515 -16.9643 6.8195 -2.9712 10.6483 -31.1027 0.5228 0.8201 6.1989 -0.2926 1.1142 2.6359 -0.6683 0.5602 -0.7459 -0.3719 2.0827 -9.9475 -4.5527 2.8668 -2.0164 -1.2515 1.3408 1.1130 0.0000 0.0000 0.0000 -92.8729 4.1364 14.9323 16.3224 -25.9558 -3.7859 -0.0000 0.0000 -21.3049 23.3032 19.6696 8.2494 -7.1250 0.0000 -0.0000 -5.1148 51.1758 -0.7799 0.0000 0.0000 0.0000 85.2037 13.1955 39.3938 -21.7750 32.7219 -6.4638 0.0000 -0.0000 -13.0673 -23.2111 18.6496 -7.8083 7.1250 -0.0000 -0.0000 3.2130 -9.8406 2.6208
10.9988 17.7471 21.9622 2.5812 -4.2108 -5.2314 0.0000 0.0000 0.0000 -27.8998 -5.4816 -9.0520 2.6199 10.0527 29.1475 0.4946 3.8476 -15.2517 0.0005 0.1386 0.3809 0.0000 0.0000 0.0000 17.7160 7.2774 -7.1810 -13.6532 -19.0055 71.1424 1.2152 -19.3319 -3.8602 -0.9286 6.1389 -17.1881 -0.5081 0.0293 6.2317 -0.3308 0.0014 2.2579 -0.0547 -0.0006 -1.1692 0.1930 2.1631 -9.5044 -5.8248 2.9599 -1.3562 -1.7578 1.3527 1.2939 -0.0000 0.0000 0.0000 -92.1652 3.3473 18.7307 19.3490 -29.8500 -5.2034 -0.0000 0.0000 -22.8128 22.5609 21.1559 8.5276 -7.1250 0.0000 -0.0000 -6.3000 52.6081 -1.1834 -0.0000 0.0000 0.0000 85.5735 10.2798 38.3452 -18.5793 28.8925 -4.8259 0.0000 -0.0000 -10.9540 -22.8167 17.9863 -7.4018 7.1250 -0.0000 -0.0000 3.4172 -10.6038 2.7350
11.0062 17.7853 22.5803 2.3044 -3.0415 -5.5070 0.0000 0.0000 0.0000 -28.1234 -4.4727 -6.2740 2.5165 9.8679 28.5499 0.6363 2.9771 -16.4402 0.0542 -1.5024 -4.1323 0.0000 0.0000 0.0000 18.3393 8.9612 -12.1180 -14.0200 -19.1201 72.2656 1.3117 -19.7773 -8.1219 -0.9006 6.0482 -16.9244 -0.9175 -0.0418 6.2940 0.0992 -0.1093 2.6633 0.6242 -0.0614 -0.7849 -0.1866 1.9404 -8.7493 -5.6829 2.6680 -1.7442 -1.6599 1.2317 1.0178 0.0000 0.0000 0.0000 -90.9784 1.1574 24.3154 22.3129 -33.3289 -6.7570 -0.0000 0.0000 -25.9037 23.8685 20.0105 8.6099 -7.1250 0.0000 -0.0000 -4.6426 51.6359 -0.7601 0.0000 0.0000 0.0000 85.8244 7.5571 35.6001 -16.2266 25.8269 -3.7441 0.0000 -0.0000 -10.7013 -23.2424 16.8124 -7.0811 7.1250 -0.0000 -0.0000 3.0476 -11.7966 2.3636
11.0460 17.7581 23.2001 2.6631 -0.8223 -5.3641 0.0000 0.0000 0.0000 -29.1607 -4.4165 -3.9801 2.5450 9.9193 28.7156 0.8179 1.7885 -17.8203 0.0966 -2.0040 -5.5168 0.0000 0.0000 0.0000 17.4485 9.8679 -16.5749 -13.2850 -18.8826 70.0083 0.9305 -17.2828 -10.9396 -1.2751 7.1566 -20.1803 -1.6346 -0.5506 6.5305 0.2512 -0.8295 2.5784 1.2355 -0.4237 -0.9772 -0.3749 1.6933 -9.2236 -5.5127 2.4134 -0.7813 -1.5817 1.0812 1.3963 0.0000 0.0000 0.0000 -90.1584 -0.3852 27.6036 26.2454 -37.4500 -9.0365 -0.0000 0.0000 -25.8256 23.1322 17.1361 7.1742 -7.1250 0.0000 -0.0000 -4.6503 48.4600 -0.3977 0.0000 0.0000 0.0000 86.5434 4.4222 31.3347 -13.6622 22.2497 -2.6989 0.0000 -0.0000 -9.8959 -23.6198 17.0134 -7.2915 7.1250 -0.0000 -0.0000 2.8129 -11.5295 2.1966
11.0914 17.7647 23.9127 3.5180 0.7195 -5.7617 0.0000 0.0000 0.0000 -30.6225 -3.0791 0.3407 2.1343 9.1404 26.2356 0.9058 0.8560 -18.3126 0.1274 -2.3011 -6.3385 0.0000 0.0000 0.0000 15.8985 11.2690 -18.4911 -11.3542 -18.1041 63.9266 0.3139 -12.9716 -13.7377 -0.9485 6.2025 -17.3730 -2.7332 -0.7570 6.1570 0.2518 -1.1542 2.9670 1.8645 -0.6047 -0.3351 -1.4519 1.2539 -9.6331 -4.2400 1.9460 -0.2559 -1.0068 0.8613 1.5879 0.0000 -0.0000 0.0000 -89.3280 -1.9772 30.4358 30.9057 -41.6572 -12.0071 -0.0000 0.0000 -27.6491 23.8734 19.3961 8.3615 -7.1250 0.0000 -0.0000 -4.4735 50.9840 -0.6607 0.0000 -0.0000 0.0000 87.3293 1.2366 24.6632 -11.7156 19.3768 -2.0069 0.0000 -0.0000 -6.2946 -22.3999 15.5356 -6.2996 7.1250 -0.0000 -0.0000 3.5239 -13.2681 2.6262
11.0934 17.7272 24.5576 3.9301 1.7995 -5.5426 0.0000 0.0000 0.0000 -31.1356 -2.4525 2.9076 1.9639 8.7905 25.1420 1.0365 -0.3449 -19.1368 0.0136 -0.7537 -2.0713 0.0000 0.0000 0.0000 15.1507 12.9977 -20.1914 -8.7001 -16.6108 55.0472 -0.0268 -10.5811 -15.4717 -0.9194 6.1091 -17.1012 -3.9321 -0.7671 6.4874 0.3979 -1.2458 2.9214 2.7010 -0.6578 -0.5277 -1.6458 1.1307 -9.6992 -3.6245 1.7895 -0.2324 -0.7847 0.7977 1.5932 -0.0000 0.0000 0.0000 -88.5899 -3.0992 32.7044 35.6976 -45.3039 -15.3071 -0.0000 0.0000 -28.3502 24.4180 17.2237 7.6564 -7.1250 0.0000 -0.0000 -3.4269 48.7510 -0.3174 -0.0000 0.0000 0.0000 88.1227 -2.0917 18.9116 -9.7006 16.2699 -1.3899 0.0000 -0.0000 -3.2501 -22.9685 16.0394 -6.6791 7.1250 -0.0000 -0.0000 3.1752 -12.6590 2.4059
11.1032 17.7337 25.1261 2.0057 3.7329 -4.2885 0.0000 0.0000 0.0000 -28.9113 -2.9551 3.6290 2.0540 8.9776 25.7253 1.1364 -1.6415 -19.6722 0.0750 -1.7666 -4.8610 0.0000 0.0000 0.0000 16.5599 13.6069 -21.4585 -5.2865 -13.6994 42.0463 0.1114 -11.0700 -13.9897 -1.0167 6.4151 -17.9937 -1.9862 -1.2710 5.5360 0.7577 -1.7767 3.5568 1.9768 -0.9289 0.6422 -1.0589 1.2131 -11.3409 -3.4692 1.8487 -0.7517 -0.8279 0.8249 1.7207 -0.0000 0.0000 0.0000 -87.4738 -5.9812 34.0743 40.7468 -48.5062 -18.9967 -0.0000 0.0000 -27.9694 25.3732 14.8888 6.9477 -7.1250 0.0000 -0.0000 -2.0791 46.3660 -0.0701 -0.0000 0.0000 0.0000 89.7883 -2.9862 10.3948 -7.8054 13.2369 -0.9070 0.0000 0.0000 2.8792 -22.8204 15.8843 -6.5696 7.1250 -0.0000 -0.0000 3.2639 -12.8436 2.4608
11.0836 17.7707 25.8325 0.5753 4.3373 -4.2314 0.0000 0.0000 0.0000 -26.7787 -0.7904 7.0339 1.5814 7.9336 22.5127 1.1179 -2.6757 -19.2722 0.0415 -1.3143 -3.6140 0.0000 0.0000 0.0000 18.2535 15.0024 -20.5485 -2.7246 -10.2353 29.7420 0.1266 -12.2044 -15.5619 -1.1150 6.7081 -18.8533 -1.1877 -1.3516 6.4853 1.4886 -1.8469 2.6043 2.3277 -0.9357 -0.8635 -1.5358 1.0708 -10.3274 -3.1083 1.6903 -0.5511 -0.6423 0.7618 1.5937 -0.0000 0.0000 0.0000 -87.4321 -4.6331 35.0192 45.9261 -51.2142 -22.9584 -0.0000 0.0000 -28.4883 25.0632 14.4294 6.6469 -7.1250 0.0000 -0.0000 -2.2974 45.8243 -0.0468 -0.0000 0.0000 0.0000 90.5554 -7.9264 2.5136 -6.8094 11.6051 -0.6928 0.0000 0.0000 9.1618 -20.9884 14.4256 -5.4592 7.1250 -0.0000 -0.0000 4.4193 -14.6085 3.1715
11.1022 17.7934 26.5478 1.1671 5.8399 -3.4868 0.0000 0.0000 0.0000 -26.9495 0.6464 10.8109 1.0296 6.4543 18.1085 0.9253 -3.2493 -17.3762 0.0556 -1.5218 -4.1858 0.0000 0.0000 0.0000 17.6814 13.2176 -21.9785 -1.4713 -7.6651 21.7014 -0.1121 -10.9839 -17.1878 -1.2513 7.0919 -19.9880 -1.7652 -1.4574 7.0515 1.4101 -2.0288 1.6927 2.6208 -1.0033 -2.0906 -1.6459 0.7612 -11.1068 -2.9355 1.3441 0.5528 -0.5835 0.5686 2.0937 0.0000 0.0000 0.0000 -87.0781 -3.6936 36.4062 49.5210 -52.8005 -25.7921 -0.0000 0.0000 -28.6522 24.7714 14.2928 6.4994 -7.1250 0.0000 -0.0000 -2.5487 45.6373 -0.0401 0.0000 0.0000 0.0000 91.8192 -12.3458 -4.6734 -5.8079 9.9414 -0.5056 0.0000 0.0000 15.2700 -23.2395 16.1516 -6.8120 7.1250 -0.0000 -0.0000 3.0019 -12.5038 2.2840
11.1182 17.7130 27.2633 2.7623 7.4705 -2.8023 0.0000 0.0000 0.0000 -28.2335 1.0278 14.0432 0.7862 5.6606 15.8028 0.7673 -3.5656 -15.7281 0.2064 -2.9249 -8.0698 0.0000 0.0000 0.0000 17.1898 8.9401 -24.5220 -1.2138 -6.9887 19.6818 -0.4191 -5.9184 -15.8273 -1.1559 6.8260 -19.2009 -3.0722 -1.7425 5.0453 0.9953 -2.4440 2.7607 2.8588 -1.2635 0.1875 -1.5451 0.5850 -12.2211 -3.3839 1.1051 -0.6470 -0.7539 0.4471 1.8983 -0.0000 -0.0000 0.0000 -87.3241 -5.2572 36.8492 51.0020 -53.3917 -26.9764 -0.0000 0.0000 -29.3203 27.1061 11.9672 6.0584 -7.1250 0.0000 -0.0000 -0.0888 43.3731 0.0036 -0.0000 -0.0000 0.0000 93.0248 -13.2607 -6.8091 -6.5374 11.1554 -0.6391 0.0000 0.0000 12.5647 -18.7218 7.1160 -2.4040 7.1250 -0.0000 -0.0000 5.8990 -22.4831 3.2113
11.0553 17.6436 28.0333 0.3152 6.8326 -3.4925 0.0000 0.0000 0.0000 -24.8112 2.2313 15.4941 1.0624 6.5533 18.3986 0.7772 -4.3125 -15.7600 0.6070 -4.9868 -13.8710 0.0000 0.0000 0.0000 20.3978 12.5507 -21.7778 -1.1583 -6.8329 19.2214 -0.2310 -7.2421 -14.4718 -0.4032 4.0767 -11.2926 -1.1248 -1.5787 6.3768 1.8357 -2.1326 1.7767 2.6835 -1.0636 -1.6302 -1.5288 0.5041 -11.2823 -3.6936 0.9972 -0.1329 -0.8625 0.3838 1.9027 -0.0000 0.0000 0.0000 -87.9239 -1.9188 36.3177 51.6270 -53.6310 -27.4789 -0.0000 0.0000 -28.4961 27.3839 10.7322 5.5097 -7.1250 0.0000 -0.0000 0.2767 42.0286 -0.0203 -0.0000 0.0000 0.0000 93.8029 -16.6858 -18.4498 -5.2870 9.0678 -0.4195 0.0000 0.0000 23.6936 -21.4280 12.3802 -4.8097 7.1250 -0.0000 -0.0000 4.0325 -16.7328 2.7075
11.0319 17.5355 28.8460 0.6586 6.9101 -3.8254 0.0000 0.0000 0.0000 -24.6344 2.8775 16.8217 1.4954 7.7247 21.8809 0.6806 -4.5045 -14.7118 1.2154 -6.9931 -19.6950 0.0000 0.0000 0.0000 20.7108 14.2660 -21.1153 -1.8163 -8.4724 24.1584 0.2485 -11.5564 -12.2253 -0.3572 3.8398 -10.6264 -1.5621 -1.6747 5.5423 1.8209 -2.2856 2.1026 2.8868 -1.1544 -0.8052 -1.1546 0.5999 -11.7778 -4.3381 1.1130 -0.0908 -1.1301 0.4163 2.0190 -0.0000 0.0000 0.0000 -88.4545 -0.3544 35.2521 49.8133 -52.9199 -26.0251 -0.0000 0.0000 -27.4279 26.7032 12.6008 6.2624 -7.1250 0.0000 -0.0000 -0.5262 44.0277 0.0126 -0.0000 0.0000 0.0000 94.2753 -17.4397 -19.2836 -5.8214 9.9640 -0.5079 0.0000 0.0000 20.5359 -18.8486 7.9545 -2.7047 7.1250 -0.0000 -0.0000 5.7975 -21.5975 3.2729
